Id,Pandal Name,Image Link,District,Locality,street,established,description,address,latitude,Maplink,website
0,Shri Kasba Ganpati Sarvajanik Ganeshotsav Mandal,https://i0.wp.com/hindupad.com/wp-content/uploads/2011/09/kasba-ganpati-temple-pune.jpg,Pune,Kasba Peth,Kasba Peth Rd,1893,"Established in 1893, this idol holds the status of presiding deity among all Ganesh Mandals in Pune. The Kasba Ganpati is the first one to be immersed and is fittingly called the “Manacha Pahila Ganpati” or the most revered Ganpati. The festivities at this Mandal is a must-watch.","159, Kasba Peth Rd, Durvankur Society, Phadke Haud, Kasba Peth, Pune, Maharashtra 411011","18.519013694300543, 73.85708956867586","https://www.google.com/maps/place/18%C2%B031'08.5%22N+73%C2%B051'25.5%22E/@18.5190188,73.8549009,17z/data=!3m1!4b1!4m5!3m4!1s0x0:0xf094032f855916b7!8m2!3d18.5190137!4d73.8570896",http://www.kasbaganpati.org/
1,Tambdi Jogeshwari Ganpati,https://st1.latestly.com/wp-content/uploads/2019/08/Tambdi-Jogeshwari-Ganpati-781x441.jpg,Pune,Budhwar Peth,Budhwar Peth,1893,"This is one of the Ganpati’s started by Lokmanya Tilak in 1893. The head of the idol at Tambdi Jogeshwari Ganpati resembles that of an African elephant. This idol has remained the same since it’s inception and has been made by a single family over 4 generations. The Tambdi Jogeshwari Ganpati is known as the ‘Gramdevata of Pune,’ (Protector of Pune). The celebrations at this temple are very traditional so don’t expect any Bollywood numbers or item songs playing at this Mandal.","Yogeshwari Trust, 33 (A, Budhwar Peth, Pune, Maharashtra 411002","18.516574593605057, 73.85488456809713","https://www.google.com/maps/place/18%C2%B030'59.7%22N+73%C2%B051'17.6%22E/@18.5165797,73.8526959,17z/data=!3m1!4b1!4m5!3m4!1s0x0:0xf4a4d2620a3623c!8m2!3d18.5165746!4d73.8548846",https://shreetambadijogeshwari.org/
2,Guruji Talim Ganpati,https://c8.alamy.com/zooms/9/b9803124d4db40548e96dc0b6561bbe4/fg0mt6.jpg,Pune,Budhwar Peth,Laxmi Rd,1887,This mandal has a unique history of being started by one Hindu and one Muslim family in 1887. Guruji Talim Ganpati is said to be the oldest mandal in Pune which started even before Lokmanya Tilak revived the Ganpati festival. This mandal plays a crucial role in spreading communal harmony since it started. It is given the third preference in the immersion procession.,"184, Laxmi Rd, Tulshibaug, Budhwar Peth, Pune, Maharashtra 411002","18.51520650792969, 73.85558129751227","https://www.google.com/maps/place/18%C2%B030'54.7%22N+73%C2%B051'20.1%22E/@18.5152116,73.8533926,17z/data=!3m1!4b1!4m5!3m4!1s0x0:0x5ba99f50af40935!8m2!3d18.5152065!4d73.8555813",NA
3,Tulshibaug Ganpati,https://i.pinimg.com/originals/5e/b2/d6/5eb2d60c7cf3dd43a44a6250604fad65.jpg,Pune,Budhwar Peth,Tulshibaug,1901,Tulshibaug Ganpati is the largest Ganpati idol in Pune and stands at 15 feet tall. The mandal pays respect to the women of the Tulshi Baug market who help to bring in the revenue at his market. Tulshibaug Ganpati has a unique theme every year but they don’t spend much on being lavish. A good part of the donations goes for various social causes.,"Tulshibaug, Budhwar Peth, Pune, Maharashtra 411002","18.51428024029375, 73.85545568402216","https://www.google.com/maps/place/18%C2%B030'51.4%22N+73%C2%B051'19.6%22E/@18.5142853,73.853267,17z/data=!3m1!4b1!4m5!3m4!1s0x0:0x119d59b9b3dd1a2d!8m2!3d18.5142802!4d73.8554557",NA
4,Kesari Wada Ganpati,https://live.staticflickr.com/4089/5032723644_fa266c2b68_n.jpg,Pune,Narayan Peth,Kelkar Road,1893,This pandal was formed in 1893 by Lokmanya Tilak. It has the privilege of being the fifth most honored Ganpati in Pune. This pandal is well-known among locals for its social and cultural activities for children and other devotees.,"577, NC Kelkar Road, Narayan Peth, Pune, Maharashtra 411030","18.515849775164792, 73.84894219756238","https://www.google.com/maps/place/18%C2%B030'57.1%22N+73%C2%B050'56.2%22E/@18.5142853,73.853267,17z/data=!4m5!3m4!1s0x0:0x49bcbd9810f837ef!8m2!3d18.5158498!4d73.8489422",NA
5,Dagdusheth Halwai Ganpati,https://www.dagdushethganpati.com/wp-content/uploads/2019/08/Shreemant-Dagadusheth-Wallpaper-Desktop-1920X1080_1.jpg,Pune,Budhwar Peth,Chhatrapati Shivaji Maharaj Rd,1893,"This Mandal is one of the most popular mandals among the devotees. Established in 1893, this mandal is visited by celebrities as well as locals. Dagduseth Halwai pandal plays an important role in identifying Pune’s cultural significance. This Mandal also holds the crown of the richest Ganpati in Pune.","Ganpati Bhavan, 250, Chhatrapati Shivaji Maharaj Rd, Mehunpura, Budhwar Peth, Pune, Maharashtra 411002","18.5165979153817, 73.85612119756232","https://www.google.com/maps/place/18%C2%B030'59.8%22N+73%C2%B051'22.0%22E/@18.516603,73.8539325,17z/data=!3m1!4b1!4m5!3m4!1s0x0:0x69152b7e604b6a21!8m2!3d18.5165979!4d73.8561212",https://www.dagdushethganpati.com/
6,Hutatma Babu Genu Ganesh Mandal Trust,https://i.ytimg.com/vi/F5jFP789lIk/maxresdefault.jpg,Pune,Budhwar Peth,Tulshibaug Internal Rd,1970,"This Mandal was established in 1970 and is named after a famous freedom fighter. It is believed to fulfill all your wishes and also has a wishing pond, ‘Iccha Poorti Kund‘ where devotees throw coins and make a wish.","GV74+HH2, Tulshibaug Internal Rd, Tulshibaug, Budhwar Peth, Pune, Maharashtra 411002","18.513909234578318, 73.8563888975623","https://www.google.com/maps/place/18%C2%B030'50.1%22N+73%C2%B051'23.0%22E/@18.5139143,73.8542002,17z/data=!3m1!4b1!4m5!3m4!1s0x0:0x97741aa3d14e6359!8m2!3d18.5139092!4d73.8563889",NA
7,jilbya maruti ganpati mandir,https://live.staticflickr.com/96/231999332_51f11adfca_b.jpg,Pune,Shukrawar Peth,Mandai,1954,This mandal was established in 1954 and is famous for its lively Ganesh idol. It is also known as ‘Navasacha Ganpati’. This Ganpati idol is also believed to fulfill all your wishes.,"Jilbya Maruti Chowk, Mandai, Shukrawar Peth, Pune, Maharashtra 411002","18.513452588893315, 73.85509008510762","https://www.google.com/maps/place/18%C2%B030'48.4%22N+73%C2%B051'18.3%22E/@18.5134577,73.8529014,17z/data=!3m1!4b1!4m5!3m4!1s0x0:0x9f9d5cd25c267804!8m2!3d18.5134526!4d73.8550901",NA
8,Shrimant Bhausaheb Rangari Mandal,https://pixahive.com/wp-content/uploads/2020/09/Shrimant-Bhausaheb-Rangari-Ganapati-52632-pixahive-683x1024.jpg,Pune,Budhwar Peth,Bhau Rangari Road,1892,"This mandal is the oldest sarvajanik mandal set up in India. Established in 1892, this mandal is well known for its eco-friendly idols. This mandal was formed by Bhausaheb Laxman Javale or as he was popularly known as Bhau Rangari.","662, 657, Bhau Rangari Road, Budhwar Peth, Pune, Maharashtra 411002","18.517591154234076, 73.85529103988917","https://www.google.com/maps/place/18%C2%B031'03.3%22N+73%C2%B051'19.1%22E/@18.5134577,73.8529014,17z/data=!4m5!3m4!1s0x0:0xace49bef96f776a7!8m2!3d18.5175912!4d73.855291",https://www.shrimantbhausahebrangariganpati.com/
9,Akhil Mandai Mandal,https://live.staticflickr.com/1875/43803304325_0b1425c593_b.jpg,Pune,Shukrawar Peth,Mandai,1894,Akhil Mandai Mandal is one of the most important mandals in Pune. This mandal is thronged by thousands of devotees from the city as well as other cities of Maharashtra. It is also well known for its extravagant and beautiful decor.,"Phatakwada Society, Mandai, Shukrawar Peth, Pune, Maharashtra 411002","18.511876877056956, 73.85614889756228","https://www.google.com/maps/place/18%C2%B030'42.8%22N+73%C2%B051'22.1%22E/@18.5175963,73.8531023,17z/data=!4m5!3m4!1s0x0:0xe2e3762b986dbda5!8m2!3d18.5118769!4d73.8561489",https://www.akhilmandaimandal.org/
10,Moreshwar Temple,https://www.ashtavinayak.net/images/banner1.jpg,Pune,Morgaon,Morgaon,1500-1600,"Shri Mayureshwar Mandir (Marathi: श्री मयूरेश्वर मंदीर) or Shri Moreshwar Temple (Marathi: श्री मोरेश्वर मंदीर) is a Hindu temple (mandir) dedicated to Ganesha, god of wisdom. It is located in Moragaon (Marathi: मोरगाव) in Pune District, about 65 km away from Pune city in the Indian state of Maharashtra.[1] The temple is the starting and ending point of a pilgrimage of eight revered Ganesha temples called Ashtavinayaka.

Moragon is the foremost centre of worship of the Ganapatya sect, which considers Ganesha as the Supreme Being. A Hindu legend relates the temple to killing of the demon Sindhura by Ganesha. The exact date of building of the temple is unknown, though the Ganapatya saint Moraya Gosavi is known to be associated with it. The temple flourished due to the patronage of the Peshwa rulers and descendants of Moraya Gosavi.","Morgaon, Maharashtra 412304","18.27813166258213, 74.31748295523204","https://www.google.com/maps/place/18%C2%B030'42.8%22N+73%C2%B051'22.1%22E/@18.511882,73.8539602,17z/data=!3m1!4b1!4m5!3m4!1s0x0:0xe2e3762b986dbda5!8m2!3d18.5118769!4d73.8561489",NA
11,Chintamani Temple,https://allworldtemple.com/wp-content/uploads/2021/09/Chintamani-Theur-Maharashtra-1.jpg,Pune,Theur,Theur,1600-1700,"The Chintamani Temple of Theur is a Hindu temple dedicated to Ganesha Located 25 km (16 mi) from Pune,[1] the temple is ""one of the larger and more famous"" of the Ashtavinayaka, the eight revered shrines of Ganesha in the Indian state of Maharashtra.

The temple lore describes how bhagwan Ganesh retrieved the wish-giving jewel Chintamani for his devotee, the sage Kapila from the greedy king Gana and how he pacifies the uneasy mind of the god Brahma, who meditated on him in Theur. The temple is associated with the Ganapatya saint Morya Gosavi (dated between 13th to 17th century). Though the temple is believed to have existed since antiquity, the current structure of the temple was built by him or his descendant. The Chintamani Temple was also a spiritual magnet for the Peshwa rulers, especially Madhavrao I (1745–1772) who renovated and made additions to the temple structure.","Theur Rd, Theur, Maharashtra 412110","18.52408141443013, 74.04635839751248","https://www.google.com/maps/place/18%C2%B031'26.7%22N+74%C2%B002'46.9%22E/@18.5240865,74.0441697,17z/data=!3m1!4b1!4m5!3m4!1s0x0:0xe6f4450ed1122512!8m2!3d18.5240814!4d74.0463584",http://www.chinchwaddeosthan.org/
12,Girijatmaj Temple,https://templesinindiainfo.com/wp-content/uploads/2020/04/Lenyadri-Girijatmaj-Ganpati-Temple.jpg,Pune,Junnar,Golegaon,500-600,"One of the Ashtavinayak Temples of Maharashtra; the abode of the Pandavas - all these and much more are some of the laurels associated to the Shri Girijatmaj Lenyadri Ganpati Temple. Legend has it, Shri Girijatmaj Lenyadri Ganpati Temple was the same place where Goddess Parvati meditated for 12 years for a child. That's how Ganesha was born. And it is from the same incident the temple is known as ‘Girijatmaj’ - ‘Girija’ meaning Devi Parvati and ‘Aatmaj’ meaning son.

To reach the main sanctum of the temple, pilgrims will have to climb a flight of 338 stairs. Right in front of the temple, there are two water reservoirs that remain covered with water. There are approximately eighteen rooms in the main temple hall (also known as Sabhamandap), which were used by saints for tapascharya. In one of the rooms, tourists can find the rock statue of Shri Girijatmaj Lenyadri Ganapati. All the 30 Lenyadri Caves including the Shri Girijatmaj Lenyadri Ganpati Temple is under the control of the Archaeological Survey of India. Do not miss to buy the locally harvested grapes, black raisins, Sapottas (Chikus) at the base of the mountains.","Golegaon, Taluka : Junnar, Dist. : Pune JUNNR, Golegaon, Maharashtra 410502","19.24346919030854, 73.88767361127455","https://www.google.com/maps/place/19%C2%B014'36.5%22N+73%C2%B053'15.6%22E/@19.2434743,73.8854849,17z/data=!3m1!4b1!4m5!3m4!1s0x0:0x6024c41075c2c051!8m2!3d19.2434692!4d73.8876736",http://www.lenyadriganpati.com/
13,Vighnahar Temple,https://www.templepurohit.com/wp-content/uploads/2016/03/Vigneshwara-Temple-Ozar.jpg,Pune,Ozar,Ozar,unknown,"The Vigneshwara Temple or Vighnahar Ganapati Temple[1] of Ozar (also spelt as Ojhar or Ojzar) is a Hindu temple dedicated to Ganesha, the elephant-headed god of wisdom. The temple is one of the Ashtavinayaka, the eight revered shrines of Ganesha in Maharashtra, India. The Ganesha form worshipped here is called Vigneshwara (spelt also as Vigneshvar(a), Vigneshwar : ""Lord of obstacles"") or Vignahar (spelt also as Vignahara, ""Remover of obstacles"") and is associated with the legend of Ganesha defeating Vignasura, the demon of obstacles.","5XQ5+6VC, Ozar, Maharashtra 410504","19.188056954229737, 73.95951602264671","https://www.google.com/maps/place/19%C2%B011'17.0%22N+73%C2%B057'34.3%22E/@19.1880621,73.9573273,17z/data=!3m1!4b1!4m5!3m4!1s0x0:0x8aa63610e27ca639!8m2!3d19.188057!4d73.959516",NA
14,Pitali Ganapati,http://4.bp.blogspot.com/-gBaxGuxXjN0/VANM33zMy3I/AAAAAAAAAO8/gLIy_mwUkKE/s1600/IMG_9839.JPG,Pune,Alandi,,NA,"The festival celebrates Ganesha as the God of New Beginnings and the Remover of Obstacles as well as the god of wisdom and intelligence and is observed throughout India, especially in the states such as Tamil Nadu, Maharashtra, Karnataka, Kerala, Andhra Pradesh and Goa.It is believed that devotees who pray to Ganesha are able to fulfil their wishes and desires. So, the main essence of Ganesh Chaturthi is that devotees who pray to him are set free of sins and it leads them on the path of knowledge and wisdom.","MVHW+2H6, Bharav Rasta, Alandi, Maharashtra 412105","18.677835968361254, 73.8963926708955","https://www.google.com/maps/place/18%C2%B040'40.2%22N+73%C2%B053'47.0%22E/@18.6778411,73.894204,17z/data=!3m1!4b1!4m5!3m4!1s0x0:0x79d999bb3c64ef21!8m2!3d18.677836!4d73.8963927",NA
15,Mahaganapati Temple at Ranjangaon,https://www.ashtavinayak.in/images/ranjangaon/ranjangaon-mahaganpati-ganpati-ashtavinayak.jpg,Pune,Shirur ,Ranjangaon,900-1000,"Ranjangaon Ganpati is one among the Ashtavinayak, celebrating eight instances of legends related to Ganesha. This temple's Ganpati idol was inaugurated and donated by the ""Khollam"" family, a goldsmith family based in Ranjangaon. The temple was built between the 9th and 10th century. The main temple looks like it was built in the Peshwa period. Nagarkhana is situated above the entrance gate. The temple facing east has huge and beautiful entrance gate.

Madhavrao Peshwa made a room in the basement of the temple to keep the idol of lord Ganesh. Later on Sardar Kibe of Indore renovated it. The idol of these lord Ganesh is also named as 'Mahotkat', and it is said that the idol has 10 trunks and 20 hands.

While going from the Pune - Nagar highway the route is Pune - Koregaon - then via Shikrapur; Rajangaon is 21 km before Shirur. From Pune it is 50 km.

In early 1990s, Govt of Maharashtra established an industrial zone (MIDC) on the land acquired from the nearby villages and the industrial establishment is known as Ranjangaon MIDC. It host many multinational manufacturing companies like Whirlpool, LG to name a few.

References","Maharashtra Pune, Ranjangaon, Maharashtra 412209","18.753426765031517, 74.24061022635256","https://www.google.com/maps/place/18%C2%B045'12.3%22N+74%C2%B014'26.2%22E/@18.7534319,74.2384215,17z/data=!3m1!4b1!4m5!3m4!1s0x0:0xcf491280c47011d9!8m2!3d18.7534268!4d74.2406102",http://ranjangaonmahaganpati.org/homepage.aspx
16,"Achanak Mitra Mandal, Ganapati Mandir",http://4.bp.blogspot.com/-gBaxGuxXjN0/VANM33zMy3I/AAAAAAAAAO8/gLIy_mwUkKE/s1600/IMG_9839.JPG,Pune,Shivaji nagar,,NA,"The festival celebrates Ganesha as the God of New Beginnings and the Remover of Obstacles as well as the god of wisdom and intelligence and is observed throughout India, especially in the states such as Tamil Nadu, Maharashtra, Karnataka, Kerala, Andhra Pradesh and Goa.It is believed that devotees who pray to Ganesha are able to fulfil their wishes and desires. So, the main essence of Ganesh Chaturthi is that devotees who pray to him are set free of sins and it leads them on the path of knowledge and wisdom.","295, Jethiram Bhima Shelar Path, Gokhalenagar, Pune, Maharashtra 411016","18.52542358094027, 73.82766396369023","https://www.google.com/maps/place/18%C2%B031'31.5%22N+73%C2%B049'39.6%22E/@18.5254287,73.8254753,17z/data=!3m1!4b1!4m5!3m4!1s0x0:0xaec892378fbc6608!8m2!3d18.5254236!4d73.827664",NA
17,Shree Seva Mandal Ganpati Mandir,https://content.jdmagicbox.com/comp/pune/m8/020pxx20.xx20.180326231352.k3m8/catalogue/shree-seva-mandal-ganpati-mandir-shivaji-nagar-pune-temples-sijecdg56f-250.jpg,Pune,Shivaji nagar,,NA,"The festival celebrates Ganesha as the God of New Beginnings and the Remover of Obstacles as well as the god of wisdom and intelligence and is observed throughout India, especially in the states such as Tamil Nadu, Maharashtra, Karnataka, Kerala, Andhra Pradesh and Goa.It is believed that devotees who pray to Ganesha are able to fulfil their wishes and desires. So, the main essence of Ganesh Chaturthi is that devotees who pray to him are set free of sins and it leads them on the path of knowledge and wisdom.","Sambhaji Housing Society, Off, Senapati Bapat Rd, Chaitanya Society, Laxmi Society, Model Colony, Shivajinagar, Pune, Maharashtra 411016","18.53094311148892, 73.83052948883068","https://www.google.com/maps/place/Sambhaji+Housing+Society,+Senapati+Bapat+Rd,+Laxmi+Society,+Model+Colony,+Shivajinagar,+Pune,+Maharashtra+411016/@18.5307346,73.8280833,17z/data=!3m1!4b1!4m5!3m4!1s0x3bc2bf79d5cfc18b:0xe4711d4d7b179466!8m2!3d18.5307295!4d73.830272",NA
18,Akhil Navipeth Hatti Ganpati Mandal,https://i0.wp.com/3.bp.blogspot.com/-S2HjZ2G9wVI/UFwCBe1gTQI/AAAAAAAAAPM/BF-ViCYDsLo/s640/29)+Hatti+Ganpati.jpg,Pune,Sadashiv peth,,NA,"The festival celebrates Ganesha as the God of New Beginnings and the Remover of Obstacles as well as the god of wisdom and intelligence and is observed throughout India, especially in the states such as Tamil Nadu, Maharashtra, Karnataka, Kerala, Andhra Pradesh and Goa.It is believed that devotees who pray to Ganesha are able to fulfil their wishes and desires. So, the main essence of Ganesh Chaturthi is that devotees who pray to him are set free of sins and it leads them on the path of knowledge and wisdom.","1159, Hatti Ganapati Rd, Pantancha Gate, Sadashiv Peth, Pune, Maharashtra 411030","18.51139126720781, 73.84660847108009","https://www.google.com/maps/place/18%C2%B030'41.0%22N+73%C2%B050'47.8%22E/@18.5113964,73.8444198,17z/data=!3m1!4b1!4m5!3m4!1s0x0:0xe08b6a06ec61e894!8m2!3d18.5113913!4d73.8466085",NA
19,Ganpati Mandir (Chitrashala Mitra Mandal),https://images.hindustantimes.com/rf/image_size_630x354/HT/p2/2019/09/09/Pictures/ht-pune_730a28f2-d2ef-11e9-bf18-74205beb354d.JPG,Pune,Sadashiv peth,,NA,"The festival celebrates Ganesha as the God of New Beginnings and the Remover of Obstacles as well as the god of wisdom and intelligence and is observed throughout India, especially in the states such as Tamil Nadu, Maharashtra, Karnataka, Kerala, Andhra Pradesh and Goa.It is believed that devotees who pray to Ganesha are able to fulfil their wishes and desires. So, the main essence of Ganesh Chaturthi is that devotees who pray to him are set free of sins and it leads them on the path of knowledge and wisdom.","562 Sadashiv Peth, Chitrashala Building, Chitrashala Chowk, Laxmi Rd, opp. Bhanuvilas Theater, Sadashiv Peth, Pune, Maharashtra 411030","18.51406517128629, 73.84828397376968","https://www.google.com/maps/place/Ganpati+Mandir+(Chitrashala+Mitra+Mandal)/@18.5137752,73.8461597,17z/data=!4m9!1m2!2m1!1s562+Sadashiv+Peth,+Chitrashala+Building,+Chitrashala+Chowk,+Laxmi+Rd,+opp.+Bhanuvilas+Theater,+Sadashiv+Peth,+Pune,+Maharashtra+411030!3m5!1s0x3bc2c1aa6b32a6e3:0x357005f201f0f205!8m2!3d18.5138085!4d73.8482684!15sCoYBNTYyIFNhZGFzaGl2IFBldGgsIENoaXRyYXNoYWxhIEJ1aWxkaW5nLCBDaGl0cmFzaGFsYSBDaG93aywgTGF4bWkgUmQsIG9wcC4gQmhhbnV2aWxhcyBUaGVhdGVyLCBTYWRhc2hpdiBQZXRoLCBQdW5lLCBNYWhhcmFzaHRyYSA0MTEwMzCSAQxoaW5kdV90ZW1wbGXgAQA",NA
20,Balvikas ganesh mandal ganapati temple,http://hindupad.com/wp-content/uploads/2011/09/kasba-ganpati-temple-pune-300x281.jpg,Pune,Narayan Peth,,NA,"The festival celebrates Ganesha as the God of New Beginnings and the Remover of Obstacles as well as the god of wisdom and intelligence and is observed throughout India, especially in the states such as Tamil Nadu, Maharashtra, Karnataka, Kerala, Andhra Pradesh and Goa.It is believed that devotees who pray to Ganesha are able to fulfil their wishes and desires. So, the main essence of Ganesh Chaturthi is that devotees who pray to him are set free of sins and it leads them on the path of knowledge and wisdom.","GV82+X9G, Prabhune Rd, Banashankari Society, Narayan Peth, Pune, Maharashtra 411030","18.517754244681832, 73.85108825874988","https://www.google.com/maps/place/Prabhune+Rd,+Banashankari+Society,+Shaniwar+Peth,+Pune,+Maharashtra+411030/@18.517533,73.8488486,17z/data=!3m1!4b1!4m5!3m4!1s0x3bc2c0707e7748d3:0x8906e969cad119df!8m2!3d18.5175279!4d73.8510373",NA
21,Ganaraj Mitra Mandal Ganpati Mandir,https://images.hindustantimes.com/rf/image_size_640x362/HT/p2/2018/09/19/Pictures/ht-pune_5f6b1856-bbfd-11e8-aa2b-bfb0450a5721.jpg,Pune,Laxmi nagar,,NA,"The festival celebrates Ganesha as the God of New Beginnings and the Remover of Obstacles as well as the god of wisdom and intelligence and is observed throughout India, especially in the states such as Tamil Nadu, Maharashtra, Karnataka, Kerala, Andhra Pradesh and Goa.It is believed that devotees who pray to Ganesha are able to fulfil their wishes and desires. So, the main essence of Ganesh Chaturthi is that devotees who pray to him are set free of sins and it leads them on the path of knowledge and wisdom.","80, Shahu College Rd, Laxmi Nagar, Parvati Paytha, Pune, Maharashtra 411009","18.493067308467644, 73.84891369678148","https://www.google.com/maps/place/80,+Shahu+College+Rd,+near+Dattawadi+Police+Station,+Laxmi+Nagar,+Parvati+Paytha,+Pune,+Maharashtra+411009/@18.4928384,73.846725,17z/data=!3m1!4b1!4m5!3m4!1s0x3bc2c005c1552423:0x1dfc78616dcbb114!8m2!3d18.4928333!4d73.8489137",NA
22,Aranyeshwar Mitra Mandal Ganpati Mandir,https://content.jdmagicbox.com/comp/pune/m4/020pxx20.xx20.180222213821.u6m4/catalogue/dashbhuja-ganpati-mandir-parvati-nagar-pune-temples-t3htufpvrl.jpg?clr=,Pune,Laxmi nagar,,NA,"The festival celebrates Ganesha as the God of New Beginnings and the Remover of Obstacles as well as the god of wisdom and intelligence and is observed throughout India, especially in the states such as Tamil Nadu, Maharashtra, Karnataka, Kerala, Andhra Pradesh and Goa.It is believed that devotees who pray to Ganesha are able to fulfil their wishes and desires. So, the main essence of Ganesh Chaturthi is that devotees who pray to him are set free of sins and it leads them on the path of knowledge and wisdom.","77, Adhyapak Society, Parvati Paytha, Pune, Maharashtra 411009","18.483282193942664, 73.85111065260458","https://www.google.com/maps/place/77,+Adhyapak+Society,+Parvati+Paytha,+Pune,+Maharashtra+411009/@18.4831245,73.8489756,17z/data=!3m1!4b1!4m5!3m4!1s0x3bc2eaa8299cafb5:0x92ba5450d0e438e1!8m2!3d18.4831194!4d73.8511643",NA
23,JedheNagar Ganpati Mandir,https://encrypted-tbn0.gstatic.com/images?q=tbn:ANd9GcRXpA9cVNi_LiF0RSrMeKg1rOE6SCpD4EssFmAWMrWcl-ZYoL2ZXVvxAALN55vou_Mzr5g&usqp=CAU,Pune,Bibwewadi,,NA,"The festival celebrates Ganesha as the God of New Beginnings and the Remover of Obstacles as well as the god of wisdom and intelligence and is observed throughout India, especially in the states such as Tamil Nadu, Maharashtra, Karnataka, Kerala, Andhra Pradesh and Goa.It is believed that devotees who pray to Ganesha are able to fulfil their wishes and desires. So, the main essence of Ganesh Chaturthi is that devotees who pray to him are set free of sins and it leads them on the path of knowledge and wisdom.","FVG6+C39, Sangam Society, Bibwewadi, Pune, Maharashtra 411037","18.47622065231497, 73.86024512561664","https://www.google.com/maps/place/7JCMFVG6%2BC39/@18.4760426,73.8580457,17z/data=!3m1!4b1!4m5!3m4!1s0x0:0x2938cd77e4f6125e!8m2!3d18.4760375!4d73.8602344",NA
24,Ankush mitra mandal (Trust),http://4.bp.blogspot.com/-gBaxGuxXjN0/VANM33zMy3I/AAAAAAAAAO8/gLIy_mwUkKE/s1600/IMG_9839.JPG,Pune,Bibwewadi,,NA,"The festival celebrates Ganesha as the God of New Beginnings and the Remover of Obstacles as well as the god of wisdom and intelligence and is observed throughout India, especially in the states such as Tamil Nadu, Maharashtra, Karnataka, Kerala, Andhra Pradesh and Goa.It is believed that devotees who pray to Ganesha are able to fulfil their wishes and desires. So, the main essence of Ganesh Chaturthi is that devotees who pray to him are set free of sins and it leads them on the path of knowledge and wisdom.","FV96+5F5, bibvewadi,, Lower Indira Nagar, Bibwewadi, Pune, Maharashtra 411037","18.467988771129292, 73.86110047057177","https://www.google.com/maps/place/Ankush+mitra+mandal+(Trust)/@18.4682228,73.8629244,16z/data=!4m9!1m2!2m1!1sFV96%2B5F5,+bibvewadi,,+Lower+Indira+Nagar,+Bibwewadi,+Pune,+Maharashtra+411037!3m5!1s0x3bc2eabc3c3a7ee1:0x6a6e854192297373!8m2!3d18.4678929!4d73.8612045!15sCk1GVjk2KzVGNSwgYmlidmV3YWRpLCwgTG93ZXIgSW5kaXJhIE5hZ2FyLCBCaWJ3ZXdhZGksIFB1bmUsIE1haGFyYXNodHJhIDQxMTAzN5IBDGhpbmR1X3RlbXBsZeABAA",NA
25,Shivshakti Mitra Mandal,https://www.ganapatibappa.com/wp-content/uploads/2014/07/shiv-shakti-mitra-mandal.jpg,Pune,Dhankawadi,,NA,"The festival celebrates Ganesha as the God of New Beginnings and the Remover of Obstacles as well as the god of wisdom and intelligence and is observed throughout India, especially in the states such as Tamil Nadu, Maharashtra, Karnataka, Kerala, Andhra Pradesh and Goa.It is believed that devotees who pray to Ganesha are able to fulfil their wishes and desires. So, the main essence of Ganesh Chaturthi is that devotees who pray to him are set free of sins and it leads them on the path of knowledge and wisdom.","FR8W+4C9, Shriram Nagar, Kamal Vihar, Dhankawadi, Pune, Maharashtra 411043","18.465338369788054, 73.84605575260437","https://www.google.com/maps/place/7JCMFR8W%2B4C9/@18.4652926,73.8439207,17z/data=!3m1!4b1!4m5!3m4!1s0x0:0x8505ce4d41eac221!8m2!3d18.4652875!4d73.8461094",NA
26,Satya Sangram Ganesh Temple,http://4.bp.blogspot.com/-gBaxGuxXjN0/VANM33zMy3I/AAAAAAAAAO8/gLIy_mwUkKE/s1600/IMG_9839.JPG,Pune,Dhankawadi,,NA,"The festival celebrates Ganesha as the God of New Beginnings and the Remover of Obstacles as well as the god of wisdom and intelligence and is observed throughout India, especially in the states such as Tamil Nadu, Maharashtra, Karnataka, Kerala, Andhra Pradesh and Goa.It is believed that devotees who pray to Ganesha are able to fulfil their wishes and desires. So, the main essence of Ganesh Chaturthi is that devotees who pray to him are set free of sins and it leads them on the path of knowledge and wisdom.","FR8X+665, Satya Sangram Mitra Mandal, Chavan Chalel, Savarkar Chowk, Gaon, Shriram Nagar, Dhankawadi, Pune, Maharashtra 411043","18.465664457766817, 73.8483715888297","https://www.google.com/maps/place/Satya+Sangram+Ganesh+Temple/@18.4655271,73.8459254,17z/data=!3m1!4b1!4m5!3m4!1s0x3bc2ebab39307301:0x88983f3673bf887d!8m2!3d18.4655246!4d73.8481282",NA
27,Dharmaveer Mitra Mandal Ganpati Mandir,https://content.jdmagicbox.com/comp/mumbai/q6/020pxx20.xx20.191014211719.v9q6/catalogue/ajinkya-mitra-mandal-vadgaon-budruk-pune-temples-kn816979v7.jpg?clr=,Pune,Dhankawadi,,NA,"The festival celebrates Ganesha as the God of New Beginnings and the Remover of Obstacles as well as the god of wisdom and intelligence and is observed throughout India, especially in the states such as Tamil Nadu, Maharashtra, Karnataka, Kerala, Andhra Pradesh and Goa.It is believed that devotees who pray to Ganesha are able to fulfil their wishes and desires. So, the main essence of Ganesh Chaturthi is that devotees who pray to him are set free of sins and it leads them on the path of knowledge and wisdom.","32/15/3, Shiv Colony, Dhankawadi, Pune, Maharashtra 411046","18.456447116939323, 73.84875730836649","https://www.google.com/maps/place/Dharmaveer+Mitra+Mandal+Ganpati+Mandir/@18.4563899,73.8481511,19z/data=!3m1!4b1!4m5!3m4!1s0x3bc2eac9714b6833:0x2e56e9f8dba3829c!8m2!3d18.4563995!4d73.8487366",NA
28,Azad Mitra Mandal,https://images.hindustantimes.com/rf/image_size_640x362/HT/p2/2018/09/19/Pictures/ht-pune_ac58d986-bbf9-11e8-aa2b-bfb0450a5721.JPG,Pune,Katraj,,NA,"The festival celebrates Ganesha as the God of New Beginnings and the Remover of Obstacles as well as the god of wisdom and intelligence and is observed throughout India, especially in the states such as Tamil Nadu, Maharashtra, Karnataka, Kerala, Andhra Pradesh and Goa.It is believed that devotees who pray to Ganesha are able to fulfil their wishes and desires. So, the main essence of Ganesh Chaturthi is that devotees who pray to him are set free of sins and it leads them on the path of knowledge and wisdom.","Sr. No. 70/1/1A/20/4, Azad Mitra Mandal, Lane No. 1, near Santoshi Mata Temple, Santosh Nagar, Katraj, Pune, 411046","18.443703651439755, 73.85621870711087","https://www.google.com/maps/place/Azad+Mitra+Mandal/@18.4451463,73.8553819,18z/data=!4m9!1m2!2m1!1sSr.+No.+70%2F1%2F1A%2F20%2F4,+Azad+Mitra+Mandal,+Lane+No.+1,+near+Santoshi+Mata+Temple,+Santosh+Nagar,+Katraj,+Pune,+411046!3m5!1s0x3bc2eada297a1aa5:0x76834337066e00ea!8m2!3d18.4436043!4d73.856214!15sCnNTci4gTm8uIDcwLzEvMUEvMjAvNCwgQXphZCBNaXRyYSBNYW5kYWwsIExhbmUgTm8uIDEsIG5lYXIgU2FudG9zaGkgTWF0YSBUZW1wbGUsIFNhbnRvc2ggTmFnYXIsIEthdHJhaiwgUHVuZSwgNDExMDQ2WmsiaXNyIG5vIDcwIDEgMWEgMjAgNCBhemFkIG1pdHJhIG1hbmRhbCBsYW5lIG5vIDEgbmVhciBzYW50b3NoaSBtYXRhIHRlbXBsZSBzYW50b3NoIG5hZ2FyIGthdHJhaiBwdW5lIDQxMTA0NpIBDGhpbmR1X3RlbXBsZZoBI0NoWkRTVWhOTUc5blMwVkpRMEZuU1VSUmR6UkVTMWhCRUFF4AEA",NA
29,Bharat Nagar Mitra Mandal (GANESH TEMPLE),https://lh3.googleusercontent.com/p/AF1QipNhPmYOoW4Mt_B_I1JzdaxEYzUhWdKPal58GE9z=s1600-w400,Pune,Katraj,,NA,"The festival celebrates Ganesha as the God of New Beginnings and the Remover of Obstacles as well as the god of wisdom and intelligence and is observed throughout India, especially in the states such as Tamil Nadu, Maharashtra, Karnataka, Kerala, Andhra Pradesh and Goa.It is believed that devotees who pray to Ganesha are able to fulfil their wishes and desires. So, the main essence of Ganesh Chaturthi is that devotees who pray to him are set free of sins and it leads them on the path of knowledge and wisdom.","CVM8+6V3, Sundar nagar, Katraj, Pune, Maharashtra 411046","18.433027755039646, 73.86717189678069","https://www.google.com/maps/place/7JCMCVM8%2B6V3/@18.4330176,73.8649832,17z/data=!3m1!4b1!4m5!3m4!1s0x0:0xf7d0a4d21b5bafd!8m2!3d18.4330125!4d73.8671719",NA
30,Ganesh mandir lane no 5,https://www.revv.co.in/blogs/wp-content/uploads/2020/05/ganesh-chaturthi.jpeg,Pune,Kondhwa,,NA,"The festival celebrates Ganesha as the God of New Beginnings and the Remover of Obstacles as well as the god of wisdom and intelligence and is observed throughout India, especially in the states such as Tamil Nadu, Maharashtra, Karnataka, Kerala, Andhra Pradesh and Goa.It is believed that devotees who pray to Ganesha are able to fulfil their wishes and desires. So, the main essence of Ganesh Chaturthi is that devotees who pray to him are set free of sins and it leads them on the path of knowledge and wisdom.","Lane no 5 , Sr no 3 Ganesh mandir Dharmaveer shambhu raje mitra mandal, Laxmi Nagar, Kondhwa Budruk, Pune, Maharashtra 411048","18.459478662905894, 73.88578606979317","https://www.google.com/maps/place/Ganesh+mandir+lane+no+5/@18.4593413,73.883533,17z/data=!3m1!4b1!4m5!3m4!1s0x3bc2eb3445e67ff3:0xf70844f2c476465c!8m2!3d18.4593518!4d73.885803",NA
31,Kalyani Nagar Mitra Mandal Shri Ganesh Mandir,https://images.jdmagicbox.com/comp/pune/y9/020pxx20.xx20.181203191233.k7y9/catalogue/siddhivinayak-ganapati-mandir-yerawada-pune-temples-q8htcfbj14.jpg?clr=,Pune,Kalyani Nagar,,NA,"The festival celebrates Ganesha as the God of New Beginnings and the Remover of Obstacles as well as the god of wisdom and intelligence and is observed throughout India, especially in the states such as Tamil Nadu, Maharashtra, Karnataka, Kerala, Andhra Pradesh and Goa.It is believed that devotees who pray to Ganesha are able to fulfil their wishes and desires. So, the main essence of Ganesh Chaturthi is that devotees who pray to him are set free of sins and it leads them on the path of knowledge and wisdom.","GWW2+PM7, Opposite, Pluto Society, Nilanjali Society, Kalyani Nagar, behind PMC ground, Pune, 411006","18.547001591402086, 73.9017523986298","https://www.google.com/maps/place/Kalyani+Nagar+Mitra+Mandal+Shri+Ganesh+Mandir/@18.5467931,73.8994886,17z/data=!3m1!4b1!4m5!3m4!1s0x3bc2c1106d1c4ae7:0x1837d77bf3d90734!8m2!3d18.546788!4d73.9016773",NA
32,Dhole Patil Ganpati Mandir (Tarun Vikas Mandal),https://encrypted-tbn0.gstatic.com/images?q=tbn:ANd9GcTwu3B0Y1MDgObROwuFfnTez002r2lQ1zAj0g&usqp=CAU,Pune,Sangamvadi,,NA,"The festival celebrates Ganesha as the God of New Beginnings and the Remover of Obstacles as well as the god of wisdom and intelligence and is observed throughout India, especially in the states such as Tamil Nadu, Maharashtra, Karnataka, Kerala, Andhra Pradesh and Goa.It is believed that devotees who pray to Ganesha are able to fulfil their wishes and desires. So, the main essence of Ganesh Chaturthi is that devotees who pray to him are set free of sins and it leads them on the path of knowledge and wisdom.","Dhole Patil Rd, Sangamvadi, Pune, Maharashtra 411001","18.535060183005935, 73.87668721027607","https://www.google.com/maps/place/Dhole+Patil+Rd,+Sangamvadi,+Pune,+Maharashtra+411001/@18.5349534,73.8745307,17z/data=!3m1!4b1!4m5!3m4!1s0x3bc2c0f779fbdfc7:0x12b8da6e9e7ca0d0!8m2!3d18.5349483!4d73.8767194",NA
33,Uday Vikas Mitra Mandal Ganesh Mandir,https://images.unsplash.com/photo-1599521318879-0fe35e838760?ixlib=rb-1.2.1&ixid=MnwxMjA3fDB8MHxzZWFyY2h8MTR8fGdhbnBhdGl8ZW58MHx8MHx8&auto=format&fit=crop&w=500&q=60,Pune,Khadki,,NA,"The festival celebrates Ganesha as the God of New Beginnings and the Remover of Obstacles as well as the god of wisdom and intelligence and is observed throughout India, especially in the states such as Tamil Nadu, Maharashtra, Karnataka, Kerala, Andhra Pradesh and Goa.It is believed that devotees who pray to Ganesha are able to fulfil their wishes and desires. So, the main essence of Ganesh Chaturthi is that devotees who pray to him are set free of sins and it leads them on the path of knowledge and wisdom.","34, Mumbai-Pune Road, Gopi Chawl, Bopodi, Khadki, Pune, Maharashtra 411003","18.567973820015496, 73.83905581187648","https://www.google.com/maps/search/34,+Mumbai-Pune+Road,+Gopi+Chawl,+Bopodi,+Khadki,+Pune,+Maharashtra+411003/@18.566255,73.8322323,16z/data=!3m1!4b1",NA
34,Shivdatta Ganesh Mandal Aundh,https://images.unsplash.com/photo-1599521318879-0fe35e838760?ixlib=rb-1.2.1&ixid=MnwxMjA3fDB8MHxzZWFyY2h8MTR8fGdhbnBhdGl8ZW58MHx8MHx8&auto=format&fit=crop&w=500&q=60,Pune,Aundh,,NA,"The festival celebrates Ganesha as the God of New Beginnings and the Remover of Obstacles as well as the god of wisdom and intelligence and is observed throughout India, especially in the states such as Tamil Nadu, Maharashtra, Karnataka, Kerala, Andhra Pradesh and Goa.It is believed that devotees who pray to Ganesha are able to fulfil their wishes and desires. So, the main essence of Ganesh Chaturthi is that devotees who pray to him are set free of sins and it leads them on the path of knowledge and wisdom.","HR65+5C7, Shivdatta Ganesh Mandir Parihar Chowk, Aundh, Pune, Maharashtra 411007","18.560645645134944, 73.80874634465435","https://www.google.com/maps/place/Shivdatta+Ganesh+Mandal+Aundh/@18.560427,73.8063538,17z/data=!3m1!4b1!4m5!3m4!1s0x3bc2bf307699f47b:0x73b1a6e6bf1aa854!8m2!3d18.5604071!4d73.8085435",NA
35,Navjivan Samaj Seva Mandal Ganpati Mandir,https://images.unsplash.com/photo-1599521318879-0fe35e838760?ixlib=rb-1.2.1&ixid=MnwxMjA3fDB8MHxzZWFyY2h8MTR8fGdhbnBhdGl8ZW58MHx8MHx8&auto=format&fit=crop&w=500&q=60,Pune,Shivaji nagar,,NA,"The festival celebrates Ganesha as the God of New Beginnings and the Remover of Obstacles as well as the god of wisdom and intelligence and is observed throughout India, especially in the states such as Tamil Nadu, Maharashtra, Karnataka, Kerala, Andhra Pradesh and Goa.It is believed that devotees who pray to Ganesha are able to fulfil their wishes and desires. So, the main essence of Ganesh Chaturthi is that devotees who pray to him are set free of sins and it leads them on the path of knowledge and wisdom.","101, Old Mumbai - Pune Hwy, Sphurti Society, Wakadewadi, Shivajinagar, Pune, Maharashtra 411003","18.54461604340419, 73.85114053030529","https://www.google.com/maps/place/Navjivan+Samaj+Seva+Mandal+Ganpati+Mandir/@18.5444467,73.8485888,16.75z/data=!4m5!3m4!1s0x3bc2c09a518dcf5f:0x30e237dc516161e!8m2!3d18.5443678!4d73.8511327",NA
36,Chivhe Aali Ganesh Mitra Mandal,https://images.unsplash.com/photo-1599521318879-0fe35e838760?ixlib=rb-1.2.1&ixid=MnwxMjA3fDB8MHxzZWFyY2h8MTR8fGdhbnBhdGl8ZW58MHx8MHx8&auto=format&fit=crop&w=500&q=60,Pune,Mahalunge,,NA,"The festival celebrates Ganesha as the God of New Beginnings and the Remover of Obstacles as well as the god of wisdom and intelligence and is observed throughout India, especially in the states such as Tamil Nadu, Maharashtra, Karnataka, Kerala, Andhra Pradesh and Goa.It is believed that devotees who pray to Ganesha are able to fulfil their wishes and desires. So, the main essence of Ganesh Chaturthi is that devotees who pray to him are set free of sins and it leads them on the path of knowledge and wisdom.","HQG3+6RP, Mahalunge, Pune, Maharashtra 411045","18.575783481068505, 73.7546359897467","https://www.google.com/maps/place/Chivhe+Aali+Ganesh+Mitra+Mandal/@18.5755903,73.7503659,17z/data=!3m1!4b1!4m5!3m4!1s0x3bc2b9a54a8d7201:0xc6b50d0a5fa495c!8m2!3d18.5755903!4d73.7545931",NA
37,GURUDATTA MITRA MANDAL,https://images.unsplash.com/photo-1599521318879-0fe35e838760?ixlib=rb-1.2.1&ixid=MnwxMjA3fDB8MHxzZWFyY2h8MTR8fGdhbnBhdGl8ZW58MHx8MHx8&auto=format&fit=crop&w=500&q=60,Pune,Alandi,,NA,"The festival celebrates Ganesha as the God of New Beginnings and the Remover of Obstacles as well as the god of wisdom and intelligence and is observed throughout India, especially in the states such as Tamil Nadu, Maharashtra, Karnataka, Kerala, Andhra Pradesh and Goa.It is believed that devotees who pray to Ganesha are able to fulfil their wishes and desires. So, the main essence of Ganesh Chaturthi is that devotees who pray to him are set free of sins and it leads them on the path of knowledge and wisdom.","MVCR+JJJ, Vishweshwar Nagar, Dehu Phata, Maharashtra 412105","18.671912076222092, 73.89157286936207","https://www.google.com/maps/place/GURUDATTA+MITRA+MANDAL/@18.671597,73.8893198,17z/data=!3m1!4b1!4m5!3m4!1s0x3bc2c96aadbb2dc3:0x3c7b0aa7eecbf308!8m2!3d18.6716424!4d73.8915299",NA
38,Deepjot Mitra Mandal Ganpati Temple,https://images.unsplash.com/photo-1599521318879-0fe35e838760?ixlib=rb-1.2.1&ixid=MnwxMjA3fDB8MHxzZWFyY2h8MTR8fGdhbnBhdGl8ZW58MHx8MHx8&auto=format&fit=crop&w=500&q=61,Pune,Hadapsar,,NA,"The festival celebrates Ganesha as the God of New Beginnings and the Remover of Obstacles as well as the god of wisdom and intelligence and is observed throughout India, especially in the states such as Tamil Nadu, Maharashtra, Karnataka, Kerala, Andhra Pradesh and Goa.It is believed that devotees who pray to Ganesha are able to fulfil their wishes and desires. So, the main essence of Ganesh Chaturthi is that devotees who pray to him are set free of sins and it leads them on the path of knowledge and wisdom.","GX58+J2, Deepak Nagar, Hadapsar, Pune, Maharashtra 412307","18.50928629080671, 73.96506015401712","https://www.google.com/maps/place/Deepjot+Mitra+Mandal+Ganpati+Temple/@18.509093,73.96285,17z/data=!3m1!4b1!4m5!3m4!1s0x3bc2c3c53f80553d:0x6643021a6cb84649!8m2!3d18.509093!4d73.9650387",NA
39,Subhash Tarun Mitra Mandal Ganpati mandir,https://images.unsplash.com/photo-1599521318879-0fe35e838760?ixlib=rb-1.2.1&ixid=MnwxMjA3fDB8MHxzZWFyY2h8MTR8fGdhbnBhdGl8ZW58MHx8MHx8&auto=format&fit=crop&w=500&q=62,Pune,Rasta Peth,,NA,"The festival celebrates Ganesha as the God of New Beginnings and the Remover of Obstacles as well as the god of wisdom and intelligence and is observed throughout India, especially in the states such as Tamil Nadu, Maharashtra, Karnataka, Kerala, Andhra Pradesh and Goa.It is believed that devotees who pray to Ganesha are able to fulfil their wishes and desires. So, the main essence of Ganesh Chaturthi is that devotees who pray to him are set free of sins and it leads them on the path of knowledge and wisdom.","GV98+8P7, Porwal Metallica, Rasta Peth, Pune, Maharashtra 411002","18.518478972721766, 73.86674985905505","https://www.google.com/maps/place/Subhash+Tarun+Mitra+Mandal+Ganpati+mandir/@18.5182959,73.8625656,17z/data=!3m1!4b1!4m5!3m4!1s0x3bc2c042b8f269f5:0xe1043b5f1d0b4043!8m2!3d18.5182972!4d73.8667928",NA
40,Naidu Ganpati Mandal,https://images.unsplash.com/photo-1599521318879-0fe35e838760?ixlib=rb-1.2.1&ixid=MnwxMjA3fDB8MHxzZWFyY2h8MTR8fGdhbnBhdGl8ZW58MHx8MHx8&auto=format&fit=crop&w=500&q=63,Pune,Rasta Peth,,NA,"The festival celebrates Ganesha as the God of New Beginnings and the Remover of Obstacles as well as the god of wisdom and intelligence and is observed throughout India, especially in the states such as Tamil Nadu, Maharashtra, Karnataka, Kerala, Andhra Pradesh and Goa.It is believed that devotees who pray to Ganesha are able to fulfil their wishes and desires. So, the main essence of Ganesh Chaturthi is that devotees who pray to him are set free of sins and it leads them on the path of knowledge and wisdom.","359, Porwal Metallica, Rasta Peth, Pune, Maharashtra 411011","18.51884417787654, 73.86668672514539","https://www.google.com/maps/place/Naidu+Ganpati+Mandal/@18.5187639,73.8649375,18z/data=!4m9!1m2!2m1!1s359,+Porwal+Metallica,+Rasta+Peth,+Pune,+Maharashtra+411011!3m5!1s0x3bc2c042b691e295:0x8741cde603ab3615!8m2!3d18.5187638!4d73.8666696!15sCjszNTksIFBvcndhbCBNZXRhbGxpY2EsIFJhc3RhIFBldGgsIFB1bmUsIE1haGFyYXNodHJhIDQxMTAxMVo5IjczNTkgcG9yd2FsIG1ldGFsbGljYSByYXN0YSBwZXRoIHB1bmUgbWFoYXJhc2h0cmEgNDExMDExkgEMaGluZHVfdGVtcGxlmgEkQ2hkRFNVaE5NRzluUzBWSlEwRm5TVU5qT0ZCVFRIRm5SUkFC4AEA",NA
41,Anand Park Mitra mandal Ganpati temple,https://images.unsplash.com/photo-1599521318879-0fe35e838760?ixlib=rb-1.2.1&ixid=MnwxMjA3fDB8MHxzZWFyY2h8MTR8fGdhbnBhdGl8ZW58MHx8MHx8&auto=format&fit=crop&w=500&q=64,Pimpri-chinchwad,Thergaon,,NA,"The festival celebrates Ganesha as the God of New Beginnings and the Remover of Obstacles as well as the god of wisdom and intelligence and is observed throughout India, especially in the states such as Tamil Nadu, Maharashtra, Karnataka, Kerala, Andhra Pradesh and Goa.It is believed that devotees who pray to Ganesha are able to fulfil their wishes and desires. So, the main essence of Ganesh Chaturthi is that devotees who pray to him are set free of sins and it leads them on the path of knowledge and wisdom.","Unnamed Road Anand park, Thergaon, Pimpri-Chinchwad, Maharashtra 411033",,"https://www.google.co.in/maps/place/Anand+Park+Mitra+mandal+Ganpati+temple/@18.6169967,73.7673762,17z/data=!3m1!4b1!4m5!3m4!1s0x3bc2b99fa15ec74f:0xabe10922999eaf12!8m2!3d18.6169949!4d73.7695349?hl=en",NA
42,Suvarnayug mitra Mandal Ganapati Mandir,https://images.unsplash.com/photo-1599521318879-0fe35e838760?ixlib=rb-1.2.1&ixid=MnwxMjA3fDB8MHxzZWFyY2h8MTR8fGdhbnBhdGl8ZW58MHx8MHx8&auto=format&fit=crop&w=500&q=65,Pimpri-chinchwad,Nigdi,,NA,"The festival celebrates Ganesha as the God of New Beginnings and the Remover of Obstacles as well as the god of wisdom and intelligence and is observed throughout India, especially in the states such as Tamil Nadu, Maharashtra, Karnataka, Kerala, Andhra Pradesh and Goa.It is believed that devotees who pray to Ganesha are able to fulfil their wishes and desires. So, the main essence of Ganesh Chaturthi is that devotees who pray to him are set free of sins and it leads them on the path of knowledge and wisdom.","226, Sector 27A, Pradhikaran, Nigdi, Pimpri-Chinchwad, Maharashtra 411044","18.650845053501556, 73.77645492306993","https://www.google.co.in/maps/place/Suvarnayug+mitra+Mandal+Ganapati+Mandir/@18.6502351,73.7386894,14z/data=!4m9!1m2!2m1!1sSuvarnayug+mitra+Mandal+Ganapati+Mandir!3m5!1s0x3bc2b9dd5ea8e2d1:0x96f01434f482d465!8m2!3d18.6502364!4d73.7716494!15sCidTdXZhcm5heXVnIG1pdHJhIE1hbmRhbCBHYW5hcGF0aSBNYW5kaXKSAQxoaW5kdV90ZW1wbGXgAQA?hl=en",NA
43,Shivganesh Mitra Mandal Trust,https://images.unsplash.com/photo-1599521318879-0fe35e838760?ixlib=rb-1.2.1&ixid=MnwxMjA3fDB8MHxzZWFyY2h8MTR8fGdhbnBhdGl8ZW58MHx8MHx8&auto=format&fit=crop&w=500&q=66,Pimpri-chinchwad,Akurdi,,NA,"The festival celebrates Ganesha as the God of New Beginnings and the Remover of Obstacles as well as the god of wisdom and intelligence and is observed throughout India, especially in the states such as Tamil Nadu, Maharashtra, Karnataka, Kerala, Andhra Pradesh and Goa.It is believed that devotees who pray to Ganesha are able to fulfil their wishes and desires. So, the main essence of Ganesh Chaturthi is that devotees who pray to him are set free of sins and it leads them on the path of knowledge and wisdom.","JQWH+P8H, Ganga Nagar Rd, panchatara Nagar, Jijanagar, Ganga Nagar, Akurdi, Pimpri-Chinchwad, Maharashtra 411035","18.647021200261868, 73.77936683614283","https://www.google.co.in/maps/place/Shivganesh+Mitra+Mandal+Trust/@18.646823,73.7761589,17z/data=!3m1!4b1!4m5!3m4!1s0x3bc2b9c461fd2143:0xaa5fd5dca727872b!8m2!3d18.6468455!4d73.7783684?hl=en",NA
44,Nilkanteshwar,https://images.unsplash.com/photo-1599521318879-0fe35e838760?ixlib=rb-1.2.1&ixid=MnwxMjA3fDB8MHxzZWFyY2h8MTR8fGdhbnBhdGl8ZW58MHx8MHx8&auto=format&fit=crop&w=500&q=67,Pimpri-chinchwad,Akurdi,,NA,"The festival celebrates Ganesha as the God of New Beginnings and the Remover of Obstacles as well as the god of wisdom and intelligence and is observed throughout India, especially in the states such as Tamil Nadu, Maharashtra, Karnataka, Kerala, Andhra Pradesh and Goa.It is believed that devotees who pray to Ganesha are able to fulfil their wishes and desires. So, the main essence of Ganesh Chaturthi is that devotees who pray to him are set free of sins and it leads them on the path of knowledge and wisdom.","Rupesh Colony, Dattawadi, Akurdi, Pimpri-Chinchwad, Maharashtra 411035","18.655733750801108, 73.77941452870327","https://www.google.co.in/maps/place/%E0%A4%A8%E0%A4%BF%E0%A4%B3%E0%A4%95%E0%A4%82%E0%A4%A0%E0%A5%87%E0%A4%B6%E0%A5%8D%E0%A4%B0%E0%A5%8D%E0%A4%B5%E0%A4%B0+%E0%A4%AE%E0%A4%BF%E0%A4%A4%E0%A5%8D%E0%A4%B0+%E0%A4%AE%E0%A4%82%E0%A4%A1%E0%A4%B3+(%E0%A4%AE%E0%A4%BE%E0%A4%A8%E0%A4%BE%E0%A4%9A%E0%A4%BE+%E0%A4%97%E0%A4%A3%E0%A4%AA%E0%A4%A4%E0%A5%80)+%E0%A4%AA%E0%A5%8D%E0%A4%B0%E0%A4%A3%E0%A4%BF%E0%A4%A4+%E0%A4%A1%E0%A4%BF%E0%A4%AB%E0%A5%87%E0%A4%82%E0%A4%A1%E0%A4%B0+%E0%A4%B8%E0%A5%8D%E0%A4%AA%E0%A5%8B%E0%A4%B0%E0%A5%8D%E0%A4%9F%E0%A4%B8+%E0%A4%95%E0%A5%8D%E0%A4%B2%E0%A4%AC,/@18.624422,73.7541204,13z/data=!4m9!1m2!2m1!1sRupesh+Colony,+Dattawadi,+Akurdi,+Pimpri-Chinchwad,+Maharashtra+411035!3m5!1s0x3bc2b9dbfa419b13:0x234ef0b26c4acdfe!8m2!3d18.6549722!4d73.7785873!15sCkZSdXBlc2ggQ29sb255LCBEYXR0YXdhZGksIEFrdXJkaSwgUGltcHJpLUNoaW5jaHdhZCwgTWFoYXJhc2h0cmEgNDExMDM1kgEMaGluZHVfdGVtcGxl4AEA?hl=en",NA
45,Dakshata Siddhivinayak Ganpati Mandir,https://images.unsplash.com/photo-1599521318879-0fe35e838760?ixlib=rb-1.2.1&ixid=MnwxMjA3fDB8MHxzZWFyY2h8MTR8fGdhbnBhdGl8ZW58MHx8MHx8&auto=format&fit=crop&w=500&q=68,Pimpri-chinchwad,Talwade,,NA,"The festival celebrates Ganesha as the God of New Beginnings and the Remover of Obstacles as well as the god of wisdom and intelligence and is observed throughout India, especially in the states such as Tamil Nadu, Maharashtra, Karnataka, Kerala, Andhra Pradesh and Goa.It is believed that devotees who pray to Ganesha are able to fulfil their wishes and desires. So, the main essence of Ganesh Chaturthi is that devotees who pray to him are set free of sins and it leads them on the path of knowledge and wisdom.","MQFJ+C4R, Rashtrabhushan Housing Society Rupeenagar, Post Office Road, Dakshata Tarun Mandal, Talwade, Pimpri-Chinchwad, Maharashtra 412114","18.701989822401313, 73.86826342639334","https://www.google.co.in/maps/place/Dakshata+Siddhivinayak+Ganpati+Mandir/@18.8456649,73.0250628,10z/data=!4m9!1m2!2m1!1sDakshata+Siddhivinayak+Ganpati+Mandir!3m5!1s0x3bc2b7630ebf625d:0xd74876d085e2d92!8m2!3d18.6736228!4d73.7802828!15sCiVEYWtzaGF0YSBTaWRkaGl2aW5heWFrIEdhbnBhdGkgTWFuZGlykgEMaGluZHVfdGVtcGxl4AEA?hl=en",NA
46,Navjyot Ganesh Mitra Mandal,https://images.unsplash.com/photo-1599521318879-0fe35e838760?ixlib=rb-1.2.1&ixid=MnwxMjA3fDB8MHxzZWFyY2h8MTR8fGdhbnBhdGl8ZW58MHx8MHx8&auto=format&fit=crop&w=500&q=69,Pimpri-chinchwad,Bhosari,,NA,"The festival celebrates Ganesha as the God of New Beginnings and the Remover of Obstacles as well as the god of wisdom and intelligence and is observed throughout India, especially in the states such as Tamil Nadu, Maharashtra, Karnataka, Kerala, Andhra Pradesh and Goa.It is believed that devotees who pray to Ganesha are able to fulfil their wishes and desires. So, the main essence of Ganesh Chaturthi is that devotees who pray to him are set free of sins and it leads them on the path of knowledge and wisdom.","Sr. No. 212/1/18, Dighi Rd, near Gayatri Travels, Adarsh Nagar, Bhosari, Pimpri-Chinchwad, Maharashtra 411039","18.62108326250411, 73.85361586923416","https://www.google.co.in/maps/place/Navjyot+Ganesh+Mitra+Mandal/@18.6209257,73.8508049,17z/data=!3m1!4b1!4m5!3m4!1s0x3bc2c7781ab5c52f:0x784086e384dd9332!8m2!3d18.6209451!4d73.8530004?hl=en",NA
47,Om Sai Mitra Mandal Saswad,https://images.unsplash.com/photo-1599521318879-0fe35e838760?ixlib=rb-1.2.1&ixid=MnwxMjA3fDB8MHxzZWFyY2h8MTR8fGdhbnBhdGl8ZW58MHx8MHx8&auto=format&fit=crop&w=500&q=70,Saswad,Sopan Nagar,,NA,"The festival celebrates Ganesha as the God of New Beginnings and the Remover of Obstacles as well as the god of wisdom and intelligence and is observed throughout India, especially in the states such as Tamil Nadu, Maharashtra, Karnataka, Kerala, Andhra Pradesh and Goa.It is believed that devotees who pray to Ganesha are able to fulfil their wishes and desires. So, the main essence of Ganesh Chaturthi is that devotees who pray to him are set free of sins and it leads them on the path of knowledge and wisdom.","922F+W95, Sopan Nagar, Saswad, Maharashtra 412301","18.352466150454852, 74.02344148143813","https://www.google.co.in/maps/place/7JCP922F%2BW95/@18.3522676,74.0212957,17z/data=!3m1!4b1!4m5!3m4!1s0x0:0x4e13e596f1bf7bbf!8m2!3d18.3522625!4d74.0234844?hl=en",NA
48,Amar ganesh utsav mandal,https://images.unsplash.com/photo-1599521318879-0fe35e838760?ixlib=rb-1.2.1&ixid=MnwxMjA3fDB8MHxzZWFyY2h8MTR8fGdhbnBhdGl8ZW58MHx8MHx8&auto=format&fit=crop&w=500&q=71,Saswad,Sopan Nagar,,NA,"The festival celebrates Ganesha as the God of New Beginnings and the Remover of Obstacles as well as the god of wisdom and intelligence and is observed throughout India, especially in the states such as Tamil Nadu, Maharashtra, Karnataka, Kerala, Andhra Pradesh and Goa.It is believed that devotees who pray to Ganesha are able to fulfil their wishes and desires. So, the main essence of Ganesh Chaturthi is that devotees who pray to him are set free of sins and it leads them on the path of knowledge and wisdom.","82VH+VPC, Amar Chowk, Saswad, Maharashtra 412301","18.37019144245801, 74.11014958456133","https://www.google.co.in/maps/place/%E0%A4%85%E0%A4%AE%E0%A4%B0+%E0%A4%97%E0%A4%A3%E0%A5%87%E0%A4%B6+%E0%A4%89%E0%A4%A4%E0%A5%8D%E0%A4%B8%E0%A4%B5+%E0%A4%AE%E0%A4%82%E0%A4%A1%E0%A4%B3+%E0%A4%9F%E0%A5%8D%E0%A4%B0%E0%A4%B8%E0%A5%8D%E0%A4%9F/@18.1001966,73.3630793,9z/data=!4m9!1m2!2m1!1sAmar+ganesh+utsav+mandal!3m5!1s0x3bc2efa629a74d2f:0x42a4688f5aa6501!8m2!3d18.3446988!4d74.0292611!15sChhBbWFyIGdhbmVzaCB1dHNhdiBtYW5kYWySAQxoaW5kdV90ZW1wbGXgAQA?hl=en",NA
49,Akhil Bhaji Mandai Ganeshotshav,https://images.unsplash.com/photo-1599521318879-0fe35e838760?ixlib=rb-1.2.1&ixid=MnwxMjA3fDB8MHxzZWFyY2h8MTR8fGdhbnBhdGl8ZW58MHx8MHx8&auto=format&fit=crop&w=500&q=72,Satara,Malhar Peth,,NA,"The festival celebrates Ganesha as the God of New Beginnings and the Remover of Obstacles as well as the god of wisdom and intelligence and is observed throughout India, especially in the states such as Tamil Nadu, Maharashtra, Karnataka, Kerala, Andhra Pradesh and Goa.It is believed that devotees who pray to Ganesha are able to fulfil their wishes and desires. So, the main essence of Ganesh Chaturthi is that devotees who pray to him are set free of sins and it leads them on the path of knowledge and wisdom.","MXPR+6CV, Budhwar Peth, Shaniwar Peth, Malhar Peth, Satara, Maharashtra 415002","17.74510198313484, 74.1293877119622","https://www.google.co.in/maps/place/Akhil+Bhaji+Mandai+Ganeshotshav+Mandal,+Satara./@18.0992042,73.3630914,9z/data=!4m9!1m2!2m1!1sAkhil+Bhaji+Mandai+Ganeshotshav!3m5!1s0x3bc239b942b5997d:0x702b014a5acb8ed7!8m2!3d17.6856122!4d73.9910564!15sCh9Ba2hpbCBCaGFqaSBNYW5kYWkgR2FuZXNob3RzaGF2kgEWcmVsaWdpb3VzX29yZ2FuaXphdGlvbuABAA?hl=en",NA
50,Samrat Ganpati Mandal,https://images.unsplash.com/photo-1599521318879-0fe35e838760?ixlib=rb-1.2.1&ixid=MnwxMjA3fDB8MHxzZWFyY2h8MTR8fGdhbnBhdGl8ZW58MHx8MHx8&auto=format&fit=crop&w=500&q=73,Satara,Malhar Peth,,NA,"The festival celebrates Ganesha as the God of New Beginnings and the Remover of Obstacles as well as the god of wisdom and intelligence and is observed throughout India, especially in the states such as Tamil Nadu, Maharashtra, Karnataka, Kerala, Andhra Pradesh and Goa.It is believed that devotees who pray to Ganesha are able to fulfil their wishes and desires. So, the main essence of Ganesh Chaturthi is that devotees who pray to him are set free of sins and it leads them on the path of knowledge and wisdom.","MXPR+2J3, Khan Ali, Budhwar Peth, Malhar Peth, Satara, Maharashtra 415002","17.704515939554348, 73.96897204046941","https://www.google.co.in/maps/place/Samrat+Ganpati+Mandal/@17.8228733,73.4993065,10z/data=!4m9!1m2!2m1!1sSamrat+Ganpati+Mandal!3m5!1s0x3bc2392628cf1dd5:0x683df2c9f278e5ce!8m2!3d17.6850008!4d73.9915486!15sChVTYW1yYXQgR2FucGF0aSBNYW5kYWySAQhmZXN0aXZhbOABAA?hl=en",NA
51,Girgaoncha Raja Ganesh Mandal,https://imgmediagumlet.lbb.in/media/2019/09/5d6f4b23d2f78d2b8b66f095_1567574819247.jpg?fm=webp&w=750&h=500&dpr=1,Mumbai,Girgaon,Ambewadi,1928,"Located at Charni Road Railway Station, Girgaon Cha Raja is one of the most popular Ganesh Mandals of Mumbai city. It is famous as Girgaoncha Raja Ganpati that was founded by Ramchandra Tendulkar in 1938. The Ganesh idol of this mandal is eco-friendly and made of Shadu clay. The height of this year’s Ganesh idol is going to be 25 feet.","Address: XR3C+X97, Nikadwari Ln, Kotachi Wadi, Ambewadi, Girgaon, Mumbai, Maharashtra 400004","18.95487474597592, 72.82093609751902","https://www.google.com/maps/search/Address:+XR3C%2BX97,+Nikadwari+Ln,+Kotachi+Wadi,+Ambewadi,+Girgaon,+Mumbai,+Maharashtra+400004/@18.9553371,72.8184203,17z/data=!3m1!4b1",NA
52,Khetwadi cha Ganraj,https://upload.wikimedia.org/wikipedia/commons/5/5b/Khetwadicha_Ganraj.jpg,Mumbai,Khetwadi,12th lane,1959,"This award-winning Khetwadi Ganraj is supposed to be one among the most stunning Ganesh idols of Mumbai. This mandal was formed in 1959. The group came into limelight after 2000 on making the highest Ganesh idol in the history of India, which is 40 feet huge. One of the greatest appeals of the idol of Khetwadi Cha Ganraj is that there is a Ganesh idol in almost every lane of the area. In year 2018, Khetawadi Cha Ganraj Aagman Sohala date was 1st September.","Grant Road Khetwadi Back Road & 12th lane Sarvajanik Ganeshotsav Mandal 17, Cambhay House, Shop, No. 8, 12th Khetwadi Lane, Mumbai, Maharashtra 400004","18.960644474001008, 72.82122168217276","https://www.google.com/maps/place/18%C2%B057'38.3%22N+72%C2%B049'16.4%22E/@18.9606496,72.819033,17z/data=!3m1!4b1!4m5!3m4!1s0x0:0x25481aab175ef273!8m2!3d18.9606445!4d72.8212217",https://khetwadi-cha-ganraj.business.site/?utm_source=gmb&utm_medium=referral
53,"Lalbaugcha Raja Sarvajanik Ganeshotsav Mandal, Lalbaug",https://static.toiimg.com/photo/76725315.cms?imgsize=988502,Mumbai,Parel,Lal Baug,1934,"This one is the most popular and maximum visited Ganesh idol in Mumbai. The Ganesh Statue of Lalbaugcha Raja is comprised of a wonderful design that is patent protected. Located in Lalbaug Market of Central Mumbai, the idol garners huge media attention and almost 20 hours of time is taken in getting the glimpse of this. The idol draws an average of 1.5 million viewers daily as people simply believe that this Ganesh idol fulfills their wishes. There is a palatial theme while idol's throne is shaped like a huge owl. The idol's hands, stalk, and crown are decorated with gold. The idol is also decorated with a gold necklace, thread and ring. In year 2019, Lalbaugcha Raja is based on Chandrayan theme.","Putlabai Chawl, Lalbaug, Lal Baug, Parel, Mumbai, Maharashtra 400012","18.991023214040226, 72.83650285593046","https://www.google.com/maps/place/18%C2%B059'27.7%22N+72%C2%B050'11.4%22E/@18.9910283,72.8343142,17z/data=!3m1!4b1!4m5!3m4!1s0x0:0xa4d2ecd910a236d0!8m2!3d18.9910232!4d72.8365029",https://lalbaugcharaja.com/en/
54,Mumbai Cha Raja,"https://static.langimg.com/thumb/msid-76525559,imgsize-793503,width-540,height-405,resizemode-75/maharashtra-times.jpg",Mumbai,Parel,Ganesh Naga,1928,"The Mumbaicha Raja of Ganesh Galli (Lane) is situated only few lanes away from the Lalbaugcha Raja and is also very popular. This idol also pulls great crowds every year. This mandal is recognized for its sumptuous new themes every year, which is often the replica of a well-known place in India. This mandal is promoting eco-friendly Ganeshotsav by creating natural idol of Lord Ganesha that doesn’t create any disturbance for environment.","1, Ganesh Nagar Ln, Lal Baug, Parel, Mumbai, Maharashtra 400012","18.994119742463116, 72.83752199937611","https://www.google.com/maps/place/18%C2%B059'38.8%22N+72%C2%B050'15.1%22E/@18.9941248,72.8353333,17z/data=!3m1!4b1!4m5!3m4!1s0x0:0xe1d0e2184703aa8b!8m2!3d18.9941197!4d72.837522",http://www.mumbaicharaja.co/
55,Guru Ganesh Seva Mandal,https://files.prokerala.com/news/photos/imgs/1024/the-first-look-of-the-gsb-mandal-s-ganesh-idol-889635.jpg,Mumbai,Sion,Bhookailash Nagar,1951,"Ganesh idols of this group are the richest ones in Mumbai. This group sets their idol at King Circle, near Wadala. The remarkable Ganesh idol is not just beautiful but very expansive as well. It is also known as Gold Ganesh of Mumbai due to being created with more than 60 kg of Gold. It is an eco-friendly Ganesh idol of Mumbai. In this year, the idol features a silver stage and throne. They are also accepting silver and gold donations this year. This Ganesh statue remains only five days of the festival and one should see this as soon as possible.","2VW9+WHH, Bhookailash Nagar Near Sion Fort, Sion East, Sion, Mumbai, Maharashtra 400022","19.047343269953373, 72.86904291286703","https://www.google.com/maps/place/19%C2%B002'50.4%22N+72%C2%B052'08.6%22E/@19.0473484,72.8668542,17z/data=!3m1!4b1!4m5!3m4!1s0x0:0x5dcd17c16caf5b36!8m2!3d19.0473433!4d72.8690429",NA
56,Andheri cha Raja,https://i0.wp.com/hindupad.com/wp-content/uploads/Andheri-Cha-Raja-2019-4.jpg?fit=813%2C960&ssl=1,Mumbai,Andheri,Azad Nagar,1966,"Andhericha Raja has the same importance for the Mumbai suburbs what the Lalbaugcha Raja has for South Mumbai. The mandal was formed by the workers of three eminent companies in the year 1966. The idol of this mandal is not so huge but enjoys a reputation of fulfilling wishes. Every year, this mandal has different themes for their pandal. The theme of Andheri Cha Raja mandal 2018 will be of Shree Chintamani Temple, Theur. It is one of largest and most famous temples of Ashtavinayak trail.","4RHP+WH8, Azadnagar Sarvajanik Utsav Samiti, Ganesh Maidan, Azad Nagar II, Veera Desai Rd, Andheri West, Mumbai, Maharashtra 400053","19.129809959806064, 72.83645649752182","https://www.google.com/maps/place/19%C2%B007'47.3%22N+72%C2%B050'11.2%22E/@19.1298151,72.8342678,17z/data=!3m1!4b1!4m5!3m4!1s0x0:0x93dddf45655f6c2b!8m2!3d19.12981!4d72.8364565",http://www.andhericharaja.com/
57,"Raigad cha Raja, Raigad chowk",https://images.unsplash.com/photo-1599521318879-0fe35e838760?ixlib=rb-1.2.1&ixid=MnwxMjA3fDB8MHxzZWFyY2h8MTR8fGdhbnBhdGl8ZW58MHx8MHx8&auto=format&fit=crop&w=500&q=60,Mumbai,"Vikhroli, Kanwar Nagar",,1990,It has a lot of flora and fauna designs,"4WCR+34J, Mumbai, Kannamwar Nagar II, Vikhroli, Mumbai, Maharashtra 400083","19.124591709846186, 72.93888390144349","https://www.google.com/maps/place/19%C2%B007'28.5%22N+72%C2%B056'20.0%22E/@19.1245968,72.9366952,17z/data=!3m1!4b1!4m5!3m4!1s0x0:0x2478957ef8fc4bc7!8m2!3d19.1245917!4d72.9388839",NA
58,Mumbaitil Pahila Ganeshotsav,https://lh5.googleusercontent.com/p/AF1QipPpatRAWW2mbHHie353KfErjahp9aqJj1sBwOtB=w1080-k-no,Mumbai,Girgaon,Mangal Wadi,1893,"Started in 1893, the same year when Bal Gangadhar Tilak first celebrated Ganesh Chaturthi as a public festival, it is city’s first Sarvanajik Ganpati puja. The mandal is noted for its eco-friendly celebrations and small Ganesh idol. ","1, Gokhale Rd, Swami Samarth Nagar, Urankawadi, Mangal Wadi, Girgaon, Mumbai, Maharashtra 400004","18.95433667553952, 72.82207338217258","https://www.google.com/maps/place/18%C2%B057'15.6%22N+72%C2%B049'19.5%22E/@18.9543418,72.8198847,17z/data=!3m1!4b1!4m5!3m4!1s0x0:0xe8080dc1a34df185!8m2!3d18.9543367!4d72.8220734",NA
59,Fortcha Raja,https://live.staticflickr.com/1873/42908380840_80dbc6797b_b.jpg,Mumbai,Fort,Dwarkadas Ln,1962,"The festival celebrates Ganesha as the God of New Beginnings and the Remover of Obstacles as well as the god of wisdom and intelligence and is observed throughout India, especially in the states such as Tamil Nadu, Maharashtra, Karnataka, Kerala, Andhra Pradesh and Goa.It is believed that devotees who pray to Ganesha are able to fulfil their wishes and desires. So, the main essence of Ganesh Chaturthi is that devotees who pray to him are set free of sins and it leads them on the path of knowledge and wisdom.","Dwarkadas Ln, Borabazar Precinct, Ballard Estate, Fort, Mumbai, Maharashtra 400001","18.93756517962776, 72.8360738975188","https://www.google.com/maps/place/Fortcha+Raja/@18.9375297,72.8338852,17z/data=!3m1!4b1!4m5!3m4!1s0x3be7d1dbd7ddf8f3:0xd4f6d86f9090ce8e!8m2!3d18.9374937!4d72.8360764",NA
60,Balvir Fort,https://i0.wp.com/hindupad.com/wp-content/uploads/Balvir-Fort-2018-Ganpati-3-no-watermark.jpg?fit=638%2C960&ssl=1,Mumbai,Fort,Gola Ln,1968,"The festival celebrates Ganesha as the God of New Beginnings and the Remover of Obstacles as well as the god of wisdom and intelligence and is observed throughout India, especially in the states such as Tamil Nadu, Maharashtra, Karnataka, Kerala, Andhra Pradesh and Goa.It is believed that devotees who pray to Ganesha are able to fulfil their wishes and desires. So, the main essence of Ganesh Chaturthi is that devotees who pray to him are set free of sins and it leads them on the path of knowledge and wisdom.","WRPP+J4X, Gola Ln, Borabazar Precinct, Ballard Estate, Fort, Mumbai, Maharashtra 400001","18.936634635338752, 72.83535742635544","https://www.google.com/maps/place/Balvir+Fort+since.1968/@18.9366296,72.833158,17z/data=!3m1!4b1!4m5!3m4!1s0x3be7d1dbe4e535b3:0x87c91e69fe4af0f7!8m2!3d18.9366262!4d72.8353351",NA
61,Chinchpoklicha Chintamani,https://images.picxy.com/cache/2020/9/15/b4dceb3b4273e45676fb769ece018f73.jpg,Mumbai,Chinchpokli,Chinchpokli,1920,"Popularly known as Chinchpokli Cha Chintamani, Chinchpokli Cha Raja features huge idol of Lord Ganesha and its pandal is decorated amazingly. Around 60% of the money collected by the mandal is spent on social services initiatives throughout the year.","Chinchpokli, Mumbai, Maharashtra 400012","18.98813396729039, 72.8334059551929","https://www.google.com/maps/place/Chinchpoklicha+Chintamani/@18.9880985,72.8311958,17z/data=!3m1!4b1!4m5!3m4!1s0x3be7ce5f4f34cba3:0x96a40c1a8d703857!8m2!3d18.9880934!4d72.8333845",http://www.mazachintamani.com/
62,Mumbai Cha Peshwa Pandal,http://4.bp.blogspot.com/-e0lwunNdfQs/Vf_C7l7_jgI/AAAAAAAAHkc/lfzwTZ56zOw/s1600/Bal%2BGopal%2BMitra%2BMandal-%2BVile-parle%2BCha%2BPeshwa-2.JPG,Mumbai,Vile Parle,Navpada,2008,"The festival celebrates Ganesha as the God of New Beginnings and the Remover of Obstacles as well as the god of wisdom and intelligence and is observed throughout India, especially in the states such as Tamil Nadu, Maharashtra, Karnataka, Kerala, Andhra Pradesh and Goa.It is believed that devotees who pray to Ganesha are able to fulfil their wishes and desires. So, the main essence of Ganesh Chaturthi is that devotees who pray to him are set free of sins and it leads them on the path of knowledge and wisdom.","Siddhivinayak Housing Society, Shraddhanand Rd, Akash Kiran Society, Navpada, Vile Parle East, Vile Parle, Mumbai, Maharashtra 400057","19.093613587077833, 72.84503809752131","https://www.google.com/maps/place/Mumbai+Cha+Peshwa+Pandal/@19.0936187,72.8428494,17z/data=!3m1!4b1!4m5!3m4!1s0x3be7c9b1fd1b319f:0x731a06acb55b1382!8m2!3d19.0936136!4d72.8450381",https://www.instagram.com/mumbai_cha_peshwa_official/?hl=en
63,Kalachowkicha Mahaganpati,https://live.staticflickr.com/1882/30265971718_87b65cab2f_b.jpg,Mumbai,Kalachowki,Dattaram Lad Marg,1956,"The black and white era of the year 1956, the world of black and white of that time became colorful, spiritual, devotional and fragrant in our Kalachowki section with the installation of Mahaganapati. Many officials and activists who are working in the board today were not even born then, but some of the senior members of the board are still doing the conservation and cultivation of the seed planted in that time. The founding pioneer for the establishment of the board was the late activist Mr. Mr. Raghuram V. Shetty, T.V. Sawant, Shripat Baing, Shridhar Lad, Kai. D. R. Chavan, Chintaman Parab, Janardhan Kerkar, Nana Pawar, Satam Guruji, Pandurang Dalvi, Ramchandra Sheth, Basnak Sheth, Chandroji Chile, Baba Jetpal, Raghunath Dalvi, D. B. Sonawane, Sakharam Mane, Sahdev Narsale, Keshavrao Khandekar, Gajanan Gawde, Vitthal Shelar and Rajaram Akerkar Bhausaheb Angre, office bearers working in the board.","Swapnapurti A-33 , digvijay ghruha sankul, Dattaram Lad Marg, Kalachowki, Mumbai, Maharashtra 400033","18.988054687138476, 72.8369139110596","https://www.google.com/maps/place/Kalachowkicha+Mahaganpati/@18.9880598,72.8347574,17z/data=!3m1!4b1!4m5!3m4!1s0x3be7ce585d572f83:0x391de9aef1d6b09e!8m2!3d18.9880547!4d72.8369461",http://www.mahaganpati.in/
64,Kurla Cha Raja,https://i0.wp.com/hindupad.com/wp-content/uploads/Kurlyacha-Raja-2018-6-no-watermark.jpg?fit=621%2C960&ssl=1,Mumbai,Kurla,Subhash Nagar,NA,"The festival celebrates Ganesha as the God of New Beginnings and the Remover of Obstacles as well as the god of wisdom and intelligence and is observed throughout India, especially in the states such as Tamil Nadu, Maharashtra, Karnataka, Kerala, Andhra Pradesh and Goa.It is believed that devotees who pray to Ganesha are able to fulfil their wishes and desires. So, the main essence of Ganesh Chaturthi is that devotees who pray to him are set free of sins and it leads them on the path of knowledge and wisdom.","3V9H+556, New Mill Rd, Subhash Nagar, Kurla West, Kurla, Mumbai, Maharashtra 400070","19.067914387092554, 72.87788939757068","https://www.google.com/maps/place/Kurla+Cha+Raja/@19.0679195,72.8757007,17z/data=!3m1!4b1!4m5!3m4!1s0x3be7c8937e3bacfd:0xbfbac381685efcd!8m2!3d19.0679144!4d72.8778894",NA
65,Bhushan bhavan ganpati mandal,https://images.hindustantimes.com/rf/image_size_640x362/HT/p2/2017/08/24/Pictures/assignment-name-in-brief_517b69e2-888e-11e7-a194-d8b7abb7611c.jpg,Mumbai,Kurla,Kurla,NA,"The festival celebrates Ganesha as the God of New Beginnings and the Remover of Obstacles as well as the god of wisdom and intelligence and is observed throughout India, especially in the states such as Tamil Nadu, Maharashtra, Karnataka, Kerala, Andhra Pradesh and Goa.It is believed that devotees who pray to Ganesha are able to fulfil their wishes and desires. So, the main essence of Ganesh Chaturthi is that devotees who pray to him are set free of sins and it leads them on the path of knowledge and wisdom.","3VGM+573, Halav Pool, Ali Yavar Jung, Premier Colony, Kurla, Mumbai, Maharashtra 400070","19.07535916796627, 72.88315789678998","https://www.google.com/maps/place/Bhushan+bhavan+ganpati+mandal/@19.0753947,72.8809692,17z/data=!3m1!4b1!4m5!3m4!1s0x3be7c926f6a41817:0xbb7a415a32094026!8m2!3d19.0753815!4d72.8831587",NA
66,Shri Vighneshwar Mitra Mandal,https://s5-apac-cdn.ganpati.tv/dt/2020/1653404/vigneshwaray-mitra-mandal-ganpati-picture-1653404-7954.jpg,Mumbai,Kurla,,NA,,"2, CST Road, Ambedkar Nagar, Kurla West, Kurla, Mumbai, Maharashtra 400070","19.075659995996073, 72.88042151582462","https://www.google.com/maps/place/Shri+Vighneshwar+Mitra+Mandal,+Kurla/@19.0749502,72.8648432,15z/data=!4m9!1m2!2m1!1sShri+Vighneshwar+Mitra+Mandal!3m5!1s0x3be7c9d30d7c550b:0xfda9ff790921ba57!8m2!3d19.0749493!4d72.8787015!15sCh1TaHJpIFZpZ2huZXNod2FyIE1pdHJhIE1hbmRhbJIBFXJlbGlnaW91c19kZXN0aW5hdGlvbuABAA",
67,Siddhivinayak Temple ,https://images.hindustantimes.com/rf/image_size_960x540/HT/p2/2020/01/21/Pictures/plating-devotee-around-delhi-weighing-donated-gold_2f6fc288-3c2a-11ea-bfbd-f812f33ac46f.jpg,Mumbai,Dadar,Prabhadevi,1801,"The Shree Siddhivinayak Ganapati Mandir is a Hindu temple dedicated to Lord Shri Ganesh. It is located in Prabhadevi, Mumbai, Maharashtra, India.[1] It was originally built by Laxman Vithu and Deubai Patil on 19 November 1801. It is one of the richest temples in India.[2]

The temple has a small mandap with the shrine for Siddhi Vinayak (""Ganesha who grants your wish""). The wooden doors to the sanctum are carved with images of the Ashtavinayak (the eight manifestations of Ganesha in Maharashtra). The inner roof of the sanctum is plated with gold, and the central statue is of Ganesha. In the periphery, there is a Hanuman temple as well. The exterior of the temple consists of a dome which is lit up with multiple colors in the evenings and they keep changing every few hours. The statue of Shri Ganesha is located exactly under the dome. The pillars are carved out with the images of ashtvinayak.","SK Bole Marg, Prabhadevi, Mumbai, Maharashtra 400028","19.016794957256867, 72.83026112640655","https://www.google.com/maps/place/19%C2%B001'00.5%22N+72%C2%B049'48.9%22E/@19.0168001,72.8280724,17z/data=!3m1!4b1!4m5!3m4!1s0x0:0xc1f38d5d20b19cf5!8m2!3d19.016795!4d72.8302611",siddhivinayak.org
68,Akhil Chandanwadi Ganeshotsav Mandal,https://i0.wp.com/hindupad.com/wp-content/uploads/2014/08/Akhil-Chandanwadi-2014-Ganpati-1-no-watermark.jpg?w=616&h=962&ssl=1,Mumbai,Marine Line,Chandan Wadi Rd,1978,"The festival celebrates Ganesha as the God of New Beginnings and the Remover of Obstacles as well as the god of wisdom and intelligence and is observed throughout India, especially in the states such as Tamil Nadu, Maharashtra, Karnataka, Kerala, Andhra Pradesh and Goa.It is believed that devotees who pray to Ganesha are able to fulfil their wishes and desires. So, the main essence of Ganesh Chaturthi is that devotees who pray to him are set free of sins and it leads them on the path of knowledge and wisdom.","7, Chandan Wadi Rd, Kamathi Wada, Sonapur, Marine Lines, Mumbai, Maharashtra 400002","18.946329467831024, 72.82590833989566","https://www.google.com/maps/place/18%C2%B056'46.8%22N+72%C2%B049'33.3%22E/@18.9463346,72.8237196,17z/data=!3m1!4b1!4m5!3m4!1s0x0:0x956dbf92c18d9a1f!8m2!3d18.9463295!4d72.8259083",NA
69,Hukmil Lane Cha Raja,https://i0.wp.com/hindupad.com/wp-content/uploads/Hukmil-Lane-Cha-Raja-2019-1.jpg?fit=540%2C960&ssl=1,Mumbai,Parel,Shastri Nagar,2014,"The festival celebrates Ganesha as the God of New Beginnings and the Remover of Obstacles as well as the god of wisdom and intelligence and is observed throughout India, especially in the states such as Tamil Nadu, Maharashtra, Karnataka, Kerala, Andhra Pradesh and Goa.It is believed that devotees who pray to Ganesha are able to fulfil their wishes and desires. So, the main essence of Ganesh Chaturthi is that devotees who pray to him are set free of sins and it leads them on the path of knowledge and wisdom.","XRRJ+2HP, Hukmil Ln, Shastri Nagar, Adarsh Nagar, Lower Parel, Mumbai, Maharashtra 400011","18.990075100000002, 72.83136741702107","https://www.google.com/maps/place/18%C2%B059'24.3%22N+72%C2%B049'52.9%22E/@18.9900802,72.8291787,17z/data=!3m1!4b1!4m5!3m4!1s0x0:0x6a5bfff08fa3c421!8m2!3d18.9900751!4d72.8313674",NA
70,Abhyudayanagar cha raja,https://i0.wp.com/hindupad.com/wp-content/uploads/Abhyuday-Nagar-Cha-Raja-2020.jpg?resize=620%2C775&ssl=1,Mumbai,Parel,Jijamata Nagar,1956,"The festival celebrates Ganesha as the God of New Beginnings and the Remover of Obstacles as well as the god of wisdom and intelligence and is observed throughout India, especially in the states such as Tamil Nadu, Maharashtra, Karnataka, Kerala, Andhra Pradesh and Goa.It is believed that devotees who pray to Ganesha are able to fulfil their wishes and desires. So, the main essence of Ganesh Chaturthi is that devotees who pray to him are set free of sins and it leads them on the path of knowledge and wisdom.","XRQV+Q4Q, Jijamata Nagar, Kalachowki, Abhyudaya Nagar, Parel, Mumbai, Maharashtra 400033","18.989486727637892, 72.84288451410731","https://www.google.com/maps/place/18%C2%B059'22.2%22N+72%C2%B050'34.4%22E/@18.9894918,72.8406958,17z/data=!3m1!4b1!4m5!3m4!1s0x0:0x1aa0aedb64cc97a!8m2!3d18.9894867!4d72.8428845",NA
71,Balganesh Cha Baleshwar,https://i.pinimg.com/originals/06/31/08/06310877f160570652912593ba91f8b1.jpg,Mumbai,Parel,"Lal Baug,",NA,Bal ganeshcha ballaleshwar बाल गणेशचा बल्लाळेश्वर is ganpati mandal wich known for their big and beautiful ganpati Idol sita sadan's Ganpati wich named as Balganeshcha ballaleshvar thid ganpati pandal is also located near world famous ganpati mandal Lalbaugcha Raja Balganeshcha ballaleshwar is also known for their social work in 2018 their ganpati idol was based on education theme must visit mandal of ganpati baba during ganapati fastival in mumbai at lalbaug area,"XRQP+CXW, Lal Baug, Parel, Mumbai, Maharashtra 400033","18.98866551038729, 72.83741583223129","https://www.google.com/maps/place/18%C2%B059'19.2%22N+72%C2%B050'14.7%22E/@18.9886706,72.8352271,17z/data=!3m1!4b1!4m5!3m4!1s0x0:0x7c4e92edbdf1f6c5!8m2!3d18.9886655!4d72.8374158",NA
72,Vinayak Sadan Sarvajanik Ganeshutsav Mandal,https://encrypted-tbn0.gstatic.com/images?q=tbn:ANd9GcTMaDF-r3wgSmatBSJTAxB3CwxTGrGoXFbT0Q&usqp=CAU,Mumbai,Parel,Lower Parel,1984,"For the Purpose of Public Gathering, Lokmanya Tilak Started Public Celebration of Ganesh Chaturthi. On behalf of this ""VINAYAK SADAN"" established their mandal in the year 1984, is name of the popular Ganesh Idol of ""VINAYAK SADAN SARVAJANIK GANESHOTSAV MANDAL"" at its existing place.","2R4J+767, Near Deepak Talkies, Lower Parel, Mumbai, Maharashtra 400013","19.005995824695137, 72.83061855187","https://www.google.com/maps/place/19%C2%B000'21.6%22N+72%C2%B049'50.2%22E/@19.0060009,72.8284299,17z/data=!3m1!4b1!4m5!3m4!1s0x0:0xb9757b164369bc45!8m2!3d19.0059958!4d72.8306186",NA
73,"Prabhat Colony Sarvajanik Ganeshotsav Mandal, Gandhi Chowk",https://scontent.fbom36-1.fna.fbcdn.net/v/t1.6435-9/69668084_124243245608436_468475241438380032_n.jpg?_nc_cat=106&ccb=1-7&_nc_sid=8bfeb9&_nc_ohc=b-9-efCN_b8AX8qLfIz&_nc_ht=scontent.fbom36-1.fna&oh=00_AT_6YSQVJz1mBtoy323edEcKl2LFS2UOZJbCJYxMDoWy2w&oe=632D980E,Mumbai,Parel,Lower Parel,1970,"Prabhat Colony Sarvajanik Ganeshotsav Mandal, Gandhi Chowk is a registered trust established in 1970. The Mandal has completed 50 glorious years by the grace of providence. Since its inception, the Mandal has laid emphasis on Socio-Cultural activities","2R4J+767, Prabhat Colony , Parel, Mumbai, Maharashtra 400013","19.005995824695137, 72.83061855188","https://www.google.com/maps/place/19%C2%B000'21.6%22N+72%C2%B049'50.2%22E/@19.0060009,72.8284299,17z/data=!3m1!4b1!4m5!3m4!1s0x0:0xb9757b164369bc45!8m2!3d19.0059958!4d72.8306186",NA
74,Market Cha Raja - Vikhroli Tagore Nagar,https://images.unsplash.com/photo-1599521318879-0fe35e838760?ixlib=rb-1.2.1&ixid=MnwxMjA3fDB8MHxzZWFyY2h8MTR8fGdhbnBhdGl8ZW58MHx8MHx8&auto=format&fit=crop&w=500&q=60,Mumbai,Vikhroli,,1992,It has been the highligh of the market area of tagore nagar in vikhroli,"Ram Hajare Marg, Ramwadi, Tagore Nagar, Vikhroli, Mumbai, Maharashtra 400083","19.120023924223414, 72.93270390523692","https://www.google.com/maps/place/19%C2%B007'12.1%22N+72%C2%B055'57.7%22E/@19.120029,72.9305152,17z/data=!3m1!4b1!4m5!3m4!1s0x0:0x6d0cd2b9ece4d8ac!8m2!3d19.1200239!4d72.9327039",NA
75,Balshakti Mitra Mandal - Ganpati Mandir,https://1.bp.blogspot.com/-cBoBgr1_UgY/UE1Zmb9XtfI/AAAAAAAACFw/lDORAPDKPlo/s1600/Shiv+Shakti+Bal+Mitra+Mandal+2012+Kolbhatlane+Cha+Raja+mcg.jpg,Mumbai,Bandra,Kherwadi Rd,NA,"The festival celebrates Ganesha as the God of New Beginnings and the Remover of Obstacles as well as the god of wisdom and intelligence and is observed throughout India, especially in the states such as Tamil Nadu, Maharashtra, Karnataka, Kerala, Andhra Pradesh and Goa.It is believed that devotees who pray to Ganesha are able to fulfil their wishes and desires. So, the main essence of Ganesh Chaturthi is that devotees who pray to him are set free of sins and it leads them on the path of knowledge and wisdom.","3R6R+QW9, Kherwadi Rd, Khatimwadi, Naupada Village, Bandra East, Mumbai, Maharashtra 400051","19.062624916864507, 72.842131630316","https://www.google.com/maps/place/Balshakti+Mitra+Mandal+-+Ganpati+Mandir/@19.0619124,72.840182,17z/data=!3m1!4b1!4m5!3m4!1s0x3be7c908228f886f:0x8503a9217d7ba731!8m2!3d19.0618993!4d72.8423626",NA
76,Shri Golden Ganesh Mitra Mandal(G2M2),https://scontent.fbom35-1.fna.fbcdn.net/v/t1.18169-9/14265060_500665063466390_1514620714997622397_n.jpg?_nc_cat=102&ccb=1-7&_nc_sid=973b4a&_nc_ohc=7KnRYiyhzHQAX8gHDnQ&_nc_ht=scontent.fbom35-1.fna&oh=00_AT-OXtipCQXjUrwmhBSZQrPc6EVqFfLIHOGYzfLEOC9_PQ&oe=6335FCE6,Mumbai,Sion,,NA,"The festival celebrates Ganesha as the God of New Beginnings and the Remover of Obstacles as well as the god of wisdom and intelligence and is observed throughout India, especially in the states such as Tamil Nadu, Maharashtra, Karnataka, Kerala, Andhra Pradesh and Goa.It is believed that devotees who pray to Ganesha are able to fulfil their wishes and desires. So, the main essence of Ganesh Chaturthi is that devotees who pray to him are set free of sins and it leads them on the path of knowledge and wisdom.","Indira Nagar Cooperative Housing Society Gurdwara Kasta Pursek Darbar, Sion East, Sion, Mumbai, Maharashtra 400022","19.037207517638592, 72.86394980483917","https://www.google.com/maps/place/Shri+Golden+Ganesh+Mitra+Mandal(G2M2)/@19.0368648,72.8617893,17z/data=!3m1!4b1!4m5!3m4!1s0x3be7cf0cd93ae56b:0x5f437de6afdbc2ce!8m2!3d19.0368597!4d72.863978",NA
77,Sahyadrinagar Sarvajanik Ganeshotsav Mandal,https://english.cdn.zeenews.com/sites/default/files/2020/08/20/880424-ganesh-pix.jpg,Mumbai,Bhandup,,NA,"The festival celebrates Ganesha as the God of New Beginnings and the Remover of Obstacles as well as the god of wisdom and intelligence and is observed throughout India, especially in the states such as Tamil Nadu, Maharashtra, Karnataka, Kerala, Andhra Pradesh and Goa.It is believed that devotees who pray to Ganesha are able to fulfil their wishes and desires. So, the main essence of Ganesh Chaturthi is that devotees who pray to him are set free of sins and it leads them on the path of knowledge and wisdom.","Dharmveer sambhaji marg, Dharmveer sambhaji marg, Quarry Rd, Sahyadri Nagar, Budh Nagar, Jamil Nagar, Bhandup West, Mumbai, Maharashtra 400078",,"https://www.google.com/maps/place/Sahyadrinagar+Sarvajanik+Ganeshotsav+Mandal/@19.1416028,72.9248509,17z/data=!3m1!4b1!4m5!3m4!1s0x3be7b873f575a891:0xb7098f37a5b614d7!8m2!3d19.1415977!4d72.9270396",NA
78,Manav Mitra Mandal,https://encrypted-tbn0.gstatic.com/images?q=tbn:ANd9GcSZ47ZNJzxkUCY0S8QuNAu8aRBc5kScwUxx_tW3gNEveXwWk9LMQ3jrwYaqvzQSo-oNFaI&usqp=CAU,Mumbai,Borivali West,,NA,"The festival celebrates Ganesha as the God of New Beginnings and the Remover of Obstacles as well as the god of wisdom and intelligence and is observed throughout India, especially in the states such as Tamil Nadu, Maharashtra, Karnataka, Kerala, Andhra Pradesh and Goa.It is believed that devotees who pray to Ganesha are able to fulfil their wishes and desires. So, the main essence of Ganesh Chaturthi is that devotees who pray to him are set free of sins and it leads them on the path of knowledge and wisdom.","Manav Mandir Ln, Mini Zaveri Bazaar, Mhatre Wadi, Borivali West, Mumbai, Maharashtra 400092","19.22770024600489, 72.85315129679219","https://www.google.com/maps/place/Manav+Mandir+Ln,+Mini+Zaveri+Bazaar,+Mhatre+Wadi,+Borivali,+Mumbai,+Maharashtra+400092/@19.2274521,72.8509626,17z/data=!3m1!4b1!4m5!3m4!1s0x3be7b0d64087e097:0x2daa512d307e37c9!8m2!3d19.227447!4d72.8531513",NA
79,Shiv Mitra Mandal,https://i.ytimg.com/vi/6sr9kJOazvY/maxresdefault.jpg,Mumbai,Borivali West,,NA,"The festival celebrates Ganesha as the God of New Beginnings and the Remover of Obstacles as well as the god of wisdom and intelligence and is observed throughout India, especially in the states such as Tamil Nadu, Maharashtra, Karnataka, Kerala, Andhra Pradesh and Goa.It is believed that devotees who pray to Ganesha are able to fulfil their wishes and desires. So, the main essence of Ganesh Chaturthi is that devotees who pray to him are set free of sins and it leads them on the path of knowledge and wisdom.","6VF5+JF7, Hitendra kale compound, Dattapada Rd, Mumbai, Asara Colony, Borivali East, Mumbai, Maharashtra 400066","19.22428085127792, 72.85870735446294","https://www.google.com/maps/place/Shiv+Mitra+Mandal/@19.2240327,72.8564972,17z/data=!3m1!4b1!4m5!3m4!1s0x3be7b0d375964125:0xa9fdfc0a5154ff03!8m2!3d19.2240276!4d72.8586859",https://www.shivmitramandal.org/
80,Ram Nagar Ganesh Utsav Mitra Mandal,https://english.cdn.zeenews.com/sites/default/files/2020/08/20/880424-ganesh-pix.jpg,Mumbai,Borivali West,,NA,"The festival celebrates Ganesha as the God of New Beginnings and the Remover of Obstacles as well as the god of wisdom and intelligence and is observed throughout India, especially in the states such as Tamil Nadu, Maharashtra, Karnataka, Kerala, Andhra Pradesh and Goa.It is believed that devotees who pray to Ganesha are able to fulfil their wishes and desires. So, the main essence of Ganesh Chaturthi is that devotees who pray to him are set free of sins and it leads them on the path of knowledge and wisdom.","1, Ram Nagar Rd, Sindhi Colony, Geetanjali Nagar, Mulji Nagar, Borivali West, Mumbai, Maharashtra 400092","19.218910088687977, 72.84981989679203","https://www.google.com/maps/place/1,+Ram+Nagar+Rd,+Sindhi+Colony,+Geetanjali+Nagar,+Mulji+Nagar,+Borivali+West,+Mumbai,+Maharashtra+400092/@19.2187835,72.8476312,17z/data=!3m1!4b1!4m5!3m4!1s0x3be7b6d515b37a0b:0xbf9977e47b8b210e!8m2!3d19.2187784!4d72.8498199",NA
81,"Charkop Cha Raja, Maghi Ganesh Utsav",https://encrypted-tbn0.gstatic.com/images?q=tbn:ANd9GcR5IBxnWqYJhBaE_M83dkAGu0nqxMvpxt3U2tJkk_FgQiD3tymdh78M61ezcX3-qkNpfkw&usqp=CAU,Mumbai,Kandivali,,NA,"The festival celebrates Ganesha as the God of New Beginnings and the Remover of Obstacles as well as the god of wisdom and intelligence and is observed throughout India, especially in the states such as Tamil Nadu, Maharashtra, Karnataka, Kerala, Andhra Pradesh and Goa.It is believed that devotees who pray to Ganesha are able to fulfil their wishes and desires. So, the main essence of Ganesh Chaturthi is that devotees who pray to him are set free of sins and it leads them on the path of knowledge and wisdom.","6R6H+R74, Kandivali, Sector 1 Charkop, Kandivali West, Mumbai, Maharashtra 400067","19.21222524458029, 72.82824601213346","https://www.google.com/maps/place/7JFJ6R6H%2BR74/@19.2120176,72.8260144,17z/data=!3m1!4b1!4m5!3m4!1s0x0:0x17c22463d2ecbfc0!8m2!3d19.2120125!4d72.8282031",NA
82,Yuva Tamil Sangam (Akurlicha vighnaharta),https://upload.wikimedia.org/wikipedia/commons/thumb/7/78/Lalbaugh_Ganesha.jpg/1200px-Lalbaugh_Ganesha.jpg,Mumbai,Kandivali,,NA,"The festival celebrates Ganesha as the God of New Beginnings and the Remover of Obstacles as well as the god of wisdom and intelligence and is observed throughout India, especially in the states such as Tamil Nadu, Maharashtra, Karnataka, Kerala, Andhra Pradesh and Goa.It is believed that devotees who pray to Ganesha are able to fulfil their wishes and desires. So, the main essence of Ganesh Chaturthi is that devotees who pray to him are set free of sins and it leads them on the path of knowledge and wisdom.","Fonseca chawl, Akurli Rd, Kandivali, Apna Nagar, Kandivali East, Mumbai, Maharashtra 400101","19.20325455894066, 72.85368684673874","https://www.google.com/maps/search/Fonseca+chawl,+Akurli+Rd,+Kandivali,+Apna+Nagar,+Kandivali+East,+Mumbai,+Maharashtra+400101/@19.1997692,72.8299761,15z/data=!3m1!4b1",NA
83,Adarsh Mitra Mandal (Orlemeshwar),https://lh3.googleusercontent.com/p/AF1QipOPiLySSrYX6OqJOWxQCHui7yRBvEWYU4hhijhw=w768-h768-n-o-v1,Mumbai,Malad,,NA,"The festival celebrates Ganesha as the God of New Beginnings and the Remover of Obstacles as well as the god of wisdom and intelligence and is observed throughout India, especially in the states such as Tamil Nadu, Maharashtra, Karnataka, Kerala, Andhra Pradesh and Goa.It is believed that devotees who pray to Ganesha are able to fulfil their wishes and desires. So, the main essence of Ganesh Chaturthi is that devotees who pray to him are set free of sins and it leads them on the path of knowledge and wisdom.","Inamdar state, Adarsh Mitra Mandal, Orlem Tank Rd, Malad West, Mumbai, Maharashtra 400064","19.199901100146334, 72.83867725261497","https://www.google.com/maps/place/Adarsh+Mitra+Mandal+(Orlemeshwar)/@19.1997441,72.8365422,17z/data=!3m1!4b1!4m5!3m4!1s0x3be7b7d1c9ead329:0x16135bdcd51155af!8m2!3d19.1997515!4d72.8386905",NA
84,Omkar Sarvajanik Ganeshutsav Mandal,https://images.unsplash.com/photo-1599521318879-0fe35e838760?ixlib=rb-1.2.1&ixid=MnwxMjA3fDB8MHxzZWFyY2h8MTR8fGdhbnBhdGl8ZW58MHx8MHx8&auto=format&fit=crop&w=500&q=60,Mumbai,Malad,,NA,"The festival celebrates Ganesha as the God of New Beginnings and the Remover of Obstacles as well as the god of wisdom and intelligence and is observed throughout India, especially in the states such as Tamil Nadu, Maharashtra, Karnataka, Kerala, Andhra Pradesh and Goa.It is believed that devotees who pray to Ganesha are able to fulfil their wishes and desires. So, the main essence of Ganesh Chaturthi is that devotees who pray to him are set free of sins and it leads them on the path of knowledge and wisdom.","204-1, Malad, BMC Colony, Rathodi, Malad West, Mumbai, Maharashtra 400095","19.19655723572405, 72.8267605814503","https://www.google.com/maps/place/204,+Malad+-+Marve+Rd,+Malad,+Charkop+Naka,+Asmita+Jyoti+Housing+Society,+Malad+West,+Mumbai,+Maharashtra+400095/@19.1963901,72.8246148,17z/data=!3m1!4b1!4m5!3m4!1s0x3be7b6bfeb89f335:0x710f6dc6322d6822!8m2!3d19.196385!4d72.8268035",NA
85,Maladcha Vighneshwar (Shree Bal Yuvak Mitra Mandal),https://images.unsplash.com/photo-1599521318879-0fe35e838760?ixlib=rb-1.2.1&ixid=MnwxMjA3fDB8MHxzZWFyY2h8MTR8fGdhbnBhdGl8ZW58MHx8MHx8&auto=format&fit=crop&w=500&q=61,Mumbai,Malad,,NA,"The festival celebrates Ganesha as the God of New Beginnings and the Remover of Obstacles as well as the god of wisdom and intelligence and is observed throughout India, especially in the states such as Tamil Nadu, Maharashtra, Karnataka, Kerala, Andhra Pradesh and Goa.It is believed that devotees who pray to Ganesha are able to fulfil their wishes and desires. So, the main essence of Ganesh Chaturthi is that devotees who pray to him are set free of sins and it leads them on the path of knowledge and wisdom.","A-1/2, Bhadran Nagar Rd Number 1, Malad, Bhadran Nagar, Kandivali West, Mumbai, Maharashtra 400064","19.192794264828983, 72.84824739494411","https://www.google.com/maps/place/Maladcha+Vighneshwar+(Shree+Bal+Yuvak+Mitra+Mandal)/@19.1925258,72.8461338,17z/data=!3m1!4b1!4m5!3m4!1s0x3be7b7c0ecdb492b:0x330a414fe237947a!8m2!3d19.1925207!4d72.8483225",NA
86,Shri Ganesh Mitra Mandal Raipada,https://images.unsplash.com/photo-1599521318879-0fe35e838760?ixlib=rb-1.2.1&ixid=MnwxMjA3fDB8MHxzZWFyY2h8MTR8fGdhbnBhdGl8ZW58MHx8MHx8&auto=format&fit=crop&w=500&q=62,Mumbai,Malad,,NA,"The festival celebrates Ganesha as the God of New Beginnings and the Remover of Obstacles as well as the god of wisdom and intelligence and is observed throughout India, especially in the states such as Tamil Nadu, Maharashtra, Karnataka, Kerala, Andhra Pradesh and Goa.It is believed that devotees who pray to Ganesha are able to fulfil their wishes and desires. So, the main essence of Ganesh Chaturthi is that devotees who pray to him are set free of sins and it leads them on the path of knowledge and wisdom.","5RMW+HGV, Shiv Mandir, Raipada, Underai Rd, Somwari Bazar, Malad West, Mumbai, Maharashtra 400064","19.184188314760817, 72.84659870418156","https://www.google.com/maps/place/Shri+Ganesh+Mitra+Mandal+Raipada/@19.1840009,72.8441096,17z/data=!3m1!4b1!4m5!3m4!1s0x3be7b6fc9856c01b:0x7158e43d3889bfa9!8m2!3d19.1839795!4d72.8463015",NA
87,Malad cha Morya - Ramnagar,https://images.unsplash.com/photo-1599521318879-0fe35e838760?ixlib=rb-1.2.1&ixid=MnwxMjA3fDB8MHxzZWFyY2h8MTR8fGdhbnBhdGl8ZW58MHx8MHx8&auto=format&fit=crop&w=500&q=63,Mumbai,Malad,,NA,"The festival celebrates Ganesha as the God of New Beginnings and the Remover of Obstacles as well as the god of wisdom and intelligence and is observed throughout India, especially in the states such as Tamil Nadu, Maharashtra, Karnataka, Kerala, Andhra Pradesh and Goa.It is believed that devotees who pray to Ganesha are able to fulfil their wishes and desires. So, the main essence of Ganesh Chaturthi is that devotees who pray to him are set free of sins and it leads them on the path of knowledge and wisdom.","5RJQ+G2H, Malad, Ram Nagar, Malad West, Mumbai, Maharashtra 400064","19.181496184700105, 72.83798467719373","https://www.google.com/maps/place/Malad+cha+Morya+-+Ramnagar/@19.1813189,72.8354312,17z/data=!3m1!4b1!4m5!3m4!1s0x3be7b7c36c6bdea9:0xc6953803dddd9527!8m2!3d19.1813138!4d72.8376199",NA
88,Riddhi Siddhi Sarvjanik Utsav Mandal - Gulalwadi,https://images.unsplash.com/photo-1599521318879-0fe35e838760?ixlib=rb-1.2.1&ixid=MnwxMjA3fDB8MHxzZWFyY2h8MTR8fGdhbnBhdGl8ZW58MHx8MHx8&auto=format&fit=crop&w=500&q=64,Mumbai,Malad,,NA,"The festival celebrates Ganesha as the God of New Beginnings and the Remover of Obstacles as well as the god of wisdom and intelligence and is observed throughout India, especially in the states such as Tamil Nadu, Maharashtra, Karnataka, Kerala, Andhra Pradesh and Goa.It is believed that devotees who pray to Ganesha are able to fulfil their wishes and desires. So, the main essence of Ganesh Chaturthi is that devotees who pray to him are set free of sins and it leads them on the path of knowledge and wisdom.","Gulalwadi Rd, MHB Colony, Gaikwad Nagar, Malvani, Malad West, Mumbai, Maharashtra 400095","19.183795348289244, 72.81853280787661","https://www.google.com/maps/place/Riddhi+Siddhi+Sarvjanik+Utsav+Mandal+-+Gulalwadi/@19.1835978,72.8158935,17z/data=!3m1!4b1!4m5!3m4!1s0x3be7b6903b31e2eb:0x2ca36f275b54327f!8m2!3d19.1835922!4d72.8180849",NA
89,Gavdevi Cha Raja Sarvajanik Ganeshotsav Mandal,https://images.unsplash.com/photo-1599521318879-0fe35e838760?ixlib=rb-1.2.1&ixid=MnwxMjA3fDB8MHxzZWFyY2h8MTR8fGdhbnBhdGl8ZW58MHx8MHx8&auto=format&fit=crop&w=500&q=65,Mumbai,Goregaon,,NA,"The festival celebrates Ganesha as the God of New Beginnings and the Remover of Obstacles as well as the god of wisdom and intelligence and is observed throughout India, especially in the states such as Tamil Nadu, Maharashtra, Karnataka, Kerala, Andhra Pradesh and Goa.It is believed that devotees who pray to Ganesha are able to fulfil their wishes and desires. So, the main essence of Ganesh Chaturthi is that devotees who pray to him are set free of sins and it leads them on the path of knowledge and wisdom.","5R6P+M8M, Mitha Nagar, Goregaon West, Mumbai, Maharashtra 400047","19.16206169118701, 72.83588782747411","https://www.google.com/maps/place/Gavdevi+Cha+Raja+Sarvajanik+Ganeshotsav+Mandal/@19.1617121,72.8336133,17z/data=!3m1!4b1!4m5!3m4!1s0x3be7b7f737a45415:0xe2ec49621c3a750e!8m2!3d19.161821!4d72.8356444",NA
90,GOREGAONCHA VIGHNAHARTA,https://images.unsplash.com/photo-1599521318879-0fe35e838760?ixlib=rb-1.2.1&ixid=MnwxMjA3fDB8MHxzZWFyY2h8MTR8fGdhbnBhdGl8ZW58MHx8MHx8&auto=format&fit=crop&w=500&q=66,Mumbai,Goregaon,,NA,"The festival celebrates Ganesha as the God of New Beginnings and the Remover of Obstacles as well as the god of wisdom and intelligence and is observed throughout India, especially in the states such as Tamil Nadu, Maharashtra, Karnataka, Kerala, Andhra Pradesh and Goa.It is believed that devotees who pray to Ganesha are able to fulfil their wishes and desires. So, the main essence of Ganesh Chaturthi is that devotees who pray to him are set free of sins and it leads them on the path of knowledge and wisdom.","5V52+9C6, Mumbai, Sonawala Industry Estate, Goregaon, Mumbai, Maharashtra 400063","19.158554371630498, 72.85096195261444","https://www.google.com/maps/place/7JFJ5V52%2B9C6/@19.1584176,72.8488269,17z/data=!3m1!4b1!4m5!3m4!1s0x0:0xea6e27d347b193b9!8m2!3d19.1584125!4d72.8510156",NA
91,Om sai maghi Ganesh utsav mandal,https://images.unsplash.com/photo-1599521318879-0fe35e838760?ixlib=rb-1.2.1&ixid=MnwxMjA3fDB8MHxzZWFyY2h8MTR8fGdhbnBhdGl8ZW58MHx8MHx8&auto=format&fit=crop&w=500&q=67,Mumbai,Goregaon,,NA,"The festival celebrates Ganesha as the God of New Beginnings and the Remover of Obstacles as well as the god of wisdom and intelligence and is observed throughout India, especially in the states such as Tamil Nadu, Maharashtra, Karnataka, Kerala, Andhra Pradesh and Goa.It is believed that devotees who pray to Ganesha are able to fulfil their wishes and desires. So, the main essence of Ganesh Chaturthi is that devotees who pray to him are set free of sins and it leads them on the path of knowledge and wisdom.","Datta Mandir Chawl, Mahatma Gandhi Rd, Mitha Nagar, Goregaon West, Mumbai, Maharashtra 400104","19.163248770577965, 72.8361073600045","https://www.google.com/maps/place/Datta+Mandir+Chawl,+Mahatma+Gandhi+Rd,+Mitha+Nagar,+Goregaon+West,+Mumbai,+Maharashtra+400104/@19.1630816,72.8336719,17z/data=!3m1!4b1!4m5!3m4!1s0x3be7b65b17cae05d:0xd45bc3f004413b96!8m2!3d19.1630765!4d72.8358606",NA
92,Shree Ganesh Mitra mandal,https://images.unsplash.com/photo-1599521318879-0fe35e838760?ixlib=rb-1.2.1&ixid=MnwxMjA3fDB8MHxzZWFyY2h8MTR8fGdhbnBhdGl8ZW58MHx8MHx8&auto=format&fit=crop&w=500&q=68,Mumbai,Jogeshwari,,NA,"The festival celebrates Ganesha as the God of New Beginnings and the Remover of Obstacles as well as the god of wisdom and intelligence and is observed throughout India, especially in the states such as Tamil Nadu, Maharashtra, Karnataka, Kerala, Andhra Pradesh and Goa.It is believed that devotees who pray to Ganesha are able to fulfil their wishes and desires. So, the main essence of Ganesh Chaturthi is that devotees who pray to him are set free of sins and it leads them on the path of knowledge and wisdom.","Ram Mandir, R-1, Ram Mandir Rd, Somani Gram, West, Oshiwara, Jogeshwari West, Mumbai, Maharashtra 400102","19.149821864529706, 72.84878822680407","https://www.google.com/maps/place/Shree+Ganesh+Mitra+mandal/@19.1632057,72.8183509,14z/data=!4m9!1m2!2m1!1sRam+Mandir,+R-1,+Ram+Mandir+Rd,+Somani+Gram,+West,+Oshiwara,+Jogeshwari+West,+Mumbai,+Maharashtra+400102!3m5!1s0x3be7b6351179e75b:0x97316b6aee5cb0a2!8m2!3d19.14972!4d72.8490455!15sCmhSYW0gTWFuZGlyLCBSLTEsIFJhbSBNYW5kaXIgUmQsIFNvbWFuaSBHcmFtLCBXZXN0LCBPc2hpd2FyYSwgSm9nZXNod2FyaSBXZXN0LCBNdW1iYWksIE1haGFyYXNodHJhIDQwMDEwMlpiImByYW0gbWFuZGlyIHIgMSByYW0gbWFuZGlyIHJkIHNvbWFuaSBncmFtIHdlc3Qgb3NoaXdhcmEgam9nZXNod2FyaSB3ZXN0IG11bWJhaSBtYWhhcmFzaHRyYSA0MDAxMDKSAQxoaW5kdV90ZW1wbGWaASNDaFpEU1VoTk1HOW5TMFZKUTBGblNVTXdjazVsWjFkQkVBReABAA",NA
93,PMGP Colony Ganpati Mandap,https://i.ytimg.com/vi/Zjx9drCe3-4/hqdefault.jpg,Mumbai,Jogeshwari,,NA,"The festival celebrates Ganesha as the God of New Beginnings and the Remover of Obstacles as well as the god of wisdom and intelligence and is observed throughout India, especially in the states such as Tamil Nadu, Maharashtra, Karnataka, Kerala, Andhra Pradesh and Goa.It is believed that devotees who pray to Ganesha are able to fulfil their wishes and desires. So, the main essence of Ganesh Chaturthi is that devotees who pray to him are set free of sins and it leads them on the path of knowledge and wisdom.","A/B, Shivneri Vasahat Rd, Indira Nagar, Jogeshwari East, Mumbai, Maharashtra 400093","19.133776439990225, 72.86977515390024","https://www.google.com/maps/place/PMGP+Colony+Ganpati+Mandap/@19.1337106,72.8670071,17z/data=!3m1!4b1!4m5!3m4!1s0x3be7b7d92d22501f:0x1046252edcada143!8m2!3d19.1337047!4d72.8692096",NA
94,"ANDHERISHWAR, SARVAJANIK GANESHUTSAV MANDAL",https://content.jdmagicbox.com/comp/mumbai/y6/022pxx22.xx22.111025121748.w6y6/catalogue/andhericha-raja-sarvajanik-ganesh-utsav-mandal-andheri-west-mumbai-charitable-trusts-nh31pw4m82-250.jpg,Mumbai,Andheri,,NA,"The festival celebrates Ganesha as the God of New Beginnings and the Remover of Obstacles as well as the god of wisdom and intelligence and is observed throughout India, especially in the states such as Tamil Nadu, Maharashtra, Karnataka, Kerala, Andhra Pradesh and Goa.It is believed that devotees who pray to Ganesha are able to fulfil their wishes and desires. So, the main essence of Ganesh Chaturthi is that devotees who pray to him are set free of sins and it leads them on the path of knowledge and wisdom.","1, Western Express Hwy, Jijamata Colony, Andheri East, Mumbai, Maharashtra 400069","19.1257778998251, 72.85564975815647","https://www.google.com/maps/place/ANDHERISHWAR,+SARVAJANIK+GANESHUTSAV+MANDAL/@19.1256411,72.8532894,17z/data=!3m1!4b1!4m5!3m4!1s0x3be7c82bb3a20997:0xb1bdb7f54e889dbc!8m2!3d19.1256551!4d72.855435",NA
95,Ambolicha Raja,https://encrypted-tbn0.gstatic.com/images?q=tbn:ANd9GcTHnNjOVhrgtrkkWNOnHQkb6jxlHGxDbLYGTA&usqp=CAU,Mumbai,Andheri,,NA,"The festival celebrates Ganesha as the God of New Beginnings and the Remover of Obstacles as well as the god of wisdom and intelligence and is observed throughout India, especially in the states such as Tamil Nadu, Maharashtra, Karnataka, Kerala, Andhra Pradesh and Goa.It is believed that devotees who pray to Ganesha are able to fulfil their wishes and desires. So, the main essence of Ganesh Chaturthi is that devotees who pray to him are set free of sins and it leads them on the path of knowledge and wisdom.","4RJR+FF6, Srinivas Building, Mhatarpada Rd, Amboli, Andheri West, Mumbai, Maharashtra 400047","19.1312960225001, 72.84146099068687","https://www.google.com/maps/place/Ambolicha+Raja/@19.1311795,72.8389397,17z/data=!3m1!4b1!4m5!3m4!1s0x3be7b6288d599ea1:0x2213e875c5884c31!8m2!3d19.1311744!4d72.8411284",NA
96,Shirdi Nagar Cha Maghi Ganesh Utsav,https://i.ytimg.com/vi/egq_efoTkIw/mqdefault.jpg,Mumbai,Bhayandar,,NA,"The festival celebrates Ganesha as the God of New Beginnings and the Remover of Obstacles as well as the god of wisdom and intelligence and is observed throughout India, especially in the states such as Tamil Nadu, Maharashtra, Karnataka, Kerala, Andhra Pradesh and Goa.It is believed that devotees who pray to Ganesha are able to fulfil their wishes and desires. So, the main essence of Ganesh Chaturthi is that devotees who pray to him are set free of sins and it leads them on the path of knowledge and wisdom.","8V47+228, Shirdi nagar, Navghar Rd, near sai baba mandir, Bhayandar East, Mumai, Maharashtra 401105","19.30527250056361, 72.8629347195248","https://www.google.com/maps/place/Shirdi+Nagar+Cha+Maghi+Ganesh+Utsav/@19.3050345,72.8604027,17z/data=!3m1!4b1!4m5!3m4!1s0x3be7b1aa5d3585c1:0xe6bfe71aea0e05db!8m2!3d19.3050295!4d72.8625914",NA
97,New Green Wood Ganesh Utsav Mandal,https://images.unsplash.com/photo-1599521318879-0fe35e838760?ixlib=rb-1.2.1&ixid=MnwxMjA3fDB8MHxzZWFyY2h8MTR8fGdhbnBhdGl8ZW58MHx8MHx8&auto=format&fit=crop&w=500&q=60,Mumbai,Bhayandar,,NA,"The festival celebrates Ganesha as the God of New Beginnings and the Remover of Obstacles as well as the god of wisdom and intelligence and is observed throughout India, especially in the states such as Tamil Nadu, Maharashtra, Karnataka, Kerala, Andhra Pradesh and Goa.It is believed that devotees who pray to Ganesha are able to fulfil their wishes and desires. So, the main essence of Ganesh Chaturthi is that devotees who pray to him are set free of sins and it leads them on the path of knowledge and wisdom.","new green wood complex near st xaviear high school jari Mari Mandir Rd, 401107, Kashigaon, Mira Road, Mira Bhayandar, Maharashtra 401107","19.27071809044312, 72.88994590603046","https://www.google.com/maps/place/New+Green+Wood+Ganesh+Utsav+Mandal/@19.2704295,72.8873817,17z/data=!3m1!4b1!4m5!3m4!1s0x3be7b07d7c2f1dcb:0x5734250716582560!8m2!3d19.2704745!4d72.8896634",NA
98,MiraRoad Cha Morya Shanti Nagar Ganesh Utsav Mandal,https://s1-apac-cdn.ganpati.tv/dt/mandal/2016/mira-road-cha-morya-ganpati-picture-9389242-1550.jpg,Mumbai,Mira Road,,NA,"The festival celebrates Ganesha as the God of New Beginnings and the Remover of Obstacles as well as the god of wisdom and intelligence and is observed throughout India, especially in the states such as Tamil Nadu, Maharashtra, Karnataka, Kerala, Andhra Pradesh and Goa.It is believed that devotees who pray to Ganesha are able to fulfil their wishes and desires. So, the main essence of Ganesh Chaturthi is that devotees who pray to him are set free of sins and it leads them on the path of knowledge and wisdom.","Miraroad Cha Morya Chowk, Sector 2, Shanti Nagar, Mira Road, Mira Bhayandar, Maharashtra 401107","19.27957437703676, 72.86049696370115","https://www.google.com/maps/place/MiraRoad+Cha+Morya+Shanti+Nagar+Ganesh+Utsav+Mandal/@19.2795086,72.8579113,17z/data=!3m1!4b1!4m5!3m4!1s0x3be7b04e2c4aee65:0x8531b694221909d7!8m2!3d19.2795035!4d72.8601",NA
99,Mira Bhayandar Cha Maharaja,https://hindupad.com/wp-content/uploads/Raja-Mira-Bhayander-cha-2019-10.jpg,Mumbai,Mira Bhayandar,Bhayandar East,2000,"In the early days, a small mandap was erected and a small 3 to 4 feet idol of Sri was celebrated in the Digvijaya Mill Chali building where Lord Mahaganapati is enthroned today.","shree siddhivinayak seva charitable trust mira bhayander cha raja, 12, New Golden Nest Phase 11, near jain bungalow, Bhayandar East, Maharashtra 401105","19.275811043416834, 72.86311902089126","https://www.google.com/maps/place/Mira+bhayander+cha+raja/@19.299534,72.86172,17z/data=!3m1!4b1!4m5!3m4!1s0x3be7b106a4dac17d:0x6b9a2e4b98e59998!8m2!3d19.299529!4d72.8639087",NA
100,Miraroad Cha Maharaja,https://sites.google.com/site/miraroadchamaharajacom/_/rsrc/1472846644230/home/406651_345468782135825_199169850099053_1598455_938599283_n2.jpg,Mumbai,Mira Road,Shanti Nagar,1991,"The festival celebrates Ganesha as the God of New Beginnings and the Remover of Obstacles as well as the god of wisdom and intelligence and is observed throughout India, especially in the states such as Tamil Nadu, Maharashtra, Karnataka, Kerala, Andhra Pradesh and Goa.It is believed that devotees who pray to Ganesha are able to fulfil their wishes and desires. So, the main essence of Ganesh Chaturthi is that devotees who pray to him are set free of sins and it leads them on the path of knowledge and wisdom.","Sector 9, Shanti Nagar, Mira Road, Mira Bhayandar, Maharashtra 401107","19.276247775395355, 72.86289620246579","https://www.google.com/maps/place/Miraroad+Cha+Maharaja/@19.2756717,72.8620076,18z/data=!3m1!4b1!4m5!3m4!1s0x3be7b19565d13915:0x8abbe6a143a0ea7!8m2!3d19.2756692!4d72.8631019",NA
101,Hindu Jagruti Sarvajanik Ganeshotsav Mandal,https://images.unsplash.com/photo-1599521318879-0fe35e838760?ixlib=rb-1.2.1&ixid=MnwxMjA3fDB8MHxzZWFyY2h8MTR8fGdhbnBhdGl8ZW58MHx8MHx8&auto=format&fit=crop&w=500&q=60,Thane,Kalwa,,1991,"The festival celebrates Ganesha as the God of New Beginnings and the Remover of Obstacles as well as the god of wisdom and intelligence and is observed throughout India, especially in the states such as Tamil Nadu, Maharashtra, Karnataka, Kerala, Andhra Pradesh and Goa.It is believed that devotees who pray to Ganesha are able to fulfil their wishes and desires. So, the main essence of Ganesh Chaturthi is that devotees who pray to him are set free of sins and it leads them on the path of knowledge and wisdom.","5XRC+2MW, Sahayog Mandir Path, Off Ram Maruti Road, Ghantali, Naupada, Thane West, Thane, Maharashtra 400602","19.192041577188583, 72.97134982884921","https://www.google.com/maps/place/Hindu+Jagruti+Sarvajanik+Ganeshotsav+Mandal,+Thane,+Estd.1991/@19.1880913,72.9661848,17z/data=!4m9!1m2!2m1!1sHindu+Jagruti+Sarvajanik+Ganeshotsav+Mandal!3m5!1s0x3be7b93c4dde90a9:0x2a2eb408d00bd841!8m2!3d19.1901197!4d72.9717075!15sCitIaW5kdSBKYWdydXRpIFNhcnZhamFuaWsgR2FuZXNob3RzYXYgTWFuZGFskgEWcmVsaWdpb3VzX29yZ2FuaXphdGlvbuABAA",NA
102,Thanyacha Raja ,https://www.ganapatibappa.com/wp-content/uploads/2014/07/2005-1.jpg,Thane,Thane West,,NA,"The festival celebrates Ganesha as the God of New Beginnings and the Remover of Obstacles as well as the god of wisdom and intelligence and is observed throughout India, especially in the states such as Tamil Nadu, Maharashtra, Karnataka, Kerala, Andhra Pradesh and Goa.It is believed that devotees who pray to Ganesha are able to fulfil their wishes and desires. So, the main essence of Ganesh Chaturthi is that devotees who pray to him are set free of sins and it leads them on the path of knowledge and wisdom.","5XW8+733, Narveer Tanaji Sarvajanik Ganeshotsav Mitra Mandal, Panch Pakhdi, Thane West, Thane, Maharashtra 400602","19.19592669194748, 72.96536424466353","https://www.google.com/maps/place/Thanyacha+Raja+(%E0%A4%A8%E0%A4%B0%E0%A4%B5%E0%A5%80%E0%A4%B0+%E0%A4%A4%E0%A4%BE%E0%A4%A8%E0%A4%BE%E0%A4%9C%E0%A5%80+%E0%A4%B8%E0%A4%BE%E0%A4%B0%E0%A5%8D%E0%A4%B5%E0%A4%9C%E0%A4%A8%E0%A4%BF%E0%A4%95+%E0%A4%97%E0%A4%A3%E0%A5%87%E0%A4%B6%E0%A5%8B%E0%A4%A4%E0%A5%8D%E0%A4%B8%E0%A4%B5+%E0%A4%AE%E0%A4%82%E0%A4%A1%E0%A4%B3.)/@19.1956481,72.9629717,17z/data=!3m1!4b1!4m5!3m4!1s0x3be7b91b15c0a5ef:0xab875669844b57a9!8m2!3d19.1956496!4d72.9651639",NA
103,Mahavishwacha Raja,https://hindupad.com/wp-content/uploads/Shivsena-Galli-Cha-Raja-2019-1.jpg,Thane,Thane West,,NA,"The festival celebrates Ganesha as the God of New Beginnings and the Remover of Obstacles as well as the god of wisdom and intelligence and is observed throughout India, especially in the states such as Tamil Nadu, Maharashtra, Karnataka, Kerala, Andhra Pradesh and Goa.It is believed that devotees who pray to Ganesha are able to fulfil their wishes and desires. So, the main essence of Ganesh Chaturthi is that devotees who pray to him are set free of sins and it leads them on the path of knowledge and wisdom.","2nd Floor, Mahavir Darshan and Vishwakarma Niwas, Padwal Nagar, Wagle Estate Thane(W, Thane, Maharashtra 400604","19.18999887333792, 72.95313531952313","https://www.google.com/maps/place/Mahavishwa+Mitra+Mandal+(Mahavishwacha+Raja)/@19.1897912,72.9506033,17z/data=!3m1!4b1!4m5!3m4!1s0x3be7b91410b361ad:0xbc8797c9903f3692!8m2!3d19.1897861!4d72.952792",NA
104,Thanyacha Siddhidata Sarvajanik Ganeshotsav Mandal,https://lh3.googleusercontent.com/p/AF1QipOUVKkU5mf5pRJPOiPiPWbheJPtxUw23irFK5UA=w768-h768-n-o-v1,Thane,Thane West,,NA,"The festival celebrates Ganesha as the God of New Beginnings and the Remover of Obstacles as well as the god of wisdom and intelligence and is observed throughout India, especially in the states such as Tamil Nadu, Maharashtra, Karnataka, Kerala, Andhra Pradesh and Goa.It is believed that devotees who pray to Ganesha are able to fulfil their wishes and desires. So, the main essence of Ganesh Chaturthi is that devotees who pray to him are set free of sins and it leads them on the path of knowledge and wisdom.","Rd Number 3, Shivaji Nagar, Kisan Nagar 1, Thane West, Thane, Maharashtra 400604","19.187903083864807, 72.95238982876067","https://www.google.com/maps/place/Thanyacha+Siddhidata+Sarvajanik+Ganeshotsav+Mandal/@19.1878474,72.9494823,17z/data=!3m1!4b1!4m5!3m4!1s0x3be7b901636d8557:0x4229748f19580006!8m2!3d19.1878423!4d72.951671",NA
105,Jay Bajrang Bal Mitra Mandal Wagle Cha Raja,https://english.cdn.zeenews.com/sites/default/files/2020/08/20/880424-ganesh-pix.jpg,Thane,Thane West,,NA,"The festival celebrates Ganesha as the God of New Beginnings and the Remover of Obstacles as well as the god of wisdom and intelligence and is observed throughout India, especially in the states such as Tamil Nadu, Maharashtra, Karnataka, Kerala, Andhra Pradesh and Goa.It is believed that devotees who pray to Ganesha are able to fulfil their wishes and desires. So, the main essence of Ganesh Chaturthi is that devotees who pray to him are set free of sins and it leads them on the path of knowledge and wisdom.","5XP3+PR7, Wagle Estate, Shivaji Nagar, Kisan Nagar 1, Thane West, Thane, Maharashtra 400080","19.186889182852408, 72.95547917663244","https://www.google.com/maps/place/jay+Bajrang+Bal+Mitra+Mandal+Wagle+Cha+Raja/@19.1868031,72.9523678,17z/data=!3m1!4b1!4m5!3m4!1s0x3be7b9f27a720eb3:0x22b1593c6d7ffcb0!8m2!3d19.186799!4d72.9545567",NA
106,"SALPADEVI SADAN ""MULUND CHA MAHAGANPATI",https://lh3.googleusercontent.com/p/AF1QipPfgT7TDPMHPn1d08HWW3xJSBZicn-MXFHr3pft=w768-h768-n-o-v1,Thane,Mulund,,NA,"The festival celebrates Ganesha as the God of New Beginnings and the Remover of Obstacles as well as the god of wisdom and intelligence and is observed throughout India, especially in the states such as Tamil Nadu, Maharashtra, Karnataka, Kerala, Andhra Pradesh and Goa.It is believed that devotees who pray to Ganesha are able to fulfil their wishes and desires. So, the main essence of Ganesh Chaturthi is that devotees who pray to him are set free of sins and it leads them on the path of knowledge and wisdom.","D /006 salpadevi sadan, Purushottam Kheraj Rd, Mulund West, Mumbai, Maharashtra 400080","19.166536162379856, 72.9435974692421","https://www.google.com/maps/place/SALPADEVI+SADAN+%22MULUND+CHA+MAHAGANPATI%22%F0%9F%99%8F/@19.1664298,72.9407865,17z/data=!3m1!4b1!4m5!3m4!1s0x3be7b97e13cca443:0x8adc154d54c15cca!8m2!3d19.1664247!4d72.9429752",NA
107,Azad Nagar Sarvajanik Ganeshostav Mandal,https://english.cdn.zeenews.com/sites/default/files/2020/08/20/880424-ganesh-pix.jpg,Thane,Mulund,,NA,"The festival celebrates Ganesha as the God of New Beginnings and the Remover of Obstacles as well as the god of wisdom and intelligence and is observed throughout India, especially in the states such as Tamil Nadu, Maharashtra, Karnataka, Kerala, Andhra Pradesh and Goa.It is believed that devotees who pray to Ganesha are able to fulfil their wishes and desires. So, the main essence of Ganesh Chaturthi is that devotees who pray to him are set free of sins and it leads them on the path of knowledge and wisdom.","11, Dargah Rd, Sonapur, Bhandup West, Mumbai, Maharashtra 400078","19.171974801959074, 72.95011560317225","https://www.google.com/maps/place/Azad+Nagar+Sarvajanik+Ganeshostav+Mandal/@19.0978599,72.8210263,12z/data=!4m9!1m2!2m1!1sAzad+Nagar+Sarvajanik+Ganeshostav+Mandal!3m5!1s0x3be7b8434e83cc05:0x12195f1896d45898!8m2!3d19.164379!4d72.9339378!15sCihBemFkIE5hZ2FyIFNhcnZhamFuaWsgR2FuZXNob3N0YXYgTWFuZGFskgEMaGluZHVfdGVtcGxl4AEA",NA
108,Lokmanya Aali,https://images.hindustantimes.com/rf/image_size_630x354/HT/p2/2019/09/06/Pictures/_88950930-d024-11e9-a264-bc92e50e5c68.jpg,Thane,Manpada,Khewara Rd,1920,"The mandal, which started in 1920, is one of the oldest Ganpati mandal and continues to have environment-friendly celebrations and decorations.This pandal at Lokmanya Aali in Thane has not changed its traditional way of celebrations in 100 years. Started by freedom fighter Lokmanya Tilak, it is the oldest in the city.","Lokmanya Aali road near Khewara rd,Manpada,Thane-west,Thane","19.19623743915774, 72.97536319679179","https://www.google.com/maps/place/Lokmanya+Aali,+Charai,+Thane+West,+Thane,+Maharashtra+400601/@19.1961007,72.9731745,17z/data=!3m1!4b1!4m5!3m4!1s0x3be7b9236165d4a1:0xe3a8687316b5418c!8m2!3d19.1960956!4d72.9753632",NA
109,Ashtavinayak Mitra Mandal,https://english.cdn.zeenews.com/sites/default/files/2020/08/20/880424-ganesh-pix.jpg,Navi Mumbai,New Panvel,,2004,Its an organisation managed by youth and  has unique murtis.,"244C+29G, Sector 8, New Panvel East, Panvel, Navi Mumbai, Maharashtra 410206","19.00514231467515, 73.12093685948136","https://www.google.com/maps/place/7JFM244C%2B29G/@19.0050676,73.1187644,17z/data=!3m1!4b1!4m5!3m4!1s0x0:0x9fa5cb62d17adfcd!8m2!3d19.0050625!4d73.1209531",NA
110,Navsala Pavnara Raigadcha Raja,https://images.unsplash.com/photo-1599521318879-0fe35e838760?ixlib=rb-1.2.1&ixid=MnwxMjA3fDB8MHxzZWFyY2h8MTR8fGdhbnBhdGl8ZW58MHx8MHx8&auto=format&fit=crop&w=500&q=60,Navi Mumbai,Reshimbagh,,1996,It has unique illustrations and unique dramatic charasteristics of the animation.,"2436+CQ6, Sector 11, Khanda Colony, Panvel, Navi Mumbai, Maharashtra 410206","19.008147464565077, 73.10984932745345","https://www.google.com/maps/place/Navsala+Pavnara+Raigadcha+Raja/@19.0035398,73.1097165,17z/data=!3m1!4b1!4m5!3m4!1s0x3be7e9f1745c4dab:0x870df1a20c245b8c!8m2!3d19.0035342!4d73.111923",NA
111,Panvel Cha Raja Chintamani,https://i.pinimg.com/736x/51/f4/88/51f4889e0a9bf607056072008803dbd1.jpg,Navi Mumbai,New Panvel,,2000,It has the majestic murti and people come from all over the place to seek blessings,"Plot no 42, behind Siciliano Cafe, Sector 4, New Panvel East, Panvel, Navi Mumbai, Maharashtra 410206","19.003226590184244, 73.11804717499179","https://www.google.com/maps/place/Panvel+Cha+Raja+Chintamani/@19.0026929,73.115877,17z/data=!3m1!4b1!4m5!3m4!1s0x3be7e9fd50c1a80d:0xf486e58b1fa12336!8m2!3d19.0027042!4d73.1180603",NA
112,Sanmitra Ganeshotsav Mandal,https://images.unsplash.com/photo-1599521318879-0fe35e838760?ixlib=rb-1.2.1&ixid=MnwxMjA3fDB8MHxzZWFyY2h8MTR8fGdhbnBhdGl8ZW58MHx8MHx8&auto=format&fit=crop&w=500&q=60,Navi Mumbai,"New Panvel
",,2006,There is a huge celebration at nere and everyone comes together to celebrathe the ganapti festival.,"2569+HJW, Sonar Ali Rd, Nere, Maharashtra 410206","19.012074228522774, 73.1689568530222","https://www.google.com/maps/place/Sanmitra+Ganeshotsav+Mandal/@19.011491,73.1668969,17z/data=!3m1!4b1!4m5!3m4!1s0x3be7e8da8ba7d2a1:0x4af81f4227f20b8c!8m2!3d19.0114859!4d73.1690856",NA
113,Varadvinayak samajik mandal,https://images.unsplash.com/photo-1599521318879-0fe35e838760?ixlib=rb-1.2.1&ixid=MnwxMjA3fDB8MHxzZWFyY2h8MTR8fGdhbnBhdGl8ZW58MHx8MHx8&auto=format&fit=crop&w=500&q=61,Navi Mumbai,"New Panvel
",,2010,This is a celebration of varad vinayak.,"Plot no. : 265, Sector. : 10, New Panvel East, Panvel, Navi Mumbai, Maharashtra 410206","19.002303886250782, 73.1234828837057","https://www.google.com/maps/place/varadvinayak+samajik+mandal/@19.0021482,73.1221754,17.5z/data=!4m9!1m2!2m1!1sVaradvinayak+samajik+mandal!3m5!1s0x3be7e9941944e299:0x1dc378611f253885!8m2!3d19.001636!4d73.1235673!15sChtWYXJhZHZpbmF5YWsgc2FtYWppayBtYW5kYWySARZyZWxpZ2lvdXNfb3JnYW5pemF0aW9u4AEA",NA
114,Shivlalkar Ganesh Utsav Mitra Mandal,https://images.unsplash.com/photo-1599521318879-0fe35e838760?ixlib=rb-1.2.1&ixid=MnwxMjA3fDB8MHxzZWFyY2h8MTR8fGdhbnBhdGl8ZW58MHx8MHx8&auto=format&fit=crop&w=500&q=62,Navi Mumbai,Koparkhairne,,1995,"The festival celebrates Ganesha as the God of New Beginnings and the Remover of Obstacles as well as the god of wisdom and intelligence and is observed throughout India, especially in the states such as Tamil Nadu, Maharashtra, Karnataka, Kerala, Andhra Pradesh and Goa.It is believed that devotees who pray to Ganesha are able to fulfil their wishes and desires. So, the main essence of Ganesh Chaturthi is that devotees who pray to him are set free of sins and it leads them on the path of knowledge and wisdom.","SS3-457, Sector 15 Kopar Khairane Rd, Sector 15, Kopar Khairane, Navi Mumbai, Maharashtra 400709","19.100666408823177, 73.0028286837057","https://www.google.com/maps/place/Shivlalkar+Ganesh+Utsav+Mitra+Mandal/@19.1001646,73.0006829,17z/data=!3m1!4b1!4m5!3m4!1s0x3be7c138f2af34b5:0xa00f586da3244564!8m2!3d19.1001595!4d73.0028716",NA
115,Yuva Ganesh Utsav Mandal,http://www.yuvaganesh.in/images/photo-gallery/ganpati-2007.jpg,Navi Mumbai,Vashi,,1990,"The festival celebrates Ganesha as the God of New Beginnings and the Remover of Obstacles as well as the god of wisdom and intelligence and is observed throughout India, especially in the states such as Tamil Nadu, Maharashtra, Karnataka, Kerala, Andhra Pradesh and Goa.It is believed that devotees who pray to Ganesha are able to fulfil their wishes and desires. So, the main essence of Ganesh Chaturthi is that devotees who pray to him are set free of sins and it leads them on the path of knowledge and wisdom.","3XFP+9W9, Sector 8, Vashi, Navi Mumbai, Maharashtra 400703","19.074123786556797, 72.98744562973098","https://www.google.com/maps/place/Yuva+Ganesh+Utsav+Mandal/@19.0734191,72.9851711,17z/data=!3m1!4b1!4m5!3m4!1s0x3be7c6c9f62ef10f:0xebfe079b596bb223!8m2!3d19.0734562!4d72.9873643",NA
116,Ekta Mitra Mandal Sanpada,https://images.unsplash.com/photo-1599521318879-0fe35e838760?ixlib=rb-1.2.1&ixid=MnwxMjA3fDB8MHxzZWFyY2h8MTR8fGdhbnBhdGl8ZW58MHx8MHx8&auto=format&fit=crop&w=500&q=60,Navi Mumbai,Sanpada,,NA,"The festival celebrates Ganesha as the God of New Beginnings and the Remover of Obstacles as well as the god of wisdom and intelligence and is observed throughout India, especially in the states such as Tamil Nadu, Maharashtra, Karnataka, Kerala, Andhra Pradesh and Goa.It is believed that devotees who pray to Ganesha are able to fulfil their wishes and desires. So, the main essence of Ganesh Chaturthi is that devotees who pray to him are set free of sins and it leads them on the path of knowledge and wisdom.","Sector 14, Sanpada, Navi Mumbai, Maharashtra 400705","19.06250932645784, 73.004162177985","https://www.google.com/maps/place/Ekta+Mitra+Mandal+Sanpada/@19.0734442,72.978605,15z/data=!4m9!1m2!2m1!1sEkta+Mitra+Mandal+Sanpada!3m5!1s0x3be7c1501df4bc5f:0xe53041ab61455459!8m2!3d19.0625466!4d73.0040864!15sChlFa3RhIE1pdHJhIE1hbmRhbCBTYW5wYWRhkgESeW91dGhfb3JnYW5pemF0aW9u4AEA",NA
117,   Vashicha Raja,https://images.app.goo.gl/gm5kW5cYsXkK4iUS9,Navi Mumbai,Vashi,,NA,"The festival celebrates Ganesha as the God of New Beginnings and the Remover of Obstacles as well as the god of wisdom and intelligence and is observed throughout India, especially in the states such as Tamil Nadu, Maharashtra, Karnataka, Kerala, Andhra Pradesh and Goa.It is believed that devotees who pray to Ganesha are able to fulfil their wishes and desires. So, the main essence of Ganesh Chaturthi is that devotees who pray to him are set free of sins and it leads them on the path of knowledge and wisdom.","Lokmanya Tilak vyapari sanghatana market, Liberty Housing Society, Sector 1, Vashi, Navi Mumbai, Maharashtra 400703","19.070799127088044, 72.99702621214809","https://www.google.com/maps/place/Vashicha+Raja,+Sarvajanik+ganeshotsav+mandal/@19.0707941,72.9947946,17z/data=!3m1!4b1!4m5!3m4!1s0x3be7c14a55f2c18d:0xb734d12beffb2e86!8m2!3d19.0707591!4d72.9969808",NA
118,"Shiv Chhaya Mitra Mandal,Turbhe",https://media.gettyimages.com/photos/first-glimpse-of-shiv-chayya-mitra-mandal-one-of-the-oldest-ganpati-picture-id1032855448?s=594x594,Navi Mumbai,Vashi,,NA,"The festival celebrates Ganesha as the God of New Beginnings and the Remover of Obstacles as well as the god of wisdom and intelligence and is observed throughout India, especially in the states such as Tamil Nadu, Maharashtra, Karnataka, Kerala, Andhra Pradesh and Goa.It is believed that devotees who pray to Ganesha are able to fulfil their wishes and desires. So, the main essence of Ganesh Chaturthi is that devotees who pray to him are set free of sins and it leads them on the path of knowledge and wisdom.","32F8+G2F, Sector 20, Turbhe, Navi Mumbai, Maharashtra 400703","19.07384274631499, 73.01506232564184","https://www.google.com/maps/place/Shiv+Chhaya+Mitra+Mandal,Turbhe/@19.0727733,73.0085814,17z/data=!4m9!1m2!2m1!1sShiv+Chhaya+Mitra+Mandal,Turbhe!3m5!1s0x3be7c14069863fc9:0x133e0e6cdc728dd2!8m2!3d19.0738022!4d73.0150516!15sCh9TaGl2IENoaGF5YSBNaXRyYSBNYW5kYWwsVHVyYmhlkgEMaGluZHVfdGVtcGxl4AEA",NA
119,akhil diva airoli ganeshotsav mandal,https://images.unsplash.com/photo-1599521318879-0fe35e838760?ixlib=rb-1.2.1&ixid=MnwxMjA3fDB8MHxzZWFyY2h8MTR8fGdhbnBhdGl8ZW58MHx8MHx8&auto=format&fit=crop&w=500&q=60,Navi Mumbai,Airoli,,NA,"The festival celebrates Ganesha as the God of New Beginnings and the Remover of Obstacles as well as the god of wisdom and intelligence and is observed throughout India, especially in the states such as Tamil Nadu, Maharashtra, Karnataka, Kerala, Andhra Pradesh and Goa.It is believed that devotees who pray to Ganesha are able to fulfil their wishes and desires. So, the main essence of Ganesh Chaturthi is that devotees who pray to him are set free of sins and it leads them on the path of knowledge and wisdom.","Sector 8, Airoli, Navi Mumbai, Maharashtra 400708","19.14496799338833, 72.99281906797201","https://www.google.com/maps/place/akhil+diva+airoli+ganeshotsav+mandal/@19.0727733,73.0085814,17z/data=!4m5!3m4!1s0x3be7b8ab29c2c7f5:0x5c43c433fe38a824!8m2!3d19.1449376!4d72.9928298",NA
120,Sanpadyacha Maharaja Sarvajanik Ganesh Utsav,"https://maharashtratimes.com/thumb/height-470,width=630,msid-60259326/60259326.jpg",Navi Mumbai,Sanpada,,2001,"The festival celebrates Ganesha as the God of New Beginnings and the Remover of Obstacles as well as the god of wisdom and intelligence and is observed throughout India, especially in the states such as Tamil Nadu, Maharashtra, Karnataka, Kerala, Andhra Pradesh and Goa.It is believed that devotees who pray to Ganesha are able to fulfil their wishes and desires. So, the main essence of Ganesh Chaturthi is that devotees who pray to him are set free of sins and it leads them on the path of knowledge and wisdom.","B-51, St Nirankari Marg, Sector 10, Sanpada, Navi Mumbai, Maharashtra 400705","19.059648422837306, 73.01608591438922","https://www.google.com/maps/place/Sanpadyacha+Maharaja+Sarvajanik+Ganesh+Utsav/@19.0590248,73.0138543,17z/data=!3m1!4b1!4m5!3m4!1s0x3be7c15dee073ce5:0xb36d868b887c694a!8m2!3d19.0590156!4d73.0160431",NA
121,"Vashicha Raja, Sarvajanik ganeshotsav mandal",https://images.unsplash.com/photo-1599521318879-0fe35e838760?ixlib=rb-1.2.1&ixid=MnwxMjA3fDB8MHxzZWFyY2h8MTR8fGdhbnBhdGl8ZW58MHx8MHx8&auto=format&fit=crop&w=500&q=60,Navi Mumbai,Vashi,,2004,"The festival celebrates Ganesha as the God of New Beginnings and the Remover of Obstacles as well as the god of wisdom and intelligence and is observed throughout India, especially in the states such as Tamil Nadu, Maharashtra, Karnataka, Kerala, Andhra Pradesh and Goa.It is believed that devotees who pray to Ganesha are able to fulfil their wishes and desires. So, the main essence of Ganesh Chaturthi is that devotees who pray to him are set free of sins and it leads them on the path of knowledge and wisdom.","Lokmanya Tilak vyapari sanghatana market, Liberty Housing Society, Sector 1, Vashi, Navi Mumbai, Maharashtra 400703","19.07121487904481, 72.99672580699692","https://www.google.com/maps/place/Lokmanya+Tilak+vyapari+sanghatana+market,+Liberty+Housing+Society,+Sector+1,+Vashi,+Navi+Mumbai,+Maharashtra+400703/@19.0708234,72.9948677,17z/data=!3m1!4b1!4m5!3m4!1s0x3be7c14a522ba4df:0xf1d4a0d1cd32d3a2!8m2!3d19.0708183!4d72.9970564",NA
122,Yuva Ganesh Utsav Mandal,http://www.yuvaganesh.in/images/photo-gallery/2009/1-big.jpg,Navi Mumbai,Vashi,Sector 8,2010,"The festival celebrates Ganesha as the God of New Beginnings and the Remover of Obstacles as well as the god of wisdom and intelligence and is observed throughout India, especially in the states such as Tamil Nadu, Maharashtra, Karnataka, Kerala, Andhra Pradesh and Goa.It is believed that devotees who pray to Ganesha are able to fulfil their wishes and desires. So, the main essence of Ganesh Chaturthi is that devotees who pray to him are set free of sins and it leads them on the path of knowledge and wisdom.","3XFP+9W9, Sector 8, Vashi, Navi Mumbai, Maharashtra 400703","19.07348686930259, 72.98736851236927","https://www.google.co.in/maps/place/19%C2%B004'24.6%22N+72%C2%B059'14.5%22E/@19.073492,72.9851798,17z/data=!3m1!4b1!4m5!3m4!1s0x0:0x352fedb03889d600!8m2!3d19.0734869!4d72.9873685?hl=en",http://www.yuvaganesh.in/
123,Ashtavinayak Mitra Mandal,https://images.unsplash.com/photo-1599521318879-0fe35e838760?ixlib=rb-1.2.1&ixid=MnwxMjA3fDB8MHxzZWFyY2h8MTR8fGdhbnBhdGl8ZW58MHx8MHx8&auto=format&fit=crop&w=500&q=60,Palghar,Vasai,,NA,"The festival celebrates Ganesha as the God of New Beginnings and the Remover of Obstacles as well as the god of wisdom and intelligence and is observed throughout India, especially in the states such as Tamil Nadu, Maharashtra, Karnataka, Kerala, Andhra Pradesh and Goa.It is believed that devotees who pray to Ganesha are able to fulfil their wishes and desires. So, the main essence of Ganesh Chaturthi is that devotees who pray to him are set free of sins and it leads them on the path of knowledge and wisdom.","raja, 100 feet cha, 100 Feet Rd, Vasai West, Vasai-Virar, Maharashtra 401202","19.38548353306036, 72.82254459256119","https://www.google.co.in/maps/place/Ashtavinayak+Mitra+Mandal/@19.3852305,72.8194118,16z/data=!4m9!1m2!2m1!1sraja,+100+feet+cha,+100+Feet+Rd,+Vasai+West,+Vasai-Virar,+Maharashtra+401202!3m5!1s0x3be7af938954d1bd:0x4eca598406bc3282!8m2!3d19.3850668!4d72.8233306!15sCkxyYWphLCAxMDAgZmVldCBjaGEsIDEwMCBGZWV0IFJkLCBWYXNhaSBXZXN0LCBWYXNhaS1WaXJhciwgTWFoYXJhc2h0cmEgNDAxMjAykgEMaGluZHVfdGVtcGxl4AEA?hl=en",NA
124,Vasai cha Maharaja,https://pbs.twimg.com/media/EcYmRcKU4AAvfR-.jpg,Palghar,Vasai,,NA,"The festival celebrates Ganesha as the God of New Beginnings and the Remover of Obstacles as well as the god of wisdom and intelligence and is observed throughout India, especially in the states such as Tamil Nadu, Maharashtra, Karnataka, Kerala, Andhra Pradesh and Goa.It is believed that devotees who pray to Ganesha are able to fulfil their wishes and desires. So, the main essence of Ganesh Chaturthi is that devotees who pray to him are set free of sins and it leads them on the path of knowledge and wisdom.","Chatrapati Shivaji Maharaj Chowk, Anand Nagar, Vasai-Virar, Maharashtra 401202","19.38067324649012, 72.83182849808065","https://www.google.co.in/maps/place/%E0%A4%B5%E0%A4%B8%E0%A4%88%E0%A4%9A%E0%A4%BE+%E0%A4%AE%E0%A4%B9%E0%A4%BE%E0%A4%B0%E0%A4%BE%E0%A4%9C%E0%A4%BE/@19.3804556,72.8290068,17z/data=!3m1!4b1!4m5!3m4!1s0x3be7afb25761871b:0x94f51fc550a001fa!8m2!3d19.3804506!4d72.8311955?hl=en",NA
125,Bal Gopal Sarvajanik Maghi Ganesh Utsav Mandal,https://images.unsplash.com/photo-1599521318879-0fe35e838760?ixlib=rb-1.2.1&ixid=MnwxMjA3fDB8MHxzZWFyY2h8MTR8fGdhbnBhdGl8ZW58MHx8MHx8&auto=format&fit=crop&w=500&q=60,Palghar,Vasai,,NA,"The festival celebrates Ganesha as the God of New Beginnings and the Remover of Obstacles as well as the god of wisdom and intelligence and is observed throughout India, especially in the states such as Tamil Nadu, Maharashtra, Karnataka, Kerala, Andhra Pradesh and Goa.It is believed that devotees who pray to Ganesha are able to fulfil their wishes and desires. So, the main essence of Ganesh Chaturthi is that devotees who pray to him are set free of sins and it leads them on the path of knowledge and wisdom.","CR7G+4GQ, Pascol Nagar Cooperative Housing Society, Majhitia park, East, Achole Rd, Nalasopara East, Nala Sopara, Maharashtra 401209","19.413143553084907, 72.82714273061153","https://www.google.co.in/maps/place/Bal+Gopal+Sarvajanik+Maghi+Ganesh+Utsav+Mandal/@19.412845,72.8241601,17z/data=!3m1!4b1!4m5!3m4!1s0x3be7a9486d4032ed:0x83dc147ba913ee14!8m2!3d19.41284!4d72.8263488?hl=en",NA
126,Shree Sainath Mitra Mandal,https://images.unsplash.com/photo-1599521318879-0fe35e838760?ixlib=rb-1.2.1&ixid=MnwxMjA3fDB8MHxzZWFyY2h8MTR8fGdhbnBhdGl8ZW58MHx8MHx8&auto=format&fit=crop&w=500&q=60,Palghar,Nalasopara,,NA,"The festival celebrates Ganesha as the God of New Beginnings and the Remover of Obstacles as well as the god of wisdom and intelligence and is observed throughout India, especially in the states such as Tamil Nadu, Maharashtra, Karnataka, Kerala, Andhra Pradesh and Goa.It is believed that devotees who pray to Ganesha are able to fulfil their wishes and desires. So, the main essence of Ganesh Chaturthi is that devotees who pray to him are set free of sins and it leads them on the path of knowledge and wisdom.","CR99+7QV, Near Railway station,Opposite Ganesh temple, Achole Rd, Nalasopara East, Nala Sopara, Maharashtra 401209","19.41858403020187, 72.82021034479024","https://www.google.co.in/maps/place/Shree+Sainath+Mitra+Mandal/@19.41824,72.8059625,15z/data=!4m9!1m2!2m1!1sShree+Sainath+Mitra+Mandal!3m5!1s0x3be7a9447c0aa9ed:0x64cd1ad074257961!8m2!3d19.4181893!4d72.8194331!15sChpTaHJlZSBTYWluYXRoIE1pdHJhIE1hbmRhbJIBFnJlbGlnaW91c19vcmdhbml6YXRpb27gAQA?hl=en",NA
127,Ostwalcha Vighnaharta,https://lh3.googleusercontent.com/p/AF1QipMN_DbuZXdg8KfEsgpU-NwjP64kxXbQ03-sJB_L=w960-h960-n-o-k-v1,Palghar,Nalasopara,,NA,"The festival celebrates Ganesha as the God of New Beginnings and the Remover of Obstacles as well as the god of wisdom and intelligence and is observed throughout India, especially in the states such as Tamil Nadu, Maharashtra, Karnataka, Kerala, Andhra Pradesh and Goa.It is believed that devotees who pray to Ganesha are able to fulfil their wishes and desires. So, the main essence of Ganesh Chaturthi is that devotees who pray to him are set free of sins and it leads them on the path of knowledge and wisdom.","Oswal Nagari, Nalasopara East, Nala Sopara, Maharashtra 401209","19.431737794284704, 72.81867714410576","https://www.google.co.in/maps/place/Ostwalcha+Vighnaharta/@19.4315101,72.8157267,17z/data=!3m1!4b1!4m5!3m4!1s0x3be7a955b71270dd:0x6a4c48235ee27172!8m2!3d19.4315138!4d72.8179131?hl=en",https://ostwalcha-vighnaharta.business.site/
128,Shree Siddhivinayak Mitra Mandal,https://lh5.googleusercontent.com/p/AF1QipNlQlCz0IAQsJ4Slb27fpYHBupsaIRPk0-Z46qN=w408-h544-k-no,Palghar,Virar,,NA,"The festival celebrates Ganesha as the God of New Beginnings and the Remover of Obstacles as well as the god of wisdom and intelligence and is observed throughout India, especially in the states such as Tamil Nadu, Maharashtra, Karnataka, Kerala, Andhra Pradesh and Goa.It is believed that devotees who pray to Ganesha are able to fulfil their wishes and desires. So, the main essence of Ganesh Chaturthi is that devotees who pray to him are set free of sins and it leads them on the path of knowledge and wisdom.","National English School, Virat Nagar Rd, Padman Sarkar Nagar, Virat Nagar, Virar West, Virar, Maharashtra 401303","19.44836112113637, 72.80690891294181","https://www.google.co.in/maps/place/Shree+Siddhivinayak+Mitra+Mandal/@19.4483396,72.8062008,19z/data=!4m9!1m2!2m1!1sShree+Siddhivinayak+Mitra+Mandal!3m5!1s0x3be7a9804e7ab3cd:0x4bb87e3878d3160!8m2!3d19.4483397!4d72.8068133!15sCiBTaHJlZSBTaWRkaGl2aW5heWFrIE1pdHJhIE1hbmRhbJIBFnJlbGlnaW91c19vcmdhbml6YXRpb27gAQA?hl=en",NA
129,Virarcha Maharaja Navayuk Sarvajanik Ganesh Utsav Mandal,https://i0.wp.com/hindupad.com/wp-content/uploads/Virar-cha-Maharaja-2019-2.jpg?fit=713%2C960&ssl=1,Palghar,Virar,,NA,"The festival celebrates Ganesha as the God of New Beginnings and the Remover of Obstacles as well as the god of wisdom and intelligence and is observed throughout India, especially in the states such as Tamil Nadu, Maharashtra, Karnataka, Kerala, Andhra Pradesh and Goa.It is believed that devotees who pray to Ganesha are able to fulfil their wishes and desires. So, the main essence of Ganesh Chaturthi is that devotees who pray to him are set free of sins and it leads them on the path of knowledge and wisdom.","FR88+R7R, veer savarkar marg , narangi phata, near ganpati mandir, Virar East, 401305","19.46725188830996, 72.8165034036245","https://www.google.co.in/maps/place/Virarcha+Maharaja+Navayuk+Sarvajanik+Ganesh+Utsav+Mandal/@19.4671254,72.8134564,17z/data=!3m1!4b1!4m5!3m4!1s0x3be7a91b376aa3c9:0xc8116b2095b96102!8m2!3d19.4671204!4d72.8156451?hl=en",NA
130,Rewale Sarwajanik Ganpati Mandal,https://images.unsplash.com/photo-1599521318879-0fe35e838760?ixlib=rb-1.2.1&ixid=MnwxMjA3fDB8MHxzZWFyY2h8MTR8fGdhbnBhdGl8ZW58MHx8MHx8&auto=format&fit=crop&w=500&q=60,Palghar,Rewale,,NA,"The festival celebrates Ganesha as the God of New Beginnings and the Remover of Obstacles as well as the god of wisdom and intelligence and is observed throughout India, especially in the states such as Tamil Nadu, Maharashtra, Karnataka, Kerala, Andhra Pradesh and Goa.It is believed that devotees who pray to Ganesha are able to fulfil their wishes and desires. So, the main essence of Ganesh Chaturthi is that devotees who pray to him are set free of sins and it leads them on the path of knowledge and wisdom.","JPRG+5WG, Rewale, Mahim, Maharashtra 401402","19.640469300682117, 72.72778623671887","https://www.google.co.in/maps/place/Rewale+Sarwajanik+Ganpati+Mandal/@19.640444,72.7251362,17z/data=!3m1!4b1!4m5!3m4!1s0x3be703bb954be07d:0x81ed743f5c4dac4c!8m2!3d19.6404095!4d72.727334?hl=en",NA
131,Nanda Bhuwan Ganesh Utshav Mandal,https://images.unsplash.com/photo-1599521318879-0fe35e838760?ixlib=rb-1.2.1&ixid=MnwxMjA3fDB8MHxzZWFyY2h8MTR8fGdhbnBhdGl8ZW58MHx8MHx8&auto=format&fit=crop&w=500&q=61,Palghar,Palghar,,NA,"The festival celebrates Ganesha as the God of New Beginnings and the Remover of Obstacles as well as the god of wisdom and intelligence and is observed throughout India, especially in the states such as Tamil Nadu, Maharashtra, Karnataka, Kerala, Andhra Pradesh and Goa.It is believed that devotees who pray to Ganesha are able to fulfil their wishes and desires. So, the main essence of Ganesh Chaturthi is that devotees who pray to him are set free of sins and it leads them on the path of knowledge and wisdom.","MQX9+GQX, Amba Mata Rd, Juna Palghar, Palghar, Maharashtra 401404","19.69908090664123, 72.76985540603687","https://www.google.co.in/maps/place/Nanda+Bhuwan+Ganesh+Utshav+Mandal/@19.6988738,72.7672912,17z/data=!3m1!4b1!4m5!3m4!1s0x3be71ce88613a0df:0x6d57275525b64ca5!8m2!3d19.6988671!4d72.7695293?hl=en",NA
132,Yuva seva ganesh mandal,https://images.unsplash.com/photo-1599521318879-0fe35e838760?ixlib=rb-1.2.1&ixid=MnwxMjA3fDB8MHxzZWFyY2h8MTR8fGdhbnBhdGl8ZW58MHx8MHx8&auto=format&fit=crop&w=500&q=62,Palghar,Palghar,,NA,"The festival celebrates Ganesha as the God of New Beginnings and the Remover of Obstacles as well as the god of wisdom and intelligence and is observed throughout India, especially in the states such as Tamil Nadu, Maharashtra, Karnataka, Kerala, Andhra Pradesh and Goa.It is believed that devotees who pray to Ganesha are able to fulfil their wishes and desires. So, the main essence of Ganesh Chaturthi is that devotees who pray to him are set free of sins and it leads them on the path of knowledge and wisdom.","Unnamed Road, Juna Palghar, Palghar, Maharashtra 401404","19.70063236143882, 72.77146728779222","https://www.google.co.in/maps/place/Yuva+seva+ganesh+mandal/@19.700496,72.7708021,17z/data=!3m1!4b1!4m5!3m4!1s0x3be71dd9dae5e4f5:0x7f1e681978376ac1!8m2!3d19.700496!4d72.7708021?hl=en",NA
133,Shiledar Sarvajanik Ganeshotsav Mandal,https://images.unsplash.com/photo-1599521318879-0fe35e838760?ixlib=rb-1.2.1&ixid=MnwxMjA3fDB8MHxzZWFyY2h8MTR8fGdhbnBhdGl8ZW58MHx8MHx8&auto=format&fit=crop&w=500&q=63,Palghar,,,NA,"The festival celebrates Ganesha as the God of New Beginnings and the Remover of Obstacles as well as the god of wisdom and intelligence and is observed throughout India, especially in the states such as Tamil Nadu, Maharashtra, Karnataka, Kerala, Andhra Pradesh and Goa.It is believed that devotees who pray to Ganesha are able to fulfil their wishes and desires. So, the main essence of Ganesh Chaturthi is that devotees who pray to him are set free of sins and it leads them on the path of knowledge and wisdom.","XPF9+6QV, Shringarpur, Dahanu, Maharashtra 401601","19.973315940559615, 72.71959748700468","https://www.google.co.in/maps/place/Shiledar+Sarvajanik+Ganeshotsav+Mandal/@19.9731092,72.7172264,17z/data=!3m1!4b1!4m5!3m4!1s0x3be72765da1d2e9d:0x1e0cf94c59bdca93!8m2!3d19.9731042!4d72.7194151?hl=en",NA
134,Ballaleshwar Temple,https://encrypted-tbn0.gstatic.com/images?q=tbn:ANd9GcR7Lxq1akFP9NTX6rrzNmcMQo1iFDOI8V1h6A&usqp=CAU,Raigad,Pali,Pali,NA,"Ballaleshwar (lit.: ""Ballal's Lord"") temple is one of the eight temples of Lord Ganesha. Among Ganesha temples, Ballaleshwar is the only incarnation of Ganesha that is known by his devotee's name. It is located in the village of Pali which is at a distance of 28 km from Roha in the Raigad district of Maharashtra, India. It is situated between fort Sarasgad and the river Amba.","G6PF+6C3, SH92, Bhalgul, Maharashtra 410205","18.535517718914832, 73.22355057356697","https://www.google.co.in/maps/place/18%C2%B032'07.9%22N+73%C2%B013'24.8%22E/@18.5355228,73.2213619,17z/data=!3m1!4b1!4m5!3m4!1s0x0:0x5097d8ede25fe6e5!8m2!3d18.5355177!4d73.2235506?hl=en",NA
135,Varadavinayak Temple,https://allworldtemple.com/wp-content/uploads/2021/09/Varad-Vinayak-Mahad-Kopargaon-1.jpg,Raigad,Mahad,Mahad,1725,"Varadvinayak, also spelt as Varadavinayaka, is one of the Ashtavinayak temples of the Hindu deity Ganesha. It is located in Mhad village situated in Khalapur taluka near Karjat and Khopoli of Raigad District, Maharashtra, India.[1][2] The temple was built (restored) by Peshwa General Ramji Mahadev Biwalkar in 1725AD.[3]

This place is not in Raigad district, but rather in Pune district. It is close to Lonavala and Panvel.","Khopoli Ganpati Mahad Rd, Mahad, Maharashtra 410203","18.813595123744765, 73.29846751072637","https://www.google.co.in/maps/place/18%C2%B048'48.9%22N+73%C2%B017'54.5%22E/@18.8136002,73.2962788,17z/data=!3m1!4b1!4m5!3m4!1s0x0:0x850538c48cc7a2e5!8m2!3d18.8135951!4d73.2984675?hl=en",NA
136,Siddhivinayak Temple,https://images.hindustantimes.com/rf/image_size_960x540/HT/p2/2020/01/21/Pictures/plating-devotee-around-delhi-weighing-donated-gold_2f6fc288-3c2a-11ea-bfbd-f812f33ac46f.jpg,Ahmednagar,Karjat,Siddhtek,1500-1601,"The Siddhivinayak Temple of Siddhatek is a Hindu temple dedicated to Ganesha, the elephant-headed god of wisdom. The temple is one of the Ashtavinayaka, the eight revered shrines of Ganesha in the Indian state of Maharashtra and the only Ashtavinayaka shrine in Ahmednagar district.[1]","Siddhtek, Jalalpur, Karjat, Maharashtra 414403","18.444345409742898, 74.7263586110014","https://www.google.co.in/maps/place/18%C2%B026'39.6%22N+74%C2%B043'34.9%22E/@18.4443505,74.7241699,17z/data=!3m1!4b1!4m5!3m4!1s0x0:0x53e31765e3cf59d5!8m2!3d18.4443454!4d74.7263586?hl=en",NA
137,Tulshibagh Ground,https://upload.wikimedia.org/wikipedia/commons/thumb/5/5b/Tulshibag_Ganpati_in_Pune_%2C_India.jpg/440px-Tulshibag_Ganpati_in_Pune_%2C_India.jpg,Nagpur,Tulsibagh,,1960,Tulshibagh ganpati pandal is known for its unique designs and decorations.,"Cha Raja, Dasra Road, Reshimbagh Road, Near, Tulsi Bagh, Mahal, Nagpur, Maharashtra 440009","21.138495865656886, 79.1085134861258","https://www.google.co.in/maps/place/21%C2%B008'18.6%22N+79%C2%B006'30.7%22E/@21.1385009,79.1063248,17z/data=!3m1!4b1!4m5!3m4!1s0x0:0x8972e555b4a795f7!8m2!3d21.1384959!4d79.1085135?hl=en",NA
138,Reshimbagh Cha Raja,https://i.ytimg.com/vi/ACEZ7VKPJAE/maxresdefault.jpg,Nagpur,Reshimbagh,,1980,There is a charitable trust that ensures the celebration happens in the best way possible.,"Nagnadi bridge, Reshimbagh","21.141037881590993, 79.13400325468966","https://www.google.co.in/maps/place/Nagnadi+Flyover/@21.1409516,79.1333176,18.25z/data=!4m9!1m2!2m1!1sNagnadi+bridge,+Reshimbagh!3m5!1s0x3bd4c769947a6f19:0x73bdd7beb61d28be!8m2!3d21.1409816!4d79.1339025!15sChpOYWduYWRpIGJyaWRnZSwgUmVzaGltYmFnaFobIhluYWduYWRpIGJyaWRnZSByZXNoaW1iYWdokgEGYnJpZGdlmgEjQ2haRFNVaE5NRzluUzBWSlEwRm5TVVF3TUZsUVNsSm5FQUXgAQA?hl=en",https://www.facebook.com/NAGPURKARAJAA/
139,Mahal cha Raja,https://thelivenagpur.com/wp-content/uploads/2019/09/WhatsApp-Image-2019-09-10-at-1.37.05-PM-768x1024.jpeg,Nagpur,Mahal,Tilak.rd,2002,It is a recently developed pandal and is known for their prasad.,"44W4+FQF, Mahal, Nagpur, Maharashtra 440032","21.14638843082907, 79.10696214393907","https://www.google.co.in/maps/place/Mahal+Cha+Raja/@21.1461883,79.1047198,17z/data=!3m1!4b1!4m5!3m4!1s0x3bd4c1f8e6f7e9db:0xe3403d460bd933ee!8m2!3d21.146172!4d79.1069821?hl=en",NA
140,Maskasath cha raja,https://images.unsplash.com/photo-1599521318879-0fe35e838760?ixlib=rb-1.2.1&ixid=MnwxMjA3fDB8MHxzZWFyY2h8MTR8fGdhbnBhdGl8ZW58MHx8MHx8&auto=format&fit=crop&w=500&q=60,Nagpur,Maskath,,1990,Its a very reknowned Gnapati Pandal,"5446+P32, Maskasath, Itwari, Nagpur, Maharashtra 440002","21.15696251618245, 79.1100382402429","https://www.google.co.in/maps/place/Maskasath+cha+raja/@21.1567624,79.1079461,17z/data=!3m1!4b1!4m5!3m4!1s0x3bd4c786e0e8ad77:0xca9e032b623ed51f!8m2!3d21.1567769!4d79.1100702?hl=en",NA
141,Khairatabad Ganesh,https://pbs.twimg.com/media/E-6oX93UUAI-VPZ.jpg,Hyderabad,Khairatabad,,NA,"The festival celebrates Ganesha as the God of New Beginnings and the Remover of Obstacles as well as the god of wisdom and intelligence and is observed throughout India, especially in the states such as Tamil Nadu, Maharashtra, Karnataka, Kerala, Andhra Pradesh and Goa.It is believed that devotees who pray to Ganesha are able to fulfil their wishes and desires. So, the main essence of Ganesh Chaturthi is that devotees who pray to him are set free of sins and it leads them on the path of knowledge and wisdom.","CF67+7HF, Indira Nagar, Khairtabad, Hyderabad, Telangana 500004","17.410818421015367, 78.46477085497122","https://www.google.co.in/maps/place/Khairatabad+Ganesh/@17.4016771,78.4338277,13z/data=!4m9!1m2!2m1!1sKhairatabad+Ganesh!3m5!1s0x3bcb977b7ee31e27:0xc9ead3ea396e0b29!8m2!3d17.4106881!4d78.4639329!15sChJLaGFpcmF0YWJhZCBHYW5lc2haFCISa2hhaXJhdGFiYWQgZ2FuZXNokgEMaGluZHVfdGVtcGxlmgEjQ2haRFNVaE5NRzluUzBWSlEwRm5TVVIxZVRkUGVsRjNFQUXgAQA?hl=en",NA
142,Balapur Ganesh,https://i0.wp.com/hindupad.com/wp-content/uploads/Balapur-Ganesh-2020.jpg?fit=718%2C960&ssl=1,Hyderabad,Balapur,,NA,"The festival celebrates Ganesha as the God of New Beginnings and the Remover of Obstacles as well as the god of wisdom and intelligence and is observed throughout India, especially in the states such as Tamil Nadu, Maharashtra, Karnataka, Kerala, Andhra Pradesh and Goa.It is believed that devotees who pray to Ganesha are able to fulfil their wishes and desires. So, the main essence of Ganesh Chaturthi is that devotees who pray to him are set free of sins and it leads them on the path of knowledge and wisdom.","Bus Stop, Yelmati Nagar, Balapur, Telangana 500005","17.31041671707737, 78.49986558271014","https://www.google.co.in/maps/place/Balapur+Ganesh/@17.3103194,78.4970868,17z/data=!3m1!4b1!4m5!3m4!1s0x3bcba2eaf4d1ec55:0x58796f5d727b454!8m2!3d17.3103232!4d78.4992353?hl=en",NA
143,Gowlipura Ganesh Pandal,https://encrypted-tbn0.gstatic.com/images?q=tbn:ANd9GcSmlovkvXLtghGeWrkl5rDrsGYzMPSBlXuDtMVHrOVwThic41fWki10j4swIviDJ9w0fU8&usqp=CAU,Hyderabad,Gowlipura,,NA,"The festival celebrates Ganesha as the God of New Beginnings and the Remover of Obstacles as well as the god of wisdom and intelligence and is observed throughout India, especially in the states such as Tamil Nadu, Maharashtra, Karnataka, Kerala, Andhra Pradesh and Goa.It is believed that devotees who pray to Ganesha are able to fulfil their wishes and desires. So, the main essence of Ganesh Chaturthi is that devotees who pray to him are set free of sins and it leads them on the path of knowledge and wisdom.","18-7-851/C, Gowlipura Rd, HB Colony, Gowlipura, behind Saraswathi Academy, Hyderabad, Telangana 500065","17.348913702986124, 78.47881066973126","https://www.google.co.in/maps/place/Gowlipura+Ganesh+Pandal,+Old+City/@17.3488638,78.4780328,19z/data=!3m1!4b1!4m5!3m4!1s0x3bcb981cf7bc63bd:0x2978b1a2ebf71c5!8m2!3d17.3488625!4d78.47858?hl=en",NA
144,Post Office Ganesh Mandapam,https://images.unsplash.com/photo-1599521318879-0fe35e838760?ixlib=rb-1.2.1&ixid=MnwxMjA3fDB8MHxzZWFyY2h8MTR8fGdhbnBhdGl8ZW58MHx8MHx8&auto=format&fit=crop&w=500&q=60,Hyderabad,Afzal Gunj,,NA,"The festival celebrates Ganesha as the God of New Beginnings and the Remover of Obstacles as well as the god of wisdom and intelligence and is observed throughout India, especially in the states such as Tamil Nadu, Maharashtra, Karnataka, Kerala, Andhra Pradesh and Goa.It is believed that devotees who pray to Ganesha are able to fulfil their wishes and desires. So, the main essence of Ganesh Chaturthi is that devotees who pray to him are set free of sins and it leads them on the path of knowledge and wisdom.","15-7-474, Fish Market, Begum Bazar, Afzal Gunj, Hyderabad, Telangana 500012",,"google.co.in/maps/place/Post+Office+Ganesh+Mandapam/@17.374303,78.467965,17z/data=!3m1!4b1!4m5!3m4!1s0x3bcb9786ade1f40f:0x2ca892cdae8160!8m2!3d17.3743222!4d78.470152?hl=en",NA
145,Tejaswi Nagar Ganesh Mandapam,https://images.unsplash.com/photo-1599521318879-0fe35e838760?ixlib=rb-1.2.1&ixid=MnwxMjA3fDB8MHxzZWFyY2h8MTR8fGdhbnBhdGl8ZW58MHx8MHx8&auto=format&fit=crop&w=500&q=61,Hyderabad,Tejaswi Nagar,,NA,"The festival celebrates Ganesha as the God of New Beginnings and the Remover of Obstacles as well as the god of wisdom and intelligence and is observed throughout India, especially in the states such as Tamil Nadu, Maharashtra, Karnataka, Kerala, Andhra Pradesh and Goa.It is believed that devotees who pray to Ganesha are able to fulfil their wishes and desires. So, the main essence of Ganesh Chaturthi is that devotees who pray to him are set free of sins and it leads them on the path of knowledge and wisdom.","9C7M+PCF, Hyderabad, Tejaswi Nagar, Attapur, Telangana 500264","17.36448675800707, 78.43383494945017","https://www.google.co.in/maps/place/Tejaswi+Nagar+Ganesh+Mandapam/@17.3639743,78.4312232,17z/data=!4m9!1m2!2m1!1sTejaswi+Nagar+Ganesh+Mandapam!3m5!1s0x3bcb97b24edca98f:0xe3f031e1acff3254!8m2!3d17.3643257!4d78.4335583!15sCh1UZWphc3dpIE5hZ2FyIEdhbmVzaCBNYW5kYXBhbZIBDGhpbmR1X3RlbXBsZeABAA?hl=en",NA
146,Mamtha Nagar Ganesh Mandapam,https://images.unsplash.com/photo-1599521318879-0fe35e838760?ixlib=rb-1.2.1&ixid=MnwxMjA3fDB8MHxzZWFyY2h8MTR8fGdhbnBhdGl8ZW58MHx8MHx8&auto=format&fit=crop&w=500&q=62,Hyderabad,Nagole,,NA,"The festival celebrates Ganesha as the God of New Beginnings and the Remover of Obstacles as well as the god of wisdom and intelligence and is observed throughout India, especially in the states such as Tamil Nadu, Maharashtra, Karnataka, Kerala, Andhra Pradesh and Goa.It is believed that devotees who pray to Ganesha are able to fulfil their wishes and desires. So, the main essence of Ganesh Chaturthi is that devotees who pray to him are set free of sins and it leads them on the path of knowledge and wisdom.","Hanuman Nagar Garden II, Nagole, Hyderabad, Telangana 500068","17.37840634834825, 78.55982434833317","https://www.google.co.in/maps/place/Mamtha+Nagar+Ganesh+Mandapam/@17.3781862,78.5572816,17z/data=!3m1!4b1!4m5!3m4!1s0x3bcb99dc38cf1411:0x884170e92733c4da!8m2!3d17.3781809!4d78.5594751?hl=en",NA
147,Team tyrants ganesh mandapam,https://images.unsplash.com/photo-1599521318879-0fe35e838760?ixlib=rb-1.2.1&ixid=MnwxMjA3fDB8MHxzZWFyY2h8MTR8fGdhbnBhdGl8ZW58MHx8MHx8&auto=format&fit=crop&w=500&q=63,Hyderabad,begumpet,,NA,"The festival celebrates Ganesha as the God of New Beginnings and the Remover of Obstacles as well as the god of wisdom and intelligence and is observed throughout India, especially in the states such as Tamil Nadu, Maharashtra, Karnataka, Kerala, Andhra Pradesh and Goa.It is believed that devotees who pray to Ganesha are able to fulfil their wishes and desires. So, the main essence of Ganesh Chaturthi is that devotees who pray to him are set free of sins and it leads them on the path of knowledge and wisdom.","Fatehnagar, Begumpet, Hyderabad, Telangana 500018","17.46107763950584, 78.45118246182811","https://www.google.co.in/maps/place/Team+tyrants+ganesh+mandapam/@17.460919,78.4486719,17z/data=!3m1!4b1!4m5!3m4!1s0x3bcb91cd97295fcb:0x3460f87f86a767a9!8m2!3d17.4609139!4d78.4508624?hl=en",NA
148,Balaji Colony Ganesh Mandapam,https://images.unsplash.com/photo-1599521318879-0fe35e838760?ixlib=rb-1.2.1&ixid=MnwxMjA3fDB8MHxzZWFyY2h8MTR8fGdhbnBhdGl8ZW58MHx8MHx8&auto=format&fit=crop&w=500&q=64,Hyderabad,Nizampet,,NA,"The festival celebrates Ganesha as the God of New Beginnings and the Remover of Obstacles as well as the god of wisdom and intelligence and is observed throughout India, especially in the states such as Tamil Nadu, Maharashtra, Karnataka, Kerala, Andhra Pradesh and Goa.It is believed that devotees who pray to Ganesha are able to fulfil their wishes and desires. So, the main essence of Ganesh Chaturthi is that devotees who pray to him are set free of sins and it leads them on the path of knowledge and wisdom.","G96F+WRM, Balaji Nagar Colony, Venkatraya Nagar, Nizampet, Hyderabad, Telangana 500090","17.512552351015042, 78.37447179492058","https://www.google.co.in/maps/place/7J9WG96F%2BWRM/@17.5123426,78.3723582,17z/data=!3m1!4b1!4m5!3m4!1s0x0:0x611e2238398081d0!8m2!3d17.5123375!4d78.3745469?hl=en",NA
149, Kothaguda Ganesh Mandapam,https://images.unsplash.com/photo-1599521318879-0fe35e838760?ixlib=rb-1.2.1&ixid=MnwxMjA3fDB8MHxzZWFyY2h8MTR8fGdhbnBhdGl8ZW58MHx8MHx8&auto=format&fit=crop&w=500&q=65,Hyderabad,Kothaguda,,NA,"The festival celebrates Ganesha as the God of New Beginnings and the Remover of Obstacles as well as the god of wisdom and intelligence and is observed throughout India, especially in the states such as Tamil Nadu, Maharashtra, Karnataka, Kerala, Andhra Pradesh and Goa.It is believed that devotees who pray to Ganesha are able to fulfil their wishes and desires. So, the main essence of Ganesh Chaturthi is that devotees who pray to him are set free of sins and it leads them on the path of knowledge and wisdom.","1-5/1, Gachibowli - Miyapur Rd, Land Mark Residency, Prashanth Nagar Colony, Kothaguda, Telangana 500084","17.460001901905272, 78.3698970399417","https://www.google.co.in/maps/place/Ganesh+Mandapam+Kothaguda/@17.4591422,78.332904,14z/data=!4m9!1m2!2m1!1s+Kothaguda+Ganesh+Mandapam!3m5!1s0x3bcb93c9213eb1dd:0x3ff1632ad9605c4b!8m2!3d17.4591174!4d78.3658568!15sChlLb3RoYWd1ZGEgR2FuZXNoIE1hbmRhcGFtkgEMaGluZHVfdGVtcGxl4AEA?hl=en",NA
150,Krishnaveni Nagar Ganesh Mandapam,https://images.unsplash.com/photo-1599521318879-0fe35e838760?ixlib=rb-1.2.1&ixid=MnwxMjA3fDB8MHxzZWFyY2h8MTR8fGdhbnBhdGl8ZW58MHx8MHx8&auto=format&fit=crop&w=500&q=66,Hyderabad,Kukatpally,,NA,"The festival celebrates Ganesha as the God of New Beginnings and the Remover of Obstacles as well as the god of wisdom and intelligence and is observed throughout India, especially in the states such as Tamil Nadu, Maharashtra, Karnataka, Kerala, Andhra Pradesh and Goa.It is believed that devotees who pray to Ganesha are able to fulfil their wishes and desires. So, the main essence of Ganesh Chaturthi is that devotees who pray to him are set free of sins and it leads them on the path of knowledge and wisdom.","G95X+24W, Krishnaveni Nagar, Tulasi Nagar, Chenchu Guda, Kukatpally, Hyderabad, Telangana 500085","17.50774670193474, 78.39812447532269","https://www.google.co.in/maps/place/Krishnaveni+Nagar+Ganesh+Mandapam/@17.5076188,78.3956461,17z/data=!3m1!4b1!4m5!3m4!1s0x3bcb9122fed1503f:0x42c65163338a493d!8m2!3d17.5076137!4d78.3978348?hl=en",NA
151,Bhagath Singh Yuvasena Ganesh Mandapam,https://images.unsplash.com/photo-1599521318879-0fe35e838760?ixlib=rb-1.2.1&ixid=MnwxMjA3fDB8MHxzZWFyY2h8MTR8fGdhbnBhdGl8ZW58MHx8MHx8&auto=format&fit=crop&w=500&q=67,Hyderabad,Ramachandrapuram,,NA,"The festival celebrates Ganesha as the God of New Beginnings and the Remover of Obstacles as well as the god of wisdom and intelligence and is observed throughout India, especially in the states such as Tamil Nadu, Maharashtra, Karnataka, Kerala, Andhra Pradesh and Goa.It is believed that devotees who pray to Ganesha are able to fulfil their wishes and desires. So, the main essence of Ganesh Chaturthi is that devotees who pray to him are set free of sins and it leads them on the path of knowledge and wisdom.","G77M+HM5, Ramachandrapuram, Telangana 502032","17.51403486030545, 78.28457136182881","https://www.google.co.in/maps/place/Bhagath+Singh+Yuvasena+Ganesh+Mandapam/@17.5138865,78.2820608,17z/data=!3m1!4b1!4m5!3m4!1s0x3bcbf323ecafea8d:0x35f596969e6369ce!8m2!3d17.513864!4d78.2842784?hl=en",NA
152,Young Stars Ganesh Mandapam,https://images.unsplash.com/photo-1599521318879-0fe35e838760?ixlib=rb-1.2.1&ixid=MnwxMjA3fDB8MHxzZWFyY2h8MTR8fGdhbnBhdGl8ZW58MHx8MHx8&auto=format&fit=crop&w=500&q=68,Hyderabad,Nandigama,,NA,"The festival celebrates Ganesha as the God of New Beginnings and the Remover of Obstacles as well as the god of wisdom and intelligence and is observed throughout India, especially in the states such as Tamil Nadu, Maharashtra, Karnataka, Kerala, Andhra Pradesh and Goa.It is believed that devotees who pray to Ganesha are able to fulfil their wishes and desires. So, the main essence of Ganesh Chaturthi is that devotees who pray to him are set free of sins and it leads them on the path of knowledge and wisdom.","G54X+9W3, Nandigama - Isnapur Rd, Nandigaon, Telangana 502300","17.522600333197765, 78.22111127899164","https://www.google.co.in/maps/place/Young+Stars+Ganesh+Mandapam/@17.5059026,77.9361534,11z/data=!4m9!1m2!2m1!1sYoung+Stars+Ganesh+Mandapam!3m5!1s0x3bcbf135484c8411:0x9443ea4300957ba4!8m2!3d17.5058911!4d78.1998089!15sChtZb3VuZyBTdGFycyBHYW5lc2ggTWFuZGFwYW2SAQxoaW5kdV90ZW1wbGXgAQA?hl=en",NA
153,Young Star Youth Ganesh Mandapam,https://images.unsplash.com/photo-1599521318879-0fe35e838760?ixlib=rb-1.2.1&ixid=MnwxMjA3fDB8MHxzZWFyY2h8MTR8fGdhbnBhdGl8ZW58MHx8MHx8&auto=format&fit=crop&w=500&q=69,Telangana,Singannaguda,,NA,"The festival celebrates Ganesha as the God of New Beginnings and the Remover of Obstacles as well as the god of wisdom and intelligence and is observed throughout India, especially in the states such as Tamil Nadu, Maharashtra, Karnataka, Kerala, Andhra Pradesh and Goa.It is believed that devotees who pray to Ganesha are able to fulfil their wishes and desires. So, the main essence of Ganesh Chaturthi is that devotees who pray to him are set free of sins and it leads them on the path of knowledge and wisdom.","PGCW+HW2, Singannaguda, Telangana 502336","17.740035118019485, 78.57954341953366",https://goo.gl/maps/DM5ikfzetBLK7VSa6,
154,Ganesh Mandapam Balaji,https://images.unsplash.com/photo-1599521318879-0fe35e838760?ixlib=rb-1.2.1&ixid=MnwxMjA3fDB8MHxzZWFyY2h8MTR8fGdhbnBhdGl8ZW58MHx8MHx8&auto=format&fit=crop&w=500&q=70,Hyderabad,Sangareddy,,NA,"The festival celebrates Ganesha as the God of New Beginnings and the Remover of Obstacles as well as the god of wisdom and intelligence and is observed throughout India, especially in the states such as Tamil Nadu, Maharashtra, Karnataka, Kerala, Andhra Pradesh and Goa.It is believed that devotees who pray to Ganesha are able to fulfil their wishes and desires. So, the main essence of Ganesh Chaturthi is that devotees who pray to him are set free of sins and it leads them on the path of knowledge and wisdom.","4-7-24/3, Sangareddy Bypass Rd, Revenue Colony, Balaji Nagar, Ahmed Nagar, Sangareddy, Telangana 502001","17.60034001750161, 78.07753877247096","https://www.google.com/maps/search/4-7-24%2F3,+Sangareddy+Bypass+Rd,+Revenue+Colony,+Balaji+Nagar,+Ahmed+Nagar,+Sangareddy,+Telangana+502001/@17.6011224,78.0760475,17z/data=!3m1!4b1",NA
155,Akhuratha Mandap,https://images.unsplash.com/photo-1599521318879-0fe35e838760?ixlib=rb-1.2.1&ixid=MnwxMjA3fDB8MHxzZWFyY2h8MTR8fGdhbnBhdGl8ZW58MHx8MHx8&auto=format&fit=crop&w=500&q=71,Hyderabad,Sircilla,,NA,"The festival celebrates Ganesha as the God of New Beginnings and the Remover of Obstacles as well as the god of wisdom and intelligence and is observed throughout India, especially in the states such as Tamil Nadu, Maharashtra, Karnataka, Kerala, Andhra Pradesh and Goa.It is believed that devotees who pray to Ganesha are able to fulfil their wishes and desires. So, the main essence of Ganesh Chaturthi is that devotees who pray to him are set free of sins and it leads them on the path of knowledge and wisdom.","9RV8+PC8, Shanti Nagar, Sircilla, Telangana 505301","18.3944300168469, 78.81602445260337","https://www.google.com/maps/place/7JCW9RV8%2BPC8/@18.3942926,78.8138894,17z/data=!3m1!4b1!4m5!3m4!1s0x0:0xde8f965394e26965!8m2!3d18.3942875!4d78.8160781",NA
156,Hindhu Sevak Samithi Ganesh Mandapam Sircilla,https://images.unsplash.com/photo-1599521318879-0fe35e838760?ixlib=rb-1.2.1&ixid=MnwxMjA3fDB8MHxzZWFyY2h8MTR8fGdhbnBhdGl8ZW58MHx8MHx8&auto=format&fit=crop&w=500&q=72,Hyderabad,Sircilla,,NA,"The festival celebrates Ganesha as the God of New Beginnings and the Remover of Obstacles as well as the god of wisdom and intelligence and is observed throughout India, especially in the states such as Tamil Nadu, Maharashtra, Karnataka, Kerala, Andhra Pradesh and Goa.It is believed that devotees who pray to Ganesha are able to fulfil their wishes and desires. So, the main essence of Ganesh Chaturthi is that devotees who pray to him are set free of sins and it leads them on the path of knowledge and wisdom.","9RW4+5P9, Shanti Nagar, Sircilla, Telangana 505301","18.3955753771096, 78.80689158328626","https://www.google.com/maps/place/7JCW9RW4%2B5P9/@18.3954176,78.8046707,17z/data=!3m1!4b1!4m5!3m4!1s0x0:0x3132d586cab60be9!8m2!3d18.3954125!4d78.8068594",NA
157,BALAPALA Ganesh Mandapam,https://images.unsplash.com/photo-1599521318879-0fe35e838760?ixlib=rb-1.2.1&ixid=MnwxMjA3fDB8MHxzZWFyY2h8MTR8fGdhbnBhdGl8ZW58MHx8MHx8&auto=format&fit=crop&w=500&q=73,Hyderabad,Balapalla,,NA,"The festival celebrates Ganesha as the God of New Beginnings and the Remover of Obstacles as well as the god of wisdom and intelligence and is observed throughout India, especially in the states such as Tamil Nadu, Maharashtra, Karnataka, Kerala, Andhra Pradesh and Goa.It is believed that devotees who pray to Ganesha are able to fulfil their wishes and desires. So, the main essence of Ganesh Chaturthi is that devotees who pray to him are set free of sins and it leads them on the path of knowledge and wisdom.","F3JC+H5H, Unnamed Road, Balapala, Telangana 506381","17.481829061428904, 80.07093295397925","https://www.google.com/maps/place/Ganesh+mandapam(YUVA+GANESH+YOUTH+ASSOCIATION),+BALAPALA/@17.48143,80.0621997,16z/data=!4m9!1m2!2m1!1sF3JC%2BH5H,+Unnamed+Road,+Balapala,+Telangana+506381!3m5!1s0x3a348bcfbf20edd3:0x9d8e0acbe6078c56!8m2!3d17.4814296!4d80.0704389!15sCjJGM0pDK0g1SCwgVW5uYW1lZCBSb2FkLCBCYWxhcGFsYSwgVGVsYW5nYW5hIDUwNjM4MZIBDGhpbmR1X3RlbXBsZeABAA",NA
158,Aazad Ganesh Mandal,https://images.unsplash.com/photo-1599521318879-0fe35e838760?ixlib=rb-1.2.1&ixid=MnwxMjA3fDB8MHxzZWFyY2h8MTR8fGdhbnBhdGl8ZW58MHx8MHx8&auto=format&fit=crop&w=500&q=74,Adilabad,Adilabad,,NA,"The festival celebrates Ganesha as the God of New Beginnings and the Remover of Obstacles as well as the god of wisdom and intelligence and is observed throughout India, especially in the states such as Tamil Nadu, Maharashtra, Karnataka, Kerala, Andhra Pradesh and Goa.It is believed that devotees who pray to Ganesha are able to fulfil their wishes and desires. So, the main essence of Ganesh Chaturthi is that devotees who pray to him are set free of sins and it leads them on the path of knowledge and wisdom.","Rd No. 1, Mohalla Badh, Adilabad(U), Telangana 504001","19.67921471688568, 78.54064306553433","https://www.google.com/maps/place/Rd+No.+1,+Mohalla+Badh,+Adilabad(U),+Telangana+504001/@19.6796542,78.5408791,17z/data=!4m5!3m4!1s0x3bd25b8a4e34001f:0x25d5ff2019281a63!8m2!3d19.679019!4d78.5403896",NA
159,Sowcarpet ka raja,https://images.unsplash.com/photo-1599521318879-0fe35e838760?ixlib=rb-1.2.1&ixid=MnwxMjA3fDB8MHxzZWFyY2h8MTR8fGdhbnBhdGl8ZW58MHx8MHx8&auto=format&fit=crop&w=500&q=75,Chennai,sowcarpet,,NA,"The festival celebrates Ganesha as the God of New Beginnings and the Remover of Obstacles as well as the god of wisdom and intelligence and is observed throughout India, especially in the states such as Tamil Nadu, Maharashtra, Karnataka, Kerala, Andhra Pradesh and Goa.It is believed that devotees who pray to Ganesha are able to fulfil their wishes and desires. So, the main essence of Ganesh Chaturthi is that devotees who pray to him are set free of sins and it leads them on the path of knowledge and wisdom.","veerappan street, sowcarpet, Chennai, Tamil Nadu 600079","13.091356890758187, 80.27759578748103","https://www.google.com/maps/place/Veerappan+St,+Sowcarpet,+George+Town,+Chennai,+Tamil+Nadu/@13.0912158,80.2757826,17z/data=!3m1!4b1!4m5!3m4!1s0x3a526f57caeef375:0x883ba25e31b27cea!8m2!3d13.0912106!4d80.2779713",NA
160,Delhi ka Raja,https://images.unsplash.com/photo-1599521318879-0fe35e838760?ixlib=rb-1.2.1&ixid=MnwxMjA3fDB8MHxzZWFyY2h8MTR8fGdhbnBhdGl8ZW58MHx8MHx8&auto=format&fit=crop&w=500&q=76,Delhi,Ramesh Nagar,,NA,"The festival celebrates Ganesha as the God of New Beginnings and the Remover of Obstacles as well as the god of wisdom and intelligence and is observed throughout India, especially in the states such as Tamil Nadu, Maharashtra, Karnataka, Kerala, Andhra Pradesh and Goa.It is believed that devotees who pray to Ganesha are able to fulfil their wishes and desires. So, the main essence of Ganesh Chaturthi is that devotees who pray to him are set free of sins and it leads them on the path of knowledge and wisdom.","8-Block, Ramesh Nagar, New Delhi, Delhi 110015","28.651363021467443, 77.1331904233997","https://www.google.com/maps/place/8%2F143,+Old+Market,+Block+2A,+Ramesh+Nagar,+New+Delhi,+Delhi+110015/@28.6510947,77.1305082,17z/data=!3m1!4b1!4m5!3m4!1s0x390d030e3fffffff:0x200c978ad145ad7!8m2!3d28.65109!4d77.1326969",NA
161,Lalbagh Ka Raja Ganpati Pandal,https://images.unsplash.com/photo-1599521318879-0fe35e838760?ixlib=rb-1.2.1&ixid=MnwxMjA3fDB8MHxzZWFyY2h8MTR8fGdhbnBhdGl8ZW58MHx8MHx8&auto=format&fit=crop&w=500&q=77,Delhi,NSP,,NA,"The festival celebrates Ganesha as the God of New Beginnings and the Remover of Obstacles as well as the god of wisdom and intelligence and is observed throughout India, especially in the states such as Tamil Nadu, Maharashtra, Karnataka, Kerala, Andhra Pradesh and Goa.It is believed that devotees who pray to Ganesha are able to fulfil their wishes and desires. So, the main essence of Ganesh Chaturthi is that devotees who pray to him are set free of sins and it leads them on the path of knowledge and wisdom.","M5V2+RQ5, Netaji Subhash Place Near NSP Metro Station, Pitam Pura, Delhi, 110034","28.69623820447743, 77.1525578104682","https://www.google.com/maps/place/Netaji+Subhash+Place/@28.6960547,77.1504013,17z/data=!3m1!4b1!4m5!3m4!1s0x390d023243f9fe8b:0xdbcb89821a18cfc4!8m2!3d28.69605!4d77.15259",NA